{
  "type": "FeatureCollection",
  "zone": "Zone_10",
  "crs": { "type": "name", "properties": { "name": "urn:ogc:def:crs:OGC:1.3:CRS84" } },
  "features": [
    {
      "type": "Feature",
      "id": "W-10-001",
      "properties": {
        "ward_number": 1,
        "ward_code": "W-10-001",
        "ward_name": "Zone_10 Municipal Ward 1",
        "population_census": 12350,
        "residential_properties": 2580,
        "commercial_units": 365,
        "sanitation_workers_allocated": 16,
        "nodal_officer": "OFF-ZONE10-WARD1",
        "helpline": "+91-1800-425-1101"
      },
      "geometry": {
        "type": "Polygon",
        "coordinates": [[
          [78.987700, 17.886000],
          [78.997700, 17.888000],
          [78.999700, 17.901000],
          [78.990700, 17.904000],
          [78.987700, 17.886000]
        ]]
      }
    },
    {
      "type": "Feature",
      "id": "W-10-002",
      "properties": {
        "ward_number": 2,
        "ward_code": "W-10-002",
        "ward_name": "Zone_10 Municipal Ward 2",
        "population_census": 12700,
        "residential_properties": 2660,
        "commercial_units": 380,
        "sanitation_workers_allocated": 17,
        "nodal_officer": "OFF-ZONE10-WARD2",
        "helpline": "+91-1800-425-1102"
      },
      "geometry": {
        "type": "Polygon",
        "coordinates": [[
          [78.988700, 17.887000],
          [78.998700, 17.889000],
          [79.000700, 17.902000],
          [78.991700, 17.905000],
          [78.988700, 17.887000]
        ]]
      }
    },
    {
      "type": "Feature",
      "id": "W-10-003",
      "properties": {
        "ward_number": 3,
        "ward_code": "W-10-003",
        "ward_name": "Zone_10 Municipal Ward 3",
        "population_census": 13050,
        "residential_properties": 2740,
        "commercial_units": 395,
        "sanitation_workers_allocated": 18,
        "nodal_officer": "OFF-ZONE10-WARD3",
        "helpline": "+91-1800-425-1103"
      },
      "geometry": {
        "type": "Polygon",
        "coordinates": [[
          [78.989700, 17.888000],
          [78.999700, 17.890000],
          [79.001700, 17.903000],
          [78.992700, 17.906000],
          [78.989700, 17.888000]
        ]]
      }
    },
    {
      "type": "Feature",
      "id": "W-10-004",
      "properties": {
        "ward_number": 4,
        "ward_code": "W-10-004",
        "ward_name": "Zone_10 Municipal Ward 4",
        "population_census": 13400,
        "residential_properties": 2820,
        "commercial_units": 410,
        "sanitation_workers_allocated": 19,
        "nodal_officer": "OFF-ZONE10-WARD4",
        "helpline": "+91-1800-425-1104"
      },
      "geometry": {
        "type": "Polygon",
        "coordinates": [[
          [78.990700, 17.889000],
          [79.000700, 17.891000],
          [79.002700, 17.904000],
          [78.993700, 17.907000],
          [78.990700, 17.889000]
        ]]
      }
    },
    {
      "type": "Feature",
      "id": "W-10-005",
      "properties": {
        "ward_number": 5,
        "ward_code": "W-10-005",
        "ward_name": "Zone_10 Municipal Ward 5",
        "population_census": 13750,
        "residential_properties": 2900,
        "commercial_units": 425,
        "sanitation_workers_allocated": 20,
        "nodal_officer": "OFF-ZONE10-WARD5",
        "helpline": "+91-1800-425-1105"
      },
      "geometry": {
        "type": "Polygon",
        "coordinates": [[
          [78.991700, 17.890000],
          [79.001700, 17.892000],
          [79.003700, 17.905000],
          [78.994700, 17.908000],
          [78.991700, 17.890000]
        ]]
      }
    },
    {
      "type": "Feature",
      "id": "W-10-006",
      "properties": {
        "ward_number": 6,
        "ward_code": "W-10-006",
        "ward_name": "Zone_10 Municipal Ward 6",
        "population_census": 14100,
        "residential_properties": 2980,
        "commercial_units": 440,
        "sanitation_workers_allocated": 21,
        "nodal_officer": "OFF-ZONE10-WARD6",
        "helpline": "+91-1800-425-1106"
      },
      "geometry": {
        "type": "Polygon",
        "coordinates": [[
          [78.992700, 17.891000],
          [79.002700, 17.893000],
          [79.004700, 17.906000],
          [78.995700, 17.909000],
          [78.992700, 17.891000]
        ]]
      }
    },
    {
      "type": "Feature",
      "id": "W-10-007",
      "properties": {
        "ward_number": 7,
        "ward_code": "W-10-007",
        "ward_name": "Zone_10 Municipal Ward 7",
        "population_census": 14450,
        "residential_properties": 3060,
        "commercial_units": 455,
        "sanitation_workers_allocated": 22,
        "nodal_officer": "OFF-ZONE10-WARD7",
        "helpline": "+91-1800-425-1107"
      },
      "geometry": {
        "type": "Polygon",
        "coordinates": [[
          [78.993700, 17.892000],
          [79.003700, 17.894000],
          [79.005700, 17.907000],
          [78.996700, 17.910000],
          [78.993700, 17.892000]
        ]]
      }
    },
    {
      "type": "Feature",
      "id": "W-10-008",
      "properties": {
        "ward_number": 8,
        "ward_code": "W-10-008",
        "ward_name": "Zone_10 Municipal Ward 8",
        "population_census": 14800,
        "residential_properties": 3140,
        "commercial_units": 470,
        "sanitation_workers_allocated": 23,
        "nodal_officer": "OFF-ZONE10-WARD8",
        "helpline": "+91-1800-425-1108"
      },
      "geometry": {
        "type": "Polygon",
        "coordinates": [[
          [78.994700, 17.893000],
          [79.004700, 17.895000],
          [79.006700, 17.908000],
          [78.997700, 17.911000],
          [78.994700, 17.893000]
        ]]
      }
    },
    {
      "type": "Feature",
      "id": "W-10-009",
      "properties": {
        "ward_number": 9,
        "ward_code": "W-10-009",
        "ward_name": "Zone_10 Municipal Ward 9",
        "population_census": 15150,
        "residential_properties": 3220,
        "commercial_units": 485,
        "sanitation_workers_allocated": 24,
        "nodal_officer": "OFF-ZONE10-WARD9",
        "helpline": "+91-1800-425-1109"
      },
      "geometry": {
        "type": "Polygon",
        "coordinates": [[
          [78.995700, 17.894000],
          [79.005700, 17.896000],
          [79.007700, 17.909000],
          [78.998700, 17.912000],
          [78.995700, 17.894000]
        ]]
      }
    },
    {
      "type": "Feature",
      "id": "W-10-010",
      "properties": {
        "ward_number": 10,
        "ward_code": "W-10-010",
        "ward_name": "Zone_10 Municipal Ward 10",
        "population_census": 15500,
        "residential_properties": 3300,
        "commercial_units": 500,
        "sanitation_workers_allocated": 25,
        "nodal_officer": "OFF-ZONE10-WARD10",
        "helpline": "+91-1800-425-1110"
      },
      "geometry": {
        "type": "Polygon",
        "coordinates": [[
          [78.996700, 17.895000],
          [79.006700, 17.897000],
          [79.008700, 17.910000],
          [78.999700, 17.913000],
          [78.996700, 17.895000]
        ]]
      }
    },
    {
      "type": "Feature",
      "id": "W-10-011",
      "properties": {
        "ward_number": 11,
        "ward_code": "W-10-011",
        "ward_name": "Zone_10 Municipal Ward 11",
        "population_census": 15850,
        "residential_properties": 3380,
        "commercial_units": 515,
        "sanitation_workers_allocated": 26,
        "nodal_officer": "OFF-ZONE10-WARD11",
        "helpline": "+91-1800-425-1111"
      },
      "geometry": {
        "type": "Polygon",
        "coordinates": [[
          [78.997700, 17.896000],
          [79.007700, 17.898000],
          [79.009700, 17.911000],
          [79.000700, 17.914000],
          [78.997700, 17.896000]
        ]]
      }
    },
    {
      "type": "Feature",
      "id": "W-10-012",
      "properties": {
        "ward_number": 12,
        "ward_code": "W-10-012",
        "ward_name": "Zone_10 Municipal Ward 12",
        "population_census": 16200,
        "residential_properties": 3460,
        "commercial_units": 530,
        "sanitation_workers_allocated": 27,
        "nodal_officer": "OFF-ZONE10-WARD12",
        "helpline": "+91-1800-425-1112"
      },
      "geometry": {
        "type": "Polygon",
        "coordinates": [[
          [78.998700, 17.897000],
          [79.008700, 17.899000],
          [79.010700, 17.912000],
          [79.001700, 17.915000],
          [78.998700, 17.897000]
        ]]
      }
    },
    {
      "type": "Feature",
      "id": "W-10-013",
      "properties": {
        "ward_number": 13,
        "ward_code": "W-10-013",
        "ward_name": "Zone_10 Municipal Ward 13",
        "population_census": 16550,
        "residential_properties": 3540,
        "commercial_units": 545,
        "sanitation_workers_allocated": 28,
        "nodal_officer": "OFF-ZONE10-WARD13",
        "helpline": "+91-1800-425-1113"
      },
      "geometry": {
        "type": "Polygon",
        "coordinates": [[
          [78.999700, 17.898000],
          [79.009700, 17.900000],
          [79.011700, 17.913000],
          [79.002700, 17.916000],
          [78.999700, 17.898000]
        ]]
      }
    },
    {
      "type": "Feature",
      "id": "W-10-014",
      "properties": {
        "ward_number": 14,
        "ward_code": "W-10-014",
        "ward_name": "Zone_10 Municipal Ward 14",
        "population_census": 16900,
        "residential_properties": 3620,
        "commercial_units": 560,
        "sanitation_workers_allocated": 29,
        "nodal_officer": "OFF-ZONE10-WARD14",
        "helpline": "+91-1800-425-1114"
      },
      "geometry": {
        "type": "Polygon",
        "coordinates": [[
          [79.000700, 17.899000],
          [79.010700, 17.901000],
          [79.012700, 17.914000],
          [79.003700, 17.917000],
          [79.000700, 17.899000]
        ]]
      }
    },
    {
      "type": "Feature",
      "id": "W-10-015",
      "properties": {
        "ward_number": 15,
        "ward_code": "W-10-015",
        "ward_name": "Zone_10 Municipal Ward 15",
        "population_census": 17250,
        "residential_properties": 3700,
        "commercial_units": 575,
        "sanitation_workers_allocated": 30,
        "nodal_officer": "OFF-ZONE10-WARD15",
        "helpline": "+91-1800-425-1115"
      },
      "geometry": {
        "type": "Polygon",
        "coordinates": [[
          [79.001700, 17.900000],
          [79.011700, 17.902000],
          [79.013700, 17.915000],
          [79.004700, 17.918000],
          [79.001700, 17.900000]
        ]]
      }
    },
    {
      "type": "Feature",
      "id": "W-10-016",
      "properties": {
        "ward_number": 16,
        "ward_code": "W-10-016",
        "ward_name": "Zone_10 Municipal Ward 16",
        "population_census": 17600,
        "residential_properties": 3780,
        "commercial_units": 590,
        "sanitation_workers_allocated": 31,
        "nodal_officer": "OFF-ZONE10-WARD16",
        "helpline": "+91-1800-425-1116"
      },
      "geometry": {
        "type": "Polygon",
        "coordinates": [[
          [79.002700, 17.901000],
          [79.012700, 17.903000],
          [79.014700, 17.916000],
          [79.005700, 17.919000],
          [79.002700, 17.901000]
        ]]
      }
    },
    {
      "type": "Feature",
      "id": "W-10-017",
      "properties": {
        "ward_number": 17,
        "ward_code": "W-10-017",
        "ward_name": "Zone_10 Municipal Ward 17",
        "population_census": 17950,
        "residential_properties": 3860,
        "commercial_units": 605,
        "sanitation_workers_allocated": 32,
        "nodal_officer": "OFF-ZONE10-WARD17",
        "helpline": "+91-1800-425-1117"
      },
      "geometry": {
        "type": "Polygon",
        "coordinates": [[
          [79.003700, 17.902000],
          [79.013700, 17.904000],
          [79.015700, 17.917000],
          [79.006700, 17.920000],
          [79.003700, 17.902000]
        ]]
      }
    },
    {
      "type": "Feature",
      "id": "W-10-018",
      "properties": {
        "ward_number": 18,
        "ward_code": "W-10-018",
        "ward_name": "Zone_10 Municipal Ward 18",
        "population_census": 18300,
        "residential_properties": 3940,
        "commercial_units": 620,
        "sanitation_workers_allocated": 33,
        "nodal_officer": "OFF-ZONE10-WARD18",
        "helpline": "+91-1800-425-1118"
      },
      "geometry": {
        "type": "Polygon",
        "coordinates": [[
          [79.004700, 17.903000],
          [79.014700, 17.905000],
          [79.016700, 17.918000],
          [79.007700, 17.921000],
          [79.004700, 17.903000]
        ]]
      }
    },
    {
      "type": "Feature",
      "id": "W-10-019",
      "properties": {
        "ward_number": 19,
        "ward_code": "W-10-019",
        "ward_name": "Zone_10 Municipal Ward 19",
        "population_census": 18650,
        "residential_properties": 4020,
        "commercial_units": 635,
        "sanitation_workers_allocated": 34,
        "nodal_officer": "OFF-ZONE10-WARD19",
        "helpline": "+91-1800-425-1119"
      },
      "geometry": {
        "type": "Polygon",
        "coordinates": [[
          [79.005700, 17.904000],
          [79.015700, 17.906000],
          [79.017700, 17.919000],
          [79.008700, 17.922000],
          [79.005700, 17.904000]
        ]]
      }
    },
    {
      "type": "Feature",
      "id": "W-10-020",
      "properties": {
        "ward_number": 20,
        "ward_code": "W-10-020",
        "ward_name": "Zone_10 Municipal Ward 20",
        "population_census": 19000,
        "residential_properties": 4100,
        "commercial_units": 650,
        "sanitation_workers_allocated": 15,
        "nodal_officer": "OFF-ZONE10-WARD20",
        "helpline": "+91-1800-425-1120"
      },
      "geometry": {
        "type": "Polygon",
        "coordinates": [[
          [79.006700, 17.905000],
          [79.016700, 17.907000],
          [79.018700, 17.920000],
          [79.009700, 17.923000],
          [79.006700, 17.905000]
        ]]
      }
    },
    {
      "type": "Feature",
      "id": "W-10-021",
      "properties": {
        "ward_number": 21,
        "ward_code": "W-10-021",
        "ward_name": "Zone_10 Municipal Ward 21",
        "population_census": 19350,
        "residential_properties": 4180,
        "commercial_units": 665,
        "sanitation_workers_allocated": 16,
        "nodal_officer": "OFF-ZONE10-WARD21",
        "helpline": "+91-1800-425-1121"
      },
      "geometry": {
        "type": "Polygon",
        "coordinates": [[
          [79.007700, 17.906000],
          [79.017700, 17.908000],
          [79.019700, 17.921000],
          [79.010700, 17.924000],
          [79.007700, 17.906000]
        ]]
      }
    },
    {
      "type": "Feature",
      "id": "W-10-022",
      "properties": {
        "ward_number": 22,
        "ward_code": "W-10-022",
        "ward_name": "Zone_10 Municipal Ward 22",
        "population_census": 19700,
        "residential_properties": 4260,
        "commercial_units": 680,
        "sanitation_workers_allocated": 17,
        "nodal_officer": "OFF-ZONE10-WARD22",
        "helpline": "+91-1800-425-1122"
      },
      "geometry": {
        "type": "Polygon",
        "coordinates": [[
          [79.008700, 17.907000],
          [79.018700, 17.909000],
          [79.020700, 17.922000],
          [79.011700, 17.925000],
          [79.008700, 17.907000]
        ]]
      }
    },
    {
      "type": "Feature",
      "id": "W-10-023",
      "properties": {
        "ward_number": 23,
        "ward_code": "W-10-023",
        "ward_name": "Zone_10 Municipal Ward 23",
        "population_census": 20050,
        "residential_properties": 4340,
        "commercial_units": 695,
        "sanitation_workers_allocated": 18,
        "nodal_officer": "OFF-ZONE10-WARD23",
        "helpline": "+91-1800-425-1123"
      },
      "geometry": {
        "type": "Polygon",
        "coordinates": [[
          [79.009700, 17.908000],
          [79.019700, 17.910000],
          [79.021700, 17.923000],
          [79.012700, 17.926000],
          [79.009700, 17.908000]
        ]]
      }
    },
    {
      "type": "Feature",
      "id": "W-10-024",
      "properties": {
        "ward_number": 24,
        "ward_code": "W-10-024",
        "ward_name": "Zone_10 Municipal Ward 24",
        "population_census": 20400,
        "residential_properties": 4420,
        "commercial_units": 710,
        "sanitation_workers_allocated": 19,
        "nodal_officer": "OFF-ZONE10-WARD24",
        "helpline": "+91-1800-425-1124"
      },
      "geometry": {
        "type": "Polygon",
        "coordinates": [[
          [79.010700, 17.909000],
          [79.020700, 17.911000],
          [79.022700, 17.924000],
          [79.013700, 17.927000],
          [79.010700, 17.909000]
        ]]
      }
    },
    {
      "type": "Feature",
      "id": "W-10-025",
      "properties": {
        "ward_number": 25,
        "ward_code": "W-10-025",
        "ward_name": "Zone_10 Municipal Ward 25",
        "population_census": 20750,
        "residential_properties": 4500,
        "commercial_units": 725,
        "sanitation_workers_allocated": 20,
        "nodal_officer": "OFF-ZONE10-WARD25",
        "helpline": "+91-1800-425-1125"
      },
      "geometry": {
        "type": "Polygon",
        "coordinates": [[
          [79.011700, 17.910000],
          [79.021700, 17.912000],
          [79.023700, 17.925000],
          [79.014700, 17.928000],
          [79.011700, 17.910000]
        ]]
      }
    },
    {
      "type": "Feature",
      "id": "W-10-026",
      "properties": {
        "ward_number": 26,
        "ward_code": "W-10-026",
        "ward_name": "Zone_10 Municipal Ward 26",
        "population_census": 21100,
        "residential_properties": 4580,
        "commercial_units": 740,
        "sanitation_workers_allocated": 21,
        "nodal_officer": "OFF-ZONE10-WARD26",
        "helpline": "+91-1800-425-1126"
      },
      "geometry": {
        "type": "Polygon",
        "coordinates": [[
          [79.012700, 17.911000],
          [79.022700, 17.913000],
          [79.024700, 17.926000],
          [79.015700, 17.929000],
          [79.012700, 17.911000]
        ]]
      }
    },
    {
      "type": "Feature",
      "id": "W-10-027",
      "properties": {
        "ward_number": 27,
        "ward_code": "W-10-027",
        "ward_name": "Zone_10 Municipal Ward 27",
        "population_census": 21450,
        "residential_properties": 4660,
        "commercial_units": 755,
        "sanitation_workers_allocated": 22,
        "nodal_officer": "OFF-ZONE10-WARD27",
        "helpline": "+91-1800-425-1127"
      },
      "geometry": {
        "type": "Polygon",
        "coordinates": [[
          [79.013700, 17.912000],
          [79.023700, 17.914000],
          [79.025700, 17.927000],
          [79.016700, 17.930000],
          [79.013700, 17.912000]
        ]]
      }
    },
    {
      "type": "Feature",
      "id": "W-10-028",
      "properties": {
        "ward_number": 28,
        "ward_code": "W-10-028",
        "ward_name": "Zone_10 Municipal Ward 28",
        "population_census": 21800,
        "residential_properties": 4740,
        "commercial_units": 770,
        "sanitation_workers_allocated": 23,
        "nodal_officer": "OFF-ZONE10-WARD28",
        "helpline": "+91-1800-425-1128"
      },
      "geometry": {
        "type": "Polygon",
        "coordinates": [[
          [79.014700, 17.913000],
          [79.024700, 17.915000],
          [79.026700, 17.928000],
          [79.017700, 17.931000],
          [79.014700, 17.913000]
        ]]
      }
    },
    {
      "type": "Feature",
      "id": "W-10-029",
      "properties": {
        "ward_number": 29,
        "ward_code": "W-10-029",
        "ward_name": "Zone_10 Municipal Ward 29",
        "population_census": 22150,
        "residential_properties": 4820,
        "commercial_units": 785,
        "sanitation_workers_allocated": 24,
        "nodal_officer": "OFF-ZONE10-WARD29",
        "helpline": "+91-1800-425-1129"
      },
      "geometry": {
        "type": "Polygon",
        "coordinates": [[
          [79.015700, 17.914000],
          [79.025700, 17.916000],
          [79.027700, 17.929000],
          [79.018700, 17.932000],
          [79.015700, 17.914000]
        ]]
      }
    },
    {
      "type": "Feature",
      "id": "W-10-030",
      "properties": {
        "ward_number": 30,
        "ward_code": "W-10-030",
        "ward_name": "Zone_10 Municipal Ward 30",
        "population_census": 22500,
        "residential_properties": 4900,
        "commercial_units": 800,
        "sanitation_workers_allocated": 25,
        "nodal_officer": "OFF-ZONE10-WARD30",
        "helpline": "+91-1800-425-1130"
      },
      "geometry": {
        "type": "Polygon",
        "coordinates": [[
          [79.016700, 17.915000],
          [79.026700, 17.917000],
          [79.028700, 17.930000],
          [79.019700, 17.933000],
          [79.016700, 17.915000]
        ]]
      }
    },
    {
      "type": "Feature",
      "id": "W-10-031",
      "properties": {
        "ward_number": 31,
        "ward_code": "W-10-031",
        "ward_name": "Zone_10 Municipal Ward 31",
        "population_census": 22850,
        "residential_properties": 4980,
        "commercial_units": 815,
        "sanitation_workers_allocated": 26,
        "nodal_officer": "OFF-ZONE10-WARD31",
        "helpline": "+91-1800-425-1131"
      },
      "geometry": {
        "type": "Polygon",
        "coordinates": [[
          [79.017700, 17.916000],
          [79.027700, 17.918000],
          [79.029700, 17.931000],
          [79.020700, 17.934000],
          [79.017700, 17.916000]
        ]]
      }
    },
    {
      "type": "Feature",
      "id": "W-10-032",
      "properties": {
        "ward_number": 32,
        "ward_code": "W-10-032",
        "ward_name": "Zone_10 Municipal Ward 32",
        "population_census": 23200,
        "residential_properties": 5060,
        "commercial_units": 830,
        "sanitation_workers_allocated": 27,
        "nodal_officer": "OFF-ZONE10-WARD32",
        "helpline": "+91-1800-425-1132"
      },
      "geometry": {
        "type": "Polygon",
        "coordinates": [[
          [79.018700, 17.917000],
          [79.028700, 17.919000],
          [79.030700, 17.932000],
          [79.021700, 17.935000],
          [79.018700, 17.917000]
        ]]
      }
    },
    {
      "type": "Feature",
      "id": "W-10-033",
      "properties": {
        "ward_number": 33,
        "ward_code": "W-10-033",
        "ward_name": "Zone_10 Municipal Ward 33",
        "population_census": 23550,
        "residential_properties": 5140,
        "commercial_units": 845,
        "sanitation_workers_allocated": 28,
        "nodal_officer": "OFF-ZONE10-WARD33",
        "helpline": "+91-1800-425-1133"
      },
      "geometry": {
        "type": "Polygon",
        "coordinates": [[
          [79.019700, 17.918000],
          [79.029700, 17.920000],
          [79.031700, 17.933000],
          [79.022700, 17.936000],
          [79.019700, 17.918000]
        ]]
      }
    },
    {
      "type": "Feature",
      "id": "W-10-034",
      "properties": {
        "ward_number": 34,
        "ward_code": "W-10-034",
        "ward_name": "Zone_10 Municipal Ward 34",
        "population_census": 23900,
        "residential_properties": 5220,
        "commercial_units": 860,
        "sanitation_workers_allocated": 29,
        "nodal_officer": "OFF-ZONE10-WARD34",
        "helpline": "+91-1800-425-1134"
      },
      "geometry": {
        "type": "Polygon",
        "coordinates": [[
          [79.020700, 17.919000],
          [79.030700, 17.921000],
          [79.032700, 17.934000],
          [79.023700, 17.937000],
          [79.020700, 17.919000]
        ]]
      }
    },
    {
      "type": "Feature",
      "id": "W-10-035",
      "properties": {
        "ward_number": 35,
        "ward_code": "W-10-035",
        "ward_name": "Zone_10 Municipal Ward 35",
        "population_census": 24250,
        "residential_properties": 5300,
        "commercial_units": 875,
        "sanitation_workers_allocated": 30,
        "nodal_officer": "OFF-ZONE10-WARD35",
        "helpline": "+91-1800-425-1135"
      },
      "geometry": {
        "type": "Polygon",
        "coordinates": [[
          [79.021700, 17.920000],
          [79.031700, 17.922000],
          [79.033700, 17.935000],
          [79.024700, 17.938000],
          [79.021700, 17.920000]
        ]]
      }
    },
    {
      "type": "Feature",
      "id": "W-10-036",
      "properties": {
        "ward_number": 36,
        "ward_code": "W-10-036",
        "ward_name": "Zone_10 Municipal Ward 36",
        "population_census": 24600,
        "residential_properties": 5380,
        "commercial_units": 890,
        "sanitation_workers_allocated": 31,
        "nodal_officer": "OFF-ZONE10-WARD36",
        "helpline": "+91-1800-425-1136"
      },
      "geometry": {
        "type": "Polygon",
        "coordinates": [[
          [79.022700, 17.921000],
          [79.032700, 17.923000],
          [79.034700, 17.936000],
          [79.025700, 17.939000],
          [79.022700, 17.921000]
        ]]
      }
    },
    {
      "type": "Feature",
      "id": "W-10-037",
      "properties": {
        "ward_number": 37,
        "ward_code": "W-10-037",
        "ward_name": "Zone_10 Municipal Ward 37",
        "population_census": 24950,
        "residential_properties": 5460,
        "commercial_units": 905,
        "sanitation_workers_allocated": 32,
        "nodal_officer": "OFF-ZONE10-WARD37",
        "helpline": "+91-1800-425-1137"
      },
      "geometry": {
        "type": "Polygon",
        "coordinates": [[
          [79.023700, 17.922000],
          [79.033700, 17.924000],
          [79.035700, 17.937000],
          [79.026700, 17.940000],
          [79.023700, 17.922000]
        ]]
      }
    },
    {
      "type": "Feature",
      "id": "W-10-038",
      "properties": {
        "ward_number": 38,
        "ward_code": "W-10-038",
        "ward_name": "Zone_10 Municipal Ward 38",
        "population_census": 25300,
        "residential_properties": 5540,
        "commercial_units": 920,
        "sanitation_workers_allocated": 33,
        "nodal_officer": "OFF-ZONE10-WARD38",
        "helpline": "+91-1800-425-1138"
      },
      "geometry": {
        "type": "Polygon",
        "coordinates": [[
          [79.024700, 17.923000],
          [79.034700, 17.925000],
          [79.036700, 17.938000],
          [79.027700, 17.941000],
          [79.024700, 17.923000]
        ]]
      }
    },
    {
      "type": "Feature",
      "id": "W-10-039",
      "properties": {
        "ward_number": 39,
        "ward_code": "W-10-039",
        "ward_name": "Zone_10 Municipal Ward 39",
        "population_census": 25650,
        "residential_properties": 5620,
        "commercial_units": 935,
        "sanitation_workers_allocated": 34,
        "nodal_officer": "OFF-ZONE10-WARD39",
        "helpline": "+91-1800-425-1139"
      },
      "geometry": {
        "type": "Polygon",
        "coordinates": [[
          [79.025700, 17.924000],
          [79.035700, 17.926000],
          [79.037700, 17.939000],
          [79.028700, 17.942000],
          [79.025700, 17.924000]
        ]]
      }
    },
    {
      "type": "Feature",
      "id": "W-10-040",
      "properties": {
        "ward_number": 40,
        "ward_code": "W-10-040",
        "ward_name": "Zone_10 Municipal Ward 40",
        "population_census": 26000,
        "residential_properties": 5700,
        "commercial_units": 950,
        "sanitation_workers_allocated": 15,
        "nodal_officer": "OFF-ZONE10-WARD40",
        "helpline": "+91-1800-425-1140"
      },
      "geometry": {
        "type": "Polygon",
        "coordinates": [[
          [79.026700, 17.925000],
          [79.036700, 17.927000],
          [79.038700, 17.940000],
          [79.029700, 17.943000],
          [79.026700, 17.925000]
        ]]
      }
    },
    {
      "type": "Feature",
      "id": "W-10-041",
      "properties": {
        "ward_number": 41,
        "ward_code": "W-10-041",
        "ward_name": "Zone_10 Municipal Ward 41",
        "population_census": 26350,
        "residential_properties": 5780,
        "commercial_units": 965,
        "sanitation_workers_allocated": 16,
        "nodal_officer": "OFF-ZONE10-WARD41",
        "helpline": "+91-1800-425-1141"
      },
      "geometry": {
        "type": "Polygon",
        "coordinates": [[
          [79.027700, 17.926000],
          [79.037700, 17.928000],
          [79.039700, 17.941000],
          [79.030700, 17.944000],
          [79.027700, 17.926000]
        ]]
      }
    },
    {
      "type": "Feature",
      "id": "W-10-042",
      "properties": {
        "ward_number": 42,
        "ward_code": "W-10-042",
        "ward_name": "Zone_10 Municipal Ward 42",
        "population_census": 26700,
        "residential_properties": 5860,
        "commercial_units": 980,
        "sanitation_workers_allocated": 17,
        "nodal_officer": "OFF-ZONE10-WARD42",
        "helpline": "+91-1800-425-1142"
      },
      "geometry": {
        "type": "Polygon",
        "coordinates": [[
          [79.028700, 17.927000],
          [79.038700, 17.929000],
          [79.040700, 17.942000],
          [79.031700, 17.945000],
          [79.028700, 17.927000]
        ]]
      }
    },
    {
      "type": "Feature",
      "id": "W-10-043",
      "properties": {
        "ward_number": 43,
        "ward_code": "W-10-043",
        "ward_name": "Zone_10 Municipal Ward 43",
        "population_census": 27050,
        "residential_properties": 5940,
        "commercial_units": 995,
        "sanitation_workers_allocated": 18,
        "nodal_officer": "OFF-ZONE10-WARD43",
        "helpline": "+91-1800-425-1143"
      },
      "geometry": {
        "type": "Polygon",
        "coordinates": [[
          [79.029700, 17.928000],
          [79.039700, 17.930000],
          [79.041700, 17.943000],
          [79.032700, 17.946000],
          [79.029700, 17.928000]
        ]]
      }
    },
    {
      "type": "Feature",
      "id": "W-10-044",
      "properties": {
        "ward_number": 44,
        "ward_code": "W-10-044",
        "ward_name": "Zone_10 Municipal Ward 44",
        "population_census": 27400,
        "residential_properties": 6020,
        "commercial_units": 1010,
        "sanitation_workers_allocated": 19,
        "nodal_officer": "OFF-ZONE10-WARD44",
        "helpline": "+91-1800-425-1144"
      },
      "geometry": {
        "type": "Polygon",
        "coordinates": [[
          [79.030700, 17.929000],
          [79.040700, 17.931000],
          [79.042700, 17.944000],
          [79.033700, 17.947000],
          [79.030700, 17.929000]
        ]]
      }
    },
    {
      "type": "Feature",
      "id": "W-10-045",
      "properties": {
        "ward_number": 45,
        "ward_code": "W-10-045",
        "ward_name": "Zone_10 Municipal Ward 45",
        "population_census": 27750,
        "residential_properties": 6100,
        "commercial_units": 1025,
        "sanitation_workers_allocated": 20,
        "nodal_officer": "OFF-ZONE10-WARD45",
        "helpline": "+91-1800-425-1145"
      },
      "geometry": {
        "type": "Polygon",
        "coordinates": [[
          [79.031700, 17.930000],
          [79.041700, 17.932000],
          [79.043700, 17.945000],
          [79.034700, 17.948000],
          [79.031700, 17.930000]
        ]]
      }
    },
    {
      "type": "Feature",
      "id": "W-10-046",
      "properties": {
        "ward_number": 46,
        "ward_code": "W-10-046",
        "ward_name": "Zone_10 Municipal Ward 46",
        "population_census": 28100,
        "residential_properties": 6180,
        "commercial_units": 1040,
        "sanitation_workers_allocated": 21,
        "nodal_officer": "OFF-ZONE10-WARD46",
        "helpline": "+91-1800-425-1146"
      },
      "geometry": {
        "type": "Polygon",
        "coordinates": [[
          [79.032700, 17.931000],
          [79.042700, 17.933000],
          [79.044700, 17.946000],
          [79.035700, 17.949000],
          [79.032700, 17.931000]
        ]]
      }
    },
    {
      "type": "Feature",
      "id": "W-10-047",
      "properties": {
        "ward_number": 47,
        "ward_code": "W-10-047",
        "ward_name": "Zone_10 Municipal Ward 47",
        "population_census": 28450,
        "residential_properties": 6260,
        "commercial_units": 1055,
        "sanitation_workers_allocated": 22,
        "nodal_officer": "OFF-ZONE10-WARD47",
        "helpline": "+91-1800-425-1147"
      },
      "geometry": {
        "type": "Polygon",
        "coordinates": [[
          [79.033700, 17.932000],
          [79.043700, 17.934000],
          [79.045700, 17.947000],
          [79.036700, 17.950000],
          [79.033700, 17.932000]
        ]]
      }
    },
    {
      "type": "Feature",
      "id": "W-10-048",
      "properties": {
        "ward_number": 48,
        "ward_code": "W-10-048",
        "ward_name": "Zone_10 Municipal Ward 48",
        "population_census": 28800,
        "residential_properties": 6340,
        "commercial_units": 1070,
        "sanitation_workers_allocated": 23,
        "nodal_officer": "OFF-ZONE10-WARD48",
        "helpline": "+91-1800-425-1148"
      },
      "geometry": {
        "type": "Polygon",
        "coordinates": [[
          [79.034700, 17.933000],
          [79.044700, 17.935000],
          [79.046700, 17.948000],
          [79.037700, 17.951000],
          [79.034700, 17.933000]
        ]]
      }
    },
    {
      "type": "Feature",
      "id": "W-10-049",
      "properties": {
        "ward_number": 49,
        "ward_code": "W-10-049",
        "ward_name": "Zone_10 Municipal Ward 49",
        "population_census": 29150,
        "residential_properties": 6420,
        "commercial_units": 1085,
        "sanitation_workers_allocated": 24,
        "nodal_officer": "OFF-ZONE10-WARD49",
        "helpline": "+91-1800-425-1149"
      },
      "geometry": {
        "type": "Polygon",
        "coordinates": [[
          [79.035700, 17.934000],
          [79.045700, 17.936000],
          [79.047700, 17.949000],
          [79.038700, 17.952000],
          [79.035700, 17.934000]
        ]]
      }
    },
    {
      "type": "Feature",
      "id": "W-10-050",
      "properties": {
        "ward_number": 50,
        "ward_code": "W-10-050",
        "ward_name": "Zone_10 Municipal Ward 50",
        "population_census": 29500,
        "residential_properties": 6500,
        "commercial_units": 1100,
        "sanitation_workers_allocated": 25,
        "nodal_officer": "OFF-ZONE10-WARD50",
        "helpline": "+91-1800-425-1150"
      },
      "geometry": {
        "type": "Polygon",
        "coordinates": [[
          [79.036700, 17.935000],
          [79.046700, 17.937000],
          [79.048700, 17.950000],
          [79.039700, 17.953000],
          [79.036700, 17.935000]
        ]]
      }
    },
    {
      "type": "Feature",
      "id": "W-10-051",
      "properties": {
        "ward_number": 51,
        "ward_code": "W-10-051",
        "ward_name": "Zone_10 Municipal Ward 51",
        "population_census": 29850,
        "residential_properties": 6580,
        "commercial_units": 1115,
        "sanitation_workers_allocated": 26,
        "nodal_officer": "OFF-ZONE10-WARD51",
        "helpline": "+91-1800-425-1151"
      },
      "geometry": {
        "type": "Polygon",
        "coordinates": [[
          [79.037700, 17.936000],
          [79.047700, 17.938000],
          [79.049700, 17.951000],
          [79.040700, 17.954000],
          [79.037700, 17.936000]
        ]]
      }
    },
    {
      "type": "Feature",
      "id": "W-10-052",
      "properties": {
        "ward_number": 52,
        "ward_code": "W-10-052",
        "ward_name": "Zone_10 Municipal Ward 52",
        "population_census": 30200,
        "residential_properties": 6660,
        "commercial_units": 1130,
        "sanitation_workers_allocated": 27,
        "nodal_officer": "OFF-ZONE10-WARD52",
        "helpline": "+91-1800-425-1152"
      },
      "geometry": {
        "type": "Polygon",
        "coordinates": [[
          [79.038700, 17.937000],
          [79.048700, 17.939000],
          [79.050700, 17.952000],
          [79.041700, 17.955000],
          [79.038700, 17.937000]
        ]]
      }
    },
    {
      "type": "Feature",
      "id": "W-10-053",
      "properties": {
        "ward_number": 53,
        "ward_code": "W-10-053",
        "ward_name": "Zone_10 Municipal Ward 53",
        "population_census": 30550,
        "residential_properties": 6740,
        "commercial_units": 1145,
        "sanitation_workers_allocated": 28,
        "nodal_officer": "OFF-ZONE10-WARD53",
        "helpline": "+91-1800-425-1153"
      },
      "geometry": {
        "type": "Polygon",
        "coordinates": [[
          [79.039700, 17.938000],
          [79.049700, 17.940000],
          [79.051700, 17.953000],
          [79.042700, 17.956000],
          [79.039700, 17.938000]
        ]]
      }
    },
    {
      "type": "Feature",
      "id": "W-10-054",
      "properties": {
        "ward_number": 54,
        "ward_code": "W-10-054",
        "ward_name": "Zone_10 Municipal Ward 54",
        "population_census": 30900,
        "residential_properties": 6820,
        "commercial_units": 1160,
        "sanitation_workers_allocated": 29,
        "nodal_officer": "OFF-ZONE10-WARD54",
        "helpline": "+91-1800-425-1154"
      },
      "geometry": {
        "type": "Polygon",
        "coordinates": [[
          [79.040700, 17.939000],
          [79.050700, 17.941000],
          [79.052700, 17.954000],
          [79.043700, 17.957000],
          [79.040700, 17.939000]
        ]]
      }
    },
    {
      "type": "Feature",
      "id": "W-10-055",
      "properties": {
        "ward_number": 55,
        "ward_code": "W-10-055",
        "ward_name": "Zone_10 Municipal Ward 55",
        "population_census": 31250,
        "residential_properties": 6900,
        "commercial_units": 1175,
        "sanitation_workers_allocated": 30,
        "nodal_officer": "OFF-ZONE10-WARD55",
        "helpline": "+91-1800-425-1155"
      },
      "geometry": {
        "type": "Polygon",
        "coordinates": [[
          [79.041700, 17.940000],
          [79.051700, 17.942000],
          [79.053700, 17.955000],
          [79.044700, 17.958000],
          [79.041700, 17.940000]
        ]]
      }
    },
    {
      "type": "Feature",
      "id": "W-10-056",
      "properties": {
        "ward_number": 56,
        "ward_code": "W-10-056",
        "ward_name": "Zone_10 Municipal Ward 56",
        "population_census": 31600,
        "residential_properties": 6980,
        "commercial_units": 1190,
        "sanitation_workers_allocated": 31,
        "nodal_officer": "OFF-ZONE10-WARD56",
        "helpline": "+91-1800-425-1156"
      },
      "geometry": {
        "type": "Polygon",
        "coordinates": [[
          [79.042700, 17.941000],
          [79.052700, 17.943000],
          [79.054700, 17.956000],
          [79.045700, 17.959000],
          [79.042700, 17.941000]
        ]]
      }
    },
    {
      "type": "Feature",
      "id": "W-10-057",
      "properties": {
        "ward_number": 57,
        "ward_code": "W-10-057",
        "ward_name": "Zone_10 Municipal Ward 57",
        "population_census": 31950,
        "residential_properties": 7060,
        "commercial_units": 1205,
        "sanitation_workers_allocated": 32,
        "nodal_officer": "OFF-ZONE10-WARD57",
        "helpline": "+91-1800-425-1157"
      },
      "geometry": {
        "type": "Polygon",
        "coordinates": [[
          [79.043700, 17.942000],
          [79.053700, 17.944000],
          [79.055700, 17.957000],
          [79.046700, 17.960000],
          [79.043700, 17.942000]
        ]]
      }
    },
    {
      "type": "Feature",
      "id": "W-10-058",
      "properties": {
        "ward_number": 58,
        "ward_code": "W-10-058",
        "ward_name": "Zone_10 Municipal Ward 58",
        "population_census": 32300,
        "residential_properties": 7140,
        "commercial_units": 1220,
        "sanitation_workers_allocated": 33,
        "nodal_officer": "OFF-ZONE10-WARD58",
        "helpline": "+91-1800-425-1158"
      },
      "geometry": {
        "type": "Polygon",
        "coordinates": [[
          [79.044700, 17.943000],
          [79.054700, 17.945000],
          [79.056700, 17.958000],
          [79.047700, 17.961000],
          [79.044700, 17.943000]
        ]]
      }
    },
    {
      "type": "Feature",
      "id": "W-10-059",
      "properties": {
        "ward_number": 59,
        "ward_code": "W-10-059",
        "ward_name": "Zone_10 Municipal Ward 59",
        "population_census": 32650,
        "residential_properties": 7220,
        "commercial_units": 1235,
        "sanitation_workers_allocated": 34,
        "nodal_officer": "OFF-ZONE10-WARD59",
        "helpline": "+91-1800-425-1159"
      },
      "geometry": {
        "type": "Polygon",
        "coordinates": [[
          [79.045700, 17.944000],
          [79.055700, 17.946000],
          [79.057700, 17.959000],
          [79.048700, 17.962000],
          [79.045700, 17.944000]
        ]]
      }
    },
    {
      "type": "Feature",
      "id": "W-10-060",
      "properties": {
        "ward_number": 60,
        "ward_code": "W-10-060",
        "ward_name": "Zone_10 Municipal Ward 60",
        "population_census": 33000,
        "residential_properties": 7300,
        "commercial_units": 1250,
        "sanitation_workers_allocated": 15,
        "nodal_officer": "OFF-ZONE10-WARD60",
        "helpline": "+91-1800-425-1160"
      },
      "geometry": {
        "type": "Polygon",
        "coordinates": [[
          [79.046700, 17.945000],
          [79.056700, 17.947000],
          [79.058700, 17.960000],
          [79.049700, 17.963000],
          [79.046700, 17.945000]
        ]]
      }
    },
    {
      "type": "Feature",
      "id": "W-10-061",
      "properties": {
        "ward_number": 61,
        "ward_code": "W-10-061",
        "ward_name": "Zone_10 Municipal Ward 61",
        "population_census": 33350,
        "residential_properties": 7380,
        "commercial_units": 1265,
        "sanitation_workers_allocated": 16,
        "nodal_officer": "OFF-ZONE10-WARD61",
        "helpline": "+91-1800-425-1161"
      },
      "geometry": {
        "type": "Polygon",
        "coordinates": [[
          [79.047700, 17.946000],
          [79.057700, 17.948000],
          [79.059700, 17.961000],
          [79.050700, 17.964000],
          [79.047700, 17.946000]
        ]]
      }
    },
    {
      "type": "Feature",
      "id": "W-10-062",
      "properties": {
        "ward_number": 62,
        "ward_code": "W-10-062",
        "ward_name": "Zone_10 Municipal Ward 62",
        "population_census": 33700,
        "residential_properties": 7460,
        "commercial_units": 1280,
        "sanitation_workers_allocated": 17,
        "nodal_officer": "OFF-ZONE10-WARD62",
        "helpline": "+91-1800-425-1162"
      },
      "geometry": {
        "type": "Polygon",
        "coordinates": [[
          [79.048700, 17.947000],
          [79.058700, 17.949000],
          [79.060700, 17.962000],
          [79.051700, 17.965000],
          [79.048700, 17.947000]
        ]]
      }
    },
    {
      "type": "Feature",
      "id": "W-10-063",
      "properties": {
        "ward_number": 63,
        "ward_code": "W-10-063",
        "ward_name": "Zone_10 Municipal Ward 63",
        "population_census": 34050,
        "residential_properties": 7540,
        "commercial_units": 1295,
        "sanitation_workers_allocated": 18,
        "nodal_officer": "OFF-ZONE10-WARD63",
        "helpline": "+91-1800-425-1163"
      },
      "geometry": {
        "type": "Polygon",
        "coordinates": [[
          [79.049700, 17.948000],
          [79.059700, 17.950000],
          [79.061700, 17.963000],
          [79.052700, 17.966000],
          [79.049700, 17.948000]
        ]]
      }
    },
    {
      "type": "Feature",
      "id": "W-10-064",
      "properties": {
        "ward_number": 64,
        "ward_code": "W-10-064",
        "ward_name": "Zone_10 Municipal Ward 64",
        "population_census": 34400,
        "residential_properties": 7620,
        "commercial_units": 1310,
        "sanitation_workers_allocated": 19,
        "nodal_officer": "OFF-ZONE10-WARD64",
        "helpline": "+91-1800-425-1164"
      },
      "geometry": {
        "type": "Polygon",
        "coordinates": [[
          [79.050700, 17.949000],
          [79.060700, 17.951000],
          [79.062700, 17.964000],
          [79.053700, 17.967000],
          [79.050700, 17.949000]
        ]]
      }
    },
    {
      "type": "Feature",
      "id": "W-10-065",
      "properties": {
        "ward_number": 65,
        "ward_code": "W-10-065",
        "ward_name": "Zone_10 Municipal Ward 65",
        "population_census": 34750,
        "residential_properties": 7700,
        "commercial_units": 1325,
        "sanitation_workers_allocated": 20,
        "nodal_officer": "OFF-ZONE10-WARD65",
        "helpline": "+91-1800-425-1165"
      },
      "geometry": {
        "type": "Polygon",
        "coordinates": [[
          [79.051700, 17.950000],
          [79.061700, 17.952000],
          [79.063700, 17.965000],
          [79.054700, 17.968000],
          [79.051700, 17.950000]
        ]]
      }
    },
    {
      "type": "Feature",
      "id": "W-10-066",
      "properties": {
        "ward_number": 66,
        "ward_code": "W-10-066",
        "ward_name": "Zone_10 Municipal Ward 66",
        "population_census": 35100,
        "residential_properties": 7780,
        "commercial_units": 1340,
        "sanitation_workers_allocated": 21,
        "nodal_officer": "OFF-ZONE10-WARD66",
        "helpline": "+91-1800-425-1166"
      },
      "geometry": {
        "type": "Polygon",
        "coordinates": [[
          [79.052700, 17.951000],
          [79.062700, 17.953000],
          [79.064700, 17.966000],
          [79.055700, 17.969000],
          [79.052700, 17.951000]
        ]]
      }
    },
    {
      "type": "Feature",
      "id": "W-10-067",
      "properties": {
        "ward_number": 67,
        "ward_code": "W-10-067",
        "ward_name": "Zone_10 Municipal Ward 67",
        "population_census": 35450,
        "residential_properties": 7860,
        "commercial_units": 1355,
        "sanitation_workers_allocated": 22,
        "nodal_officer": "OFF-ZONE10-WARD67",
        "helpline": "+91-1800-425-1167"
      },
      "geometry": {
        "type": "Polygon",
        "coordinates": [[
          [79.053700, 17.952000],
          [79.063700, 17.954000],
          [79.065700, 17.967000],
          [79.056700, 17.970000],
          [79.053700, 17.952000]
        ]]
      }
    },
    {
      "type": "Feature",
      "id": "W-10-068",
      "properties": {
        "ward_number": 68,
        "ward_code": "W-10-068",
        "ward_name": "Zone_10 Municipal Ward 68",
        "population_census": 35800,
        "residential_properties": 7940,
        "commercial_units": 1370,
        "sanitation_workers_allocated": 23,
        "nodal_officer": "OFF-ZONE10-WARD68",
        "helpline": "+91-1800-425-1168"
      },
      "geometry": {
        "type": "Polygon",
        "coordinates": [[
          [79.054700, 17.953000],
          [79.064700, 17.955000],
          [79.066700, 17.968000],
          [79.057700, 17.971000],
          [79.054700, 17.953000]
        ]]
      }
    },
    {
      "type": "Feature",
      "id": "W-10-069",
      "properties": {
        "ward_number": 69,
        "ward_code": "W-10-069",
        "ward_name": "Zone_10 Municipal Ward 69",
        "population_census": 36150,
        "residential_properties": 8020,
        "commercial_units": 1385,
        "sanitation_workers_allocated": 24,
        "nodal_officer": "OFF-ZONE10-WARD69",
        "helpline": "+91-1800-425-1169"
      },
      "geometry": {
        "type": "Polygon",
        "coordinates": [[
          [79.055700, 17.954000],
          [79.065700, 17.956000],
          [79.067700, 17.969000],
          [79.058700, 17.972000],
          [79.055700, 17.954000]
        ]]
      }
    },
    {
      "type": "Feature",
      "id": "W-10-070",
      "properties": {
        "ward_number": 70,
        "ward_code": "W-10-070",
        "ward_name": "Zone_10 Municipal Ward 70",
        "population_census": 36500,
        "residential_properties": 8100,
        "commercial_units": 1400,
        "sanitation_workers_allocated": 25,
        "nodal_officer": "OFF-ZONE10-WARD70",
        "helpline": "+91-1800-425-1170"
      },
      "geometry": {
        "type": "Polygon",
        "coordinates": [[
          [79.056700, 17.955000],
          [79.066700, 17.957000],
          [79.068700, 17.970000],
          [79.059700, 17.973000],
          [79.056700, 17.955000]
        ]]
      }
    },
    {
      "type": "Feature",
      "id": "W-10-071",
      "properties": {
        "ward_number": 71,
        "ward_code": "W-10-071",
        "ward_name": "Zone_10 Municipal Ward 71",
        "population_census": 36850,
        "residential_properties": 8180,
        "commercial_units": 1415,
        "sanitation_workers_allocated": 26,
        "nodal_officer": "OFF-ZONE10-WARD71",
        "helpline": "+91-1800-425-1171"
      },
      "geometry": {
        "type": "Polygon",
        "coordinates": [[
          [79.057700, 17.956000],
          [79.067700, 17.958000],
          [79.069700, 17.971000],
          [79.060700, 17.974000],
          [79.057700, 17.956000]
        ]]
      }
    },
    {
      "type": "Feature",
      "id": "W-10-072",
      "properties": {
        "ward_number": 72,
        "ward_code": "W-10-072",
        "ward_name": "Zone_10 Municipal Ward 72",
        "population_census": 37200,
        "residential_properties": 8260,
        "commercial_units": 1430,
        "sanitation_workers_allocated": 27,
        "nodal_officer": "OFF-ZONE10-WARD72",
        "helpline": "+91-1800-425-1172"
      },
      "geometry": {
        "type": "Polygon",
        "coordinates": [[
          [79.058700, 17.957000],
          [79.068700, 17.959000],
          [79.070700, 17.972000],
          [79.061700, 17.975000],
          [79.058700, 17.957000]
        ]]
      }
    },
    {
      "type": "Feature",
      "id": "W-10-073",
      "properties": {
        "ward_number": 73,
        "ward_code": "W-10-073",
        "ward_name": "Zone_10 Municipal Ward 73",
        "population_census": 37550,
        "residential_properties": 8340,
        "commercial_units": 1445,
        "sanitation_workers_allocated": 28,
        "nodal_officer": "OFF-ZONE10-WARD73",
        "helpline": "+91-1800-425-1173"
      },
      "geometry": {
        "type": "Polygon",
        "coordinates": [[
          [79.059700, 17.958000],
          [79.069700, 17.960000],
          [79.071700, 17.973000],
          [79.062700, 17.976000],
          [79.059700, 17.958000]
        ]]
      }
    },
    {
      "type": "Feature",
      "id": "W-10-074",
      "properties": {
        "ward_number": 74,
        "ward_code": "W-10-074",
        "ward_name": "Zone_10 Municipal Ward 74",
        "population_census": 37900,
        "residential_properties": 8420,
        "commercial_units": 1460,
        "sanitation_workers_allocated": 29,
        "nodal_officer": "OFF-ZONE10-WARD74",
        "helpline": "+91-1800-425-1174"
      },
      "geometry": {
        "type": "Polygon",
        "coordinates": [[
          [79.060700, 17.959000],
          [79.070700, 17.961000],
          [79.072700, 17.974000],
          [79.063700, 17.977000],
          [79.060700, 17.959000]
        ]]
      }
    },
    {
      "type": "Feature",
      "id": "W-10-075",
      "properties": {
        "ward_number": 75,
        "ward_code": "W-10-075",
        "ward_name": "Zone_10 Municipal Ward 75",
        "population_census": 38250,
        "residential_properties": 8500,
        "commercial_units": 1475,
        "sanitation_workers_allocated": 30,
        "nodal_officer": "OFF-ZONE10-WARD75",
        "helpline": "+91-1800-425-1175"
      },
      "geometry": {
        "type": "Polygon",
        "coordinates": [[
          [79.061700, 17.960000],
          [79.071700, 17.962000],
          [79.073700, 17.975000],
          [79.064700, 17.978000],
          [79.061700, 17.960000]
        ]]
      }
    },
    {
      "type": "Feature",
      "id": "W-10-076",
      "properties": {
        "ward_number": 76,
        "ward_code": "W-10-076",
        "ward_name": "Zone_10 Municipal Ward 76",
        "population_census": 38600,
        "residential_properties": 8580,
        "commercial_units": 1490,
        "sanitation_workers_allocated": 31,
        "nodal_officer": "OFF-ZONE10-WARD76",
        "helpline": "+91-1800-425-1176"
      },
      "geometry": {
        "type": "Polygon",
        "coordinates": [[
          [79.062700, 17.961000],
          [79.072700, 17.963000],
          [79.074700, 17.976000],
          [79.065700, 17.979000],
          [79.062700, 17.961000]
        ]]
      }
    },
    {
      "type": "Feature",
      "id": "W-10-077",
      "properties": {
        "ward_number": 77,
        "ward_code": "W-10-077",
        "ward_name": "Zone_10 Municipal Ward 77",
        "population_census": 38950,
        "residential_properties": 8660,
        "commercial_units": 1505,
        "sanitation_workers_allocated": 32,
        "nodal_officer": "OFF-ZONE10-WARD77",
        "helpline": "+91-1800-425-1177"
      },
      "geometry": {
        "type": "Polygon",
        "coordinates": [[
          [79.063700, 17.962000],
          [79.073700, 17.964000],
          [79.075700, 17.977000],
          [79.066700, 17.980000],
          [79.063700, 17.962000]
        ]]
      }
    },
    {
      "type": "Feature",
      "id": "W-10-078",
      "properties": {
        "ward_number": 78,
        "ward_code": "W-10-078",
        "ward_name": "Zone_10 Municipal Ward 78",
        "population_census": 39300,
        "residential_properties": 8740,
        "commercial_units": 1520,
        "sanitation_workers_allocated": 33,
        "nodal_officer": "OFF-ZONE10-WARD78",
        "helpline": "+91-1800-425-1178"
      },
      "geometry": {
        "type": "Polygon",
        "coordinates": [[
          [79.064700, 17.963000],
          [79.074700, 17.965000],
          [79.076700, 17.978000],
          [79.067700, 17.981000],
          [79.064700, 17.963000]
        ]]
      }
    },
    {
      "type": "Feature",
      "id": "W-10-079",
      "properties": {
        "ward_number": 79,
        "ward_code": "W-10-079",
        "ward_name": "Zone_10 Municipal Ward 79",
        "population_census": 39650,
        "residential_properties": 8820,
        "commercial_units": 1535,
        "sanitation_workers_allocated": 34,
        "nodal_officer": "OFF-ZONE10-WARD79",
        "helpline": "+91-1800-425-1179"
      },
      "geometry": {
        "type": "Polygon",
        "coordinates": [[
          [79.065700, 17.964000],
          [79.075700, 17.966000],
          [79.077700, 17.979000],
          [79.068700, 17.982000],
          [79.065700, 17.964000]
        ]]
      }
    },
    {
      "type": "Feature",
      "id": "W-10-080",
      "properties": {
        "ward_number": 80,
        "ward_code": "W-10-080",
        "ward_name": "Zone_10 Municipal Ward 80",
        "population_census": 40000,
        "residential_properties": 8900,
        "commercial_units": 1550,
        "sanitation_workers_allocated": 15,
        "nodal_officer": "OFF-ZONE10-WARD80",
        "helpline": "+91-1800-425-1180"
      },
      "geometry": {
        "type": "Polygon",
        "coordinates": [[
          [79.066700, 17.965000],
          [79.076700, 17.967000],
          [79.078700, 17.980000],
          [79.069700, 17.983000],
          [79.066700, 17.965000]
        ]]
      }
    },
    {
      "type": "Feature",
      "id": "W-10-081",
      "properties": {
        "ward_number": 81,
        "ward_code": "W-10-081",
        "ward_name": "Zone_10 Municipal Ward 81",
        "population_census": 40350,
        "residential_properties": 8980,
        "commercial_units": 1565,
        "sanitation_workers_allocated": 16,
        "nodal_officer": "OFF-ZONE10-WARD81",
        "helpline": "+91-1800-425-1181"
      },
      "geometry": {
        "type": "Polygon",
        "coordinates": [[
          [79.067700, 17.966000],
          [79.077700, 17.968000],
          [79.079700, 17.981000],
          [79.070700, 17.984000],
          [79.067700, 17.966000]
        ]]
      }
    },
    {
      "type": "Feature",
      "id": "W-10-082",
      "properties": {
        "ward_number": 82,
        "ward_code": "W-10-082",
        "ward_name": "Zone_10 Municipal Ward 82",
        "population_census": 40700,
        "residential_properties": 9060,
        "commercial_units": 1580,
        "sanitation_workers_allocated": 17,
        "nodal_officer": "OFF-ZONE10-WARD82",
        "helpline": "+91-1800-425-1182"
      },
      "geometry": {
        "type": "Polygon",
        "coordinates": [[
          [79.068700, 17.967000],
          [79.078700, 17.969000],
          [79.080700, 17.982000],
          [79.071700, 17.985000],
          [79.068700, 17.967000]
        ]]
      }
    },
    {
      "type": "Feature",
      "id": "W-10-083",
      "properties": {
        "ward_number": 83,
        "ward_code": "W-10-083",
        "ward_name": "Zone_10 Municipal Ward 83",
        "population_census": 41050,
        "residential_properties": 9140,
        "commercial_units": 1595,
        "sanitation_workers_allocated": 18,
        "nodal_officer": "OFF-ZONE10-WARD83",
        "helpline": "+91-1800-425-1183"
      },
      "geometry": {
        "type": "Polygon",
        "coordinates": [[
          [79.069700, 17.968000],
          [79.079700, 17.970000],
          [79.081700, 17.983000],
          [79.072700, 17.986000],
          [79.069700, 17.968000]
        ]]
      }
    },
    {
      "type": "Feature",
      "id": "W-10-084",
      "properties": {
        "ward_number": 84,
        "ward_code": "W-10-084",
        "ward_name": "Zone_10 Municipal Ward 84",
        "population_census": 41400,
        "residential_properties": 9220,
        "commercial_units": 1610,
        "sanitation_workers_allocated": 19,
        "nodal_officer": "OFF-ZONE10-WARD84",
        "helpline": "+91-1800-425-1184"
      },
      "geometry": {
        "type": "Polygon",
        "coordinates": [[
          [79.070700, 17.969000],
          [79.080700, 17.971000],
          [79.082700, 17.984000],
          [79.073700, 17.987000],
          [79.070700, 17.969000]
        ]]
      }
    },
    {
      "type": "Feature",
      "id": "W-10-085",
      "properties": {
        "ward_number": 85,
        "ward_code": "W-10-085",
        "ward_name": "Zone_10 Municipal Ward 85",
        "population_census": 41750,
        "residential_properties": 9300,
        "commercial_units": 1625,
        "sanitation_workers_allocated": 20,
        "nodal_officer": "OFF-ZONE10-WARD85",
        "helpline": "+91-1800-425-1185"
      },
      "geometry": {
        "type": "Polygon",
        "coordinates": [[
          [79.071700, 17.970000],
          [79.081700, 17.972000],
          [79.083700, 17.985000],
          [79.074700, 17.988000],
          [79.071700, 17.970000]
        ]]
      }
    },
    {
      "type": "Feature",
      "id": "W-10-086",
      "properties": {
        "ward_number": 86,
        "ward_code": "W-10-086",
        "ward_name": "Zone_10 Municipal Ward 86",
        "population_census": 42100,
        "residential_properties": 9380,
        "commercial_units": 1640,
        "sanitation_workers_allocated": 21,
        "nodal_officer": "OFF-ZONE10-WARD86",
        "helpline": "+91-1800-425-1186"
      },
      "geometry": {
        "type": "Polygon",
        "coordinates": [[
          [79.072700, 17.971000],
          [79.082700, 17.973000],
          [79.084700, 17.986000],
          [79.075700, 17.989000],
          [79.072700, 17.971000]
        ]]
      }
    },
    {
      "type": "Feature",
      "id": "W-10-087",
      "properties": {
        "ward_number": 87,
        "ward_code": "W-10-087",
        "ward_name": "Zone_10 Municipal Ward 87",
        "population_census": 42450,
        "residential_properties": 9460,
        "commercial_units": 1655,
        "sanitation_workers_allocated": 22,
        "nodal_officer": "OFF-ZONE10-WARD87",
        "helpline": "+91-1800-425-1187"
      },
      "geometry": {
        "type": "Polygon",
        "coordinates": [[
          [79.073700, 17.972000],
          [79.083700, 17.974000],
          [79.085700, 17.987000],
          [79.076700, 17.990000],
          [79.073700, 17.972000]
        ]]
      }
    },
    {
      "type": "Feature",
      "id": "W-10-088",
      "properties": {
        "ward_number": 88,
        "ward_code": "W-10-088",
        "ward_name": "Zone_10 Municipal Ward 88",
        "population_census": 42800,
        "residential_properties": 9540,
        "commercial_units": 1670,
        "sanitation_workers_allocated": 23,
        "nodal_officer": "OFF-ZONE10-WARD88",
        "helpline": "+91-1800-425-1188"
      },
      "geometry": {
        "type": "Polygon",
        "coordinates": [[
          [79.074700, 17.973000],
          [79.084700, 17.975000],
          [79.086700, 17.988000],
          [79.077700, 17.991000],
          [79.074700, 17.973000]
        ]]
      }
    },
    {
      "type": "Feature",
      "id": "W-10-089",
      "properties": {
        "ward_number": 89,
        "ward_code": "W-10-089",
        "ward_name": "Zone_10 Municipal Ward 89",
        "population_census": 43150,
        "residential_properties": 9620,
        "commercial_units": 1685,
        "sanitation_workers_allocated": 24,
        "nodal_officer": "OFF-ZONE10-WARD89",
        "helpline": "+91-1800-425-1189"
      },
      "geometry": {
        "type": "Polygon",
        "coordinates": [[
          [79.075700, 17.974000],
          [79.085700, 17.976000],
          [79.087700, 17.989000],
          [79.078700, 17.992000],
          [79.075700, 17.974000]
        ]]
      }
    },
    {
      "type": "Feature",
      "id": "W-10-090",
      "properties": {
        "ward_number": 90,
        "ward_code": "W-10-090",
        "ward_name": "Zone_10 Municipal Ward 90",
        "population_census": 43500,
        "residential_properties": 9700,
        "commercial_units": 1700,
        "sanitation_workers_allocated": 25,
        "nodal_officer": "OFF-ZONE10-WARD90",
        "helpline": "+91-1800-425-1190"
      },
      "geometry": {
        "type": "Polygon",
        "coordinates": [[
          [79.076700, 17.975000],
          [79.086700, 17.977000],
          [79.088700, 17.990000],
          [79.079700, 17.993000],
          [79.076700, 17.975000]
        ]]
      }
    },
    {
      "type": "Feature",
      "id": "W-10-091",
      "properties": {
        "ward_number": 91,
        "ward_code": "W-10-091",
        "ward_name": "Zone_10 Municipal Ward 91",
        "population_census": 43850,
        "residential_properties": 9780,
        "commercial_units": 1715,
        "sanitation_workers_allocated": 26,
        "nodal_officer": "OFF-ZONE10-WARD91",
        "helpline": "+91-1800-425-1191"
      },
      "geometry": {
        "type": "Polygon",
        "coordinates": [[
          [79.077700, 17.976000],
          [79.087700, 17.978000],
          [79.089700, 17.991000],
          [79.080700, 17.994000],
          [79.077700, 17.976000]
        ]]
      }
    },
    {
      "type": "Feature",
      "id": "W-10-092",
      "properties": {
        "ward_number": 92,
        "ward_code": "W-10-092",
        "ward_name": "Zone_10 Municipal Ward 92",
        "population_census": 44200,
        "residential_properties": 9860,
        "commercial_units": 1730,
        "sanitation_workers_allocated": 27,
        "nodal_officer": "OFF-ZONE10-WARD92",
        "helpline": "+91-1800-425-1192"
      },
      "geometry": {
        "type": "Polygon",
        "coordinates": [[
          [79.078700, 17.977000],
          [79.088700, 17.979000],
          [79.090700, 17.992000],
          [79.081700, 17.995000],
          [79.078700, 17.977000]
        ]]
      }
    },
    {
      "type": "Feature",
      "id": "W-10-093",
      "properties": {
        "ward_number": 93,
        "ward_code": "W-10-093",
        "ward_name": "Zone_10 Municipal Ward 93",
        "population_census": 44550,
        "residential_properties": 9940,
        "commercial_units": 1745,
        "sanitation_workers_allocated": 28,
        "nodal_officer": "OFF-ZONE10-WARD93",
        "helpline": "+91-1800-425-1193"
      },
      "geometry": {
        "type": "Polygon",
        "coordinates": [[
          [79.079700, 17.978000],
          [79.089700, 17.980000],
          [79.091700, 17.993000],
          [79.082700, 17.996000],
          [79.079700, 17.978000]
        ]]
      }
    },
    {
      "type": "Feature",
      "id": "W-10-094",
      "properties": {
        "ward_number": 94,
        "ward_code": "W-10-094",
        "ward_name": "Zone_10 Municipal Ward 94",
        "population_census": 44900,
        "residential_properties": 10020,
        "commercial_units": 1760,
        "sanitation_workers_allocated": 29,
        "nodal_officer": "OFF-ZONE10-WARD94",
        "helpline": "+91-1800-425-1194"
      },
      "geometry": {
        "type": "Polygon",
        "coordinates": [[
          [79.080700, 17.979000],
          [79.090700, 17.981000],
          [79.092700, 17.994000],
          [79.083700, 17.997000],
          [79.080700, 17.979000]
        ]]
      }
    },
    {
      "type": "Feature",
      "id": "W-10-095",
      "properties": {
        "ward_number": 95,
        "ward_code": "W-10-095",
        "ward_name": "Zone_10 Municipal Ward 95",
        "population_census": 45250,
        "residential_properties": 10100,
        "commercial_units": 1775,
        "sanitation_workers_allocated": 30,
        "nodal_officer": "OFF-ZONE10-WARD95",
        "helpline": "+91-1800-425-1195"
      },
      "geometry": {
        "type": "Polygon",
        "coordinates": [[
          [79.081700, 17.980000],
          [79.091700, 17.982000],
          [79.093700, 17.995000],
          [79.084700, 17.998000],
          [79.081700, 17.980000]
        ]]
      }
    },
    {
      "type": "Feature",
      "id": "W-10-096",
      "properties": {
        "ward_number": 96,
        "ward_code": "W-10-096",
        "ward_name": "Zone_10 Municipal Ward 96",
        "population_census": 45600,
        "residential_properties": 10180,
        "commercial_units": 1790,
        "sanitation_workers_allocated": 31,
        "nodal_officer": "OFF-ZONE10-WARD96",
        "helpline": "+91-1800-425-1196"
      },
      "geometry": {
        "type": "Polygon",
        "coordinates": [[
          [79.082700, 17.981000],
          [79.092700, 17.983000],
          [79.094700, 17.996000],
          [79.085700, 17.999000],
          [79.082700, 17.981000]
        ]]
      }
    },
    {
      "type": "Feature",
      "id": "W-10-097",
      "properties": {
        "ward_number": 97,
        "ward_code": "W-10-097",
        "ward_name": "Zone_10 Municipal Ward 97",
        "population_census": 45950,
        "residential_properties": 10260,
        "commercial_units": 1805,
        "sanitation_workers_allocated": 32,
        "nodal_officer": "OFF-ZONE10-WARD97",
        "helpline": "+91-1800-425-1197"
      },
      "geometry": {
        "type": "Polygon",
        "coordinates": [[
          [79.083700, 17.982000],
          [79.093700, 17.984000],
          [79.095700, 17.997000],
          [79.086700, 18.000000],
          [79.083700, 17.982000]
        ]]
      }
    },
    {
      "type": "Feature",
      "id": "W-10-098",
      "properties": {
        "ward_number": 98,
        "ward_code": "W-10-098",
        "ward_name": "Zone_10 Municipal Ward 98",
        "population_census": 46300,
        "residential_properties": 10340,
        "commercial_units": 1820,
        "sanitation_workers_allocated": 33,
        "nodal_officer": "OFF-ZONE10-WARD98",
        "helpline": "+91-1800-425-1198"
      },
      "geometry": {
        "type": "Polygon",
        "coordinates": [[
          [79.084700, 17.983000],
          [79.094700, 17.985000],
          [79.096700, 17.998000],
          [79.087700, 18.001000],
          [79.084700, 17.983000]
        ]]
      }
    },
    {
      "type": "Feature",
      "id": "W-10-099",
      "properties": {
        "ward_number": 99,
        "ward_code": "W-10-099",
        "ward_name": "Zone_10 Municipal Ward 99",
        "population_census": 46650,
        "residential_properties": 10420,
        "commercial_units": 1835,
        "sanitation_workers_allocated": 34,
        "nodal_officer": "OFF-ZONE10-WARD99",
        "helpline": "+91-1800-425-1199"
      },
      "geometry": {
        "type": "Polygon",
        "coordinates": [[
          [79.085700, 17.984000],
          [79.095700, 17.986000],
          [79.097700, 17.999000],
          [79.088700, 18.002000],
          [79.085700, 17.984000]
        ]]
      }
    },
    {
      "type": "Feature",
      "id": "W-10-100",
      "properties": {
        "ward_number": 100,
        "ward_code": "W-10-100",
        "ward_name": "Zone_10 Municipal Ward 100",
        "population_census": 47000,
        "residential_properties": 10500,
        "commercial_units": 1850,
        "sanitation_workers_allocated": 15,
        "nodal_officer": "OFF-ZONE10-WARD100",
        "helpline": "+91-1800-425-1200"
      },
      "geometry": {
        "type": "Polygon",
        "coordinates": [[
          [79.086700, 17.985000],
          [79.096700, 17.987000],
          [79.098700, 18.000000],
          [79.089700, 18.003000],
          [79.086700, 17.985000]
        ]]
      }
    }
  }
}