{
  "type": "FeatureCollection",
  "zone": "Zone_07",
  "crs": { "type": "name", "properties": { "name": "urn:ogc:def:crs:OGC:1.3:CRS84" } },
  "features": [
    {
      "type": "Feature",
      "id": "W-07-001",
      "properties": {
        "ward_number": 1,
        "ward_code": "W-07-001",
        "ward_name": "Zone_07 Municipal Ward 1",
        "population_census": 12350,
        "residential_properties": 2580,
        "commercial_units": 365,
        "sanitation_workers_allocated": 16,
        "nodal_officer": "OFF-ZONE7-WARD1",
        "helpline": "+91-1800-425-1071"
      },
      "geometry": {
        "type": "Polygon",
        "coordinates": [[
          [78.837700, 17.736000],
          [78.847700, 17.738000],
          [78.849700, 17.751000],
          [78.840700, 17.754000],
          [78.837700, 17.736000]
        ]]
      }
    },
    {
      "type": "Feature",
      "id": "W-07-002",
      "properties": {
        "ward_number": 2,
        "ward_code": "W-07-002",
        "ward_name": "Zone_07 Municipal Ward 2",
        "population_census": 12700,
        "residential_properties": 2660,
        "commercial_units": 380,
        "sanitation_workers_allocated": 17,
        "nodal_officer": "OFF-ZONE7-WARD2",
        "helpline": "+91-1800-425-1072"
      },
      "geometry": {
        "type": "Polygon",
        "coordinates": [[
          [78.838700, 17.737000],
          [78.848700, 17.739000],
          [78.850700, 17.752000],
          [78.841700, 17.755000],
          [78.838700, 17.737000]
        ]]
      }
    },
    {
      "type": "Feature",
      "id": "W-07-003",
      "properties": {
        "ward_number": 3,
        "ward_code": "W-07-003",
        "ward_name": "Zone_07 Municipal Ward 3",
        "population_census": 13050,
        "residential_properties": 2740,
        "commercial_units": 395,
        "sanitation_workers_allocated": 18,
        "nodal_officer": "OFF-ZONE7-WARD3",
        "helpline": "+91-1800-425-1073"
      },
      "geometry": {
        "type": "Polygon",
        "coordinates": [[
          [78.839700, 17.738000],
          [78.849700, 17.740000],
          [78.851700, 17.753000],
          [78.842700, 17.756000],
          [78.839700, 17.738000]
        ]]
      }
    },
    {
      "type": "Feature",
      "id": "W-07-004",
      "properties": {
        "ward_number": 4,
        "ward_code": "W-07-004",
        "ward_name": "Zone_07 Municipal Ward 4",
        "population_census": 13400,
        "residential_properties": 2820,
        "commercial_units": 410,
        "sanitation_workers_allocated": 19,
        "nodal_officer": "OFF-ZONE7-WARD4",
        "helpline": "+91-1800-425-1074"
      },
      "geometry": {
        "type": "Polygon",
        "coordinates": [[
          [78.840700, 17.739000],
          [78.850700, 17.741000],
          [78.852700, 17.754000],
          [78.843700, 17.757000],
          [78.840700, 17.739000]
        ]]
      }
    },
    {
      "type": "Feature",
      "id": "W-07-005",
      "properties": {
        "ward_number": 5,
        "ward_code": "W-07-005",
        "ward_name": "Zone_07 Municipal Ward 5",
        "population_census": 13750,
        "residential_properties": 2900,
        "commercial_units": 425,
        "sanitation_workers_allocated": 20,
        "nodal_officer": "OFF-ZONE7-WARD5",
        "helpline": "+91-1800-425-1075"
      },
      "geometry": {
        "type": "Polygon",
        "coordinates": [[
          [78.841700, 17.740000],
          [78.851700, 17.742000],
          [78.853700, 17.755000],
          [78.844700, 17.758000],
          [78.841700, 17.740000]
        ]]
      }
    },
    {
      "type": "Feature",
      "id": "W-07-006",
      "properties": {
        "ward_number": 6,
        "ward_code": "W-07-006",
        "ward_name": "Zone_07 Municipal Ward 6",
        "population_census": 14100,
        "residential_properties": 2980,
        "commercial_units": 440,
        "sanitation_workers_allocated": 21,
        "nodal_officer": "OFF-ZONE7-WARD6",
        "helpline": "+91-1800-425-1076"
      },
      "geometry": {
        "type": "Polygon",
        "coordinates": [[
          [78.842700, 17.741000],
          [78.852700, 17.743000],
          [78.854700, 17.756000],
          [78.845700, 17.759000],
          [78.842700, 17.741000]
        ]]
      }
    },
    {
      "type": "Feature",
      "id": "W-07-007",
      "properties": {
        "ward_number": 7,
        "ward_code": "W-07-007",
        "ward_name": "Zone_07 Municipal Ward 7",
        "population_census": 14450,
        "residential_properties": 3060,
        "commercial_units": 455,
        "sanitation_workers_allocated": 22,
        "nodal_officer": "OFF-ZONE7-WARD7",
        "helpline": "+91-1800-425-1077"
      },
      "geometry": {
        "type": "Polygon",
        "coordinates": [[
          [78.843700, 17.742000],
          [78.853700, 17.744000],
          [78.855700, 17.757000],
          [78.846700, 17.760000],
          [78.843700, 17.742000]
        ]]
      }
    },
    {
      "type": "Feature",
      "id": "W-07-008",
      "properties": {
        "ward_number": 8,
        "ward_code": "W-07-008",
        "ward_name": "Zone_07 Municipal Ward 8",
        "population_census": 14800,
        "residential_properties": 3140,
        "commercial_units": 470,
        "sanitation_workers_allocated": 23,
        "nodal_officer": "OFF-ZONE7-WARD8",
        "helpline": "+91-1800-425-1078"
      },
      "geometry": {
        "type": "Polygon",
        "coordinates": [[
          [78.844700, 17.743000],
          [78.854700, 17.745000],
          [78.856700, 17.758000],
          [78.847700, 17.761000],
          [78.844700, 17.743000]
        ]]
      }
    },
    {
      "type": "Feature",
      "id": "W-07-009",
      "properties": {
        "ward_number": 9,
        "ward_code": "W-07-009",
        "ward_name": "Zone_07 Municipal Ward 9",
        "population_census": 15150,
        "residential_properties": 3220,
        "commercial_units": 485,
        "sanitation_workers_allocated": 24,
        "nodal_officer": "OFF-ZONE7-WARD9",
        "helpline": "+91-1800-425-1079"
      },
      "geometry": {
        "type": "Polygon",
        "coordinates": [[
          [78.845700, 17.744000],
          [78.855700, 17.746000],
          [78.857700, 17.759000],
          [78.848700, 17.762000],
          [78.845700, 17.744000]
        ]]
      }
    },
    {
      "type": "Feature",
      "id": "W-07-010",
      "properties": {
        "ward_number": 10,
        "ward_code": "W-07-010",
        "ward_name": "Zone_07 Municipal Ward 10",
        "population_census": 15500,
        "residential_properties": 3300,
        "commercial_units": 500,
        "sanitation_workers_allocated": 25,
        "nodal_officer": "OFF-ZONE7-WARD10",
        "helpline": "+91-1800-425-1080"
      },
      "geometry": {
        "type": "Polygon",
        "coordinates": [[
          [78.846700, 17.745000],
          [78.856700, 17.747000],
          [78.858700, 17.760000],
          [78.849700, 17.763000],
          [78.846700, 17.745000]
        ]]
      }
    },
    {
      "type": "Feature",
      "id": "W-07-011",
      "properties": {
        "ward_number": 11,
        "ward_code": "W-07-011",
        "ward_name": "Zone_07 Municipal Ward 11",
        "population_census": 15850,
        "residential_properties": 3380,
        "commercial_units": 515,
        "sanitation_workers_allocated": 26,
        "nodal_officer": "OFF-ZONE7-WARD11",
        "helpline": "+91-1800-425-1081"
      },
      "geometry": {
        "type": "Polygon",
        "coordinates": [[
          [78.847700, 17.746000],
          [78.857700, 17.748000],
          [78.859700, 17.761000],
          [78.850700, 17.764000],
          [78.847700, 17.746000]
        ]]
      }
    },
    {
      "type": "Feature",
      "id": "W-07-012",
      "properties": {
        "ward_number": 12,
        "ward_code": "W-07-012",
        "ward_name": "Zone_07 Municipal Ward 12",
        "population_census": 16200,
        "residential_properties": 3460,
        "commercial_units": 530,
        "sanitation_workers_allocated": 27,
        "nodal_officer": "OFF-ZONE7-WARD12",
        "helpline": "+91-1800-425-1082"
      },
      "geometry": {
        "type": "Polygon",
        "coordinates": [[
          [78.848700, 17.747000],
          [78.858700, 17.749000],
          [78.860700, 17.762000],
          [78.851700, 17.765000],
          [78.848700, 17.747000]
        ]]
      }
    },
    {
      "type": "Feature",
      "id": "W-07-013",
      "properties": {
        "ward_number": 13,
        "ward_code": "W-07-013",
        "ward_name": "Zone_07 Municipal Ward 13",
        "population_census": 16550,
        "residential_properties": 3540,
        "commercial_units": 545,
        "sanitation_workers_allocated": 28,
        "nodal_officer": "OFF-ZONE7-WARD13",
        "helpline": "+91-1800-425-1083"
      },
      "geometry": {
        "type": "Polygon",
        "coordinates": [[
          [78.849700, 17.748000],
          [78.859700, 17.750000],
          [78.861700, 17.763000],
          [78.852700, 17.766000],
          [78.849700, 17.748000]
        ]]
      }
    },
    {
      "type": "Feature",
      "id": "W-07-014",
      "properties": {
        "ward_number": 14,
        "ward_code": "W-07-014",
        "ward_name": "Zone_07 Municipal Ward 14",
        "population_census": 16900,
        "residential_properties": 3620,
        "commercial_units": 560,
        "sanitation_workers_allocated": 29,
        "nodal_officer": "OFF-ZONE7-WARD14",
        "helpline": "+91-1800-425-1084"
      },
      "geometry": {
        "type": "Polygon",
        "coordinates": [[
          [78.850700, 17.749000],
          [78.860700, 17.751000],
          [78.862700, 17.764000],
          [78.853700, 17.767000],
          [78.850700, 17.749000]
        ]]
      }
    },
    {
      "type": "Feature",
      "id": "W-07-015",
      "properties": {
        "ward_number": 15,
        "ward_code": "W-07-015",
        "ward_name": "Zone_07 Municipal Ward 15",
        "population_census": 17250,
        "residential_properties": 3700,
        "commercial_units": 575,
        "sanitation_workers_allocated": 30,
        "nodal_officer": "OFF-ZONE7-WARD15",
        "helpline": "+91-1800-425-1085"
      },
      "geometry": {
        "type": "Polygon",
        "coordinates": [[
          [78.851700, 17.750000],
          [78.861700, 17.752000],
          [78.863700, 17.765000],
          [78.854700, 17.768000],
          [78.851700, 17.750000]
        ]]
      }
    },
    {
      "type": "Feature",
      "id": "W-07-016",
      "properties": {
        "ward_number": 16,
        "ward_code": "W-07-016",
        "ward_name": "Zone_07 Municipal Ward 16",
        "population_census": 17600,
        "residential_properties": 3780,
        "commercial_units": 590,
        "sanitation_workers_allocated": 31,
        "nodal_officer": "OFF-ZONE7-WARD16",
        "helpline": "+91-1800-425-1086"
      },
      "geometry": {
        "type": "Polygon",
        "coordinates": [[
          [78.852700, 17.751000],
          [78.862700, 17.753000],
          [78.864700, 17.766000],
          [78.855700, 17.769000],
          [78.852700, 17.751000]
        ]]
      }
    },
    {
      "type": "Feature",
      "id": "W-07-017",
      "properties": {
        "ward_number": 17,
        "ward_code": "W-07-017",
        "ward_name": "Zone_07 Municipal Ward 17",
        "population_census": 17950,
        "residential_properties": 3860,
        "commercial_units": 605,
        "sanitation_workers_allocated": 32,
        "nodal_officer": "OFF-ZONE7-WARD17",
        "helpline": "+91-1800-425-1087"
      },
      "geometry": {
        "type": "Polygon",
        "coordinates": [[
          [78.853700, 17.752000],
          [78.863700, 17.754000],
          [78.865700, 17.767000],
          [78.856700, 17.770000],
          [78.853700, 17.752000]
        ]]
      }
    },
    {
      "type": "Feature",
      "id": "W-07-018",
      "properties": {
        "ward_number": 18,
        "ward_code": "W-07-018",
        "ward_name": "Zone_07 Municipal Ward 18",
        "population_census": 18300,
        "residential_properties": 3940,
        "commercial_units": 620,
        "sanitation_workers_allocated": 33,
        "nodal_officer": "OFF-ZONE7-WARD18",
        "helpline": "+91-1800-425-1088"
      },
      "geometry": {
        "type": "Polygon",
        "coordinates": [[
          [78.854700, 17.753000],
          [78.864700, 17.755000],
          [78.866700, 17.768000],
          [78.857700, 17.771000],
          [78.854700, 17.753000]
        ]]
      }
    },
    {
      "type": "Feature",
      "id": "W-07-019",
      "properties": {
        "ward_number": 19,
        "ward_code": "W-07-019",
        "ward_name": "Zone_07 Municipal Ward 19",
        "population_census": 18650,
        "residential_properties": 4020,
        "commercial_units": 635,
        "sanitation_workers_allocated": 34,
        "nodal_officer": "OFF-ZONE7-WARD19",
        "helpline": "+91-1800-425-1089"
      },
      "geometry": {
        "type": "Polygon",
        "coordinates": [[
          [78.855700, 17.754000],
          [78.865700, 17.756000],
          [78.867700, 17.769000],
          [78.858700, 17.772000],
          [78.855700, 17.754000]
        ]]
      }
    },
    {
      "type": "Feature",
      "id": "W-07-020",
      "properties": {
        "ward_number": 20,
        "ward_code": "W-07-020",
        "ward_name": "Zone_07 Municipal Ward 20",
        "population_census": 19000,
        "residential_properties": 4100,
        "commercial_units": 650,
        "sanitation_workers_allocated": 15,
        "nodal_officer": "OFF-ZONE7-WARD20",
        "helpline": "+91-1800-425-1090"
      },
      "geometry": {
        "type": "Polygon",
        "coordinates": [[
          [78.856700, 17.755000],
          [78.866700, 17.757000],
          [78.868700, 17.770000],
          [78.859700, 17.773000],
          [78.856700, 17.755000]
        ]]
      }
    },
    {
      "type": "Feature",
      "id": "W-07-021",
      "properties": {
        "ward_number": 21,
        "ward_code": "W-07-021",
        "ward_name": "Zone_07 Municipal Ward 21",
        "population_census": 19350,
        "residential_properties": 4180,
        "commercial_units": 665,
        "sanitation_workers_allocated": 16,
        "nodal_officer": "OFF-ZONE7-WARD21",
        "helpline": "+91-1800-425-1091"
      },
      "geometry": {
        "type": "Polygon",
        "coordinates": [[
          [78.857700, 17.756000],
          [78.867700, 17.758000],
          [78.869700, 17.771000],
          [78.860700, 17.774000],
          [78.857700, 17.756000]
        ]]
      }
    },
    {
      "type": "Feature",
      "id": "W-07-022",
      "properties": {
        "ward_number": 22,
        "ward_code": "W-07-022",
        "ward_name": "Zone_07 Municipal Ward 22",
        "population_census": 19700,
        "residential_properties": 4260,
        "commercial_units": 680,
        "sanitation_workers_allocated": 17,
        "nodal_officer": "OFF-ZONE7-WARD22",
        "helpline": "+91-1800-425-1092"
      },
      "geometry": {
        "type": "Polygon",
        "coordinates": [[
          [78.858700, 17.757000],
          [78.868700, 17.759000],
          [78.870700, 17.772000],
          [78.861700, 17.775000],
          [78.858700, 17.757000]
        ]]
      }
    },
    {
      "type": "Feature",
      "id": "W-07-023",
      "properties": {
        "ward_number": 23,
        "ward_code": "W-07-023",
        "ward_name": "Zone_07 Municipal Ward 23",
        "population_census": 20050,
        "residential_properties": 4340,
        "commercial_units": 695,
        "sanitation_workers_allocated": 18,
        "nodal_officer": "OFF-ZONE7-WARD23",
        "helpline": "+91-1800-425-1093"
      },
      "geometry": {
        "type": "Polygon",
        "coordinates": [[
          [78.859700, 17.758000],
          [78.869700, 17.760000],
          [78.871700, 17.773000],
          [78.862700, 17.776000],
          [78.859700, 17.758000]
        ]]
      }
    },
    {
      "type": "Feature",
      "id": "W-07-024",
      "properties": {
        "ward_number": 24,
        "ward_code": "W-07-024",
        "ward_name": "Zone_07 Municipal Ward 24",
        "population_census": 20400,
        "residential_properties": 4420,
        "commercial_units": 710,
        "sanitation_workers_allocated": 19,
        "nodal_officer": "OFF-ZONE7-WARD24",
        "helpline": "+91-1800-425-1094"
      },
      "geometry": {
        "type": "Polygon",
        "coordinates": [[
          [78.860700, 17.759000],
          [78.870700, 17.761000],
          [78.872700, 17.774000],
          [78.863700, 17.777000],
          [78.860700, 17.759000]
        ]]
      }
    },
    {
      "type": "Feature",
      "id": "W-07-025",
      "properties": {
        "ward_number": 25,
        "ward_code": "W-07-025",
        "ward_name": "Zone_07 Municipal Ward 25",
        "population_census": 20750,
        "residential_properties": 4500,
        "commercial_units": 725,
        "sanitation_workers_allocated": 20,
        "nodal_officer": "OFF-ZONE7-WARD25",
        "helpline": "+91-1800-425-1095"
      },
      "geometry": {
        "type": "Polygon",
        "coordinates": [[
          [78.861700, 17.760000],
          [78.871700, 17.762000],
          [78.873700, 17.775000],
          [78.864700, 17.778000],
          [78.861700, 17.760000]
        ]]
      }
    },
    {
      "type": "Feature",
      "id": "W-07-026",
      "properties": {
        "ward_number": 26,
        "ward_code": "W-07-026",
        "ward_name": "Zone_07 Municipal Ward 26",
        "population_census": 21100,
        "residential_properties": 4580,
        "commercial_units": 740,
        "sanitation_workers_allocated": 21,
        "nodal_officer": "OFF-ZONE7-WARD26",
        "helpline": "+91-1800-425-1096"
      },
      "geometry": {
        "type": "Polygon",
        "coordinates": [[
          [78.862700, 17.761000],
          [78.872700, 17.763000],
          [78.874700, 17.776000],
          [78.865700, 17.779000],
          [78.862700, 17.761000]
        ]]
      }
    },
    {
      "type": "Feature",
      "id": "W-07-027",
      "properties": {
        "ward_number": 27,
        "ward_code": "W-07-027",
        "ward_name": "Zone_07 Municipal Ward 27",
        "population_census": 21450,
        "residential_properties": 4660,
        "commercial_units": 755,
        "sanitation_workers_allocated": 22,
        "nodal_officer": "OFF-ZONE7-WARD27",
        "helpline": "+91-1800-425-1097"
      },
      "geometry": {
        "type": "Polygon",
        "coordinates": [[
          [78.863700, 17.762000],
          [78.873700, 17.764000],
          [78.875700, 17.777000],
          [78.866700, 17.780000],
          [78.863700, 17.762000]
        ]]
      }
    },
    {
      "type": "Feature",
      "id": "W-07-028",
      "properties": {
        "ward_number": 28,
        "ward_code": "W-07-028",
        "ward_name": "Zone_07 Municipal Ward 28",
        "population_census": 21800,
        "residential_properties": 4740,
        "commercial_units": 770,
        "sanitation_workers_allocated": 23,
        "nodal_officer": "OFF-ZONE7-WARD28",
        "helpline": "+91-1800-425-1098"
      },
      "geometry": {
        "type": "Polygon",
        "coordinates": [[
          [78.864700, 17.763000],
          [78.874700, 17.765000],
          [78.876700, 17.778000],
          [78.867700, 17.781000],
          [78.864700, 17.763000]
        ]]
      }
    },
    {
      "type": "Feature",
      "id": "W-07-029",
      "properties": {
        "ward_number": 29,
        "ward_code": "W-07-029",
        "ward_name": "Zone_07 Municipal Ward 29",
        "population_census": 22150,
        "residential_properties": 4820,
        "commercial_units": 785,
        "sanitation_workers_allocated": 24,
        "nodal_officer": "OFF-ZONE7-WARD29",
        "helpline": "+91-1800-425-1099"
      },
      "geometry": {
        "type": "Polygon",
        "coordinates": [[
          [78.865700, 17.764000],
          [78.875700, 17.766000],
          [78.877700, 17.779000],
          [78.868700, 17.782000],
          [78.865700, 17.764000]
        ]]
      }
    },
    {
      "type": "Feature",
      "id": "W-07-030",
      "properties": {
        "ward_number": 30,
        "ward_code": "W-07-030",
        "ward_name": "Zone_07 Municipal Ward 30",
        "population_census": 22500,
        "residential_properties": 4900,
        "commercial_units": 800,
        "sanitation_workers_allocated": 25,
        "nodal_officer": "OFF-ZONE7-WARD30",
        "helpline": "+91-1800-425-1100"
      },
      "geometry": {
        "type": "Polygon",
        "coordinates": [[
          [78.866700, 17.765000],
          [78.876700, 17.767000],
          [78.878700, 17.780000],
          [78.869700, 17.783000],
          [78.866700, 17.765000]
        ]]
      }
    },
    {
      "type": "Feature",
      "id": "W-07-031",
      "properties": {
        "ward_number": 31,
        "ward_code": "W-07-031",
        "ward_name": "Zone_07 Municipal Ward 31",
        "population_census": 22850,
        "residential_properties": 4980,
        "commercial_units": 815,
        "sanitation_workers_allocated": 26,
        "nodal_officer": "OFF-ZONE7-WARD31",
        "helpline": "+91-1800-425-1101"
      },
      "geometry": {
        "type": "Polygon",
        "coordinates": [[
          [78.867700, 17.766000],
          [78.877700, 17.768000],
          [78.879700, 17.781000],
          [78.870700, 17.784000],
          [78.867700, 17.766000]
        ]]
      }
    },
    {
      "type": "Feature",
      "id": "W-07-032",
      "properties": {
        "ward_number": 32,
        "ward_code": "W-07-032",
        "ward_name": "Zone_07 Municipal Ward 32",
        "population_census": 23200,
        "residential_properties": 5060,
        "commercial_units": 830,
        "sanitation_workers_allocated": 27,
        "nodal_officer": "OFF-ZONE7-WARD32",
        "helpline": "+91-1800-425-1102"
      },
      "geometry": {
        "type": "Polygon",
        "coordinates": [[
          [78.868700, 17.767000],
          [78.878700, 17.769000],
          [78.880700, 17.782000],
          [78.871700, 17.785000],
          [78.868700, 17.767000]
        ]]
      }
    },
    {
      "type": "Feature",
      "id": "W-07-033",
      "properties": {
        "ward_number": 33,
        "ward_code": "W-07-033",
        "ward_name": "Zone_07 Municipal Ward 33",
        "population_census": 23550,
        "residential_properties": 5140,
        "commercial_units": 845,
        "sanitation_workers_allocated": 28,
        "nodal_officer": "OFF-ZONE7-WARD33",
        "helpline": "+91-1800-425-1103"
      },
      "geometry": {
        "type": "Polygon",
        "coordinates": [[
          [78.869700, 17.768000],
          [78.879700, 17.770000],
          [78.881700, 17.783000],
          [78.872700, 17.786000],
          [78.869700, 17.768000]
        ]]
      }
    },
    {
      "type": "Feature",
      "id": "W-07-034",
      "properties": {
        "ward_number": 34,
        "ward_code": "W-07-034",
        "ward_name": "Zone_07 Municipal Ward 34",
        "population_census": 23900,
        "residential_properties": 5220,
        "commercial_units": 860,
        "sanitation_workers_allocated": 29,
        "nodal_officer": "OFF-ZONE7-WARD34",
        "helpline": "+91-1800-425-1104"
      },
      "geometry": {
        "type": "Polygon",
        "coordinates": [[
          [78.870700, 17.769000],
          [78.880700, 17.771000],
          [78.882700, 17.784000],
          [78.873700, 17.787000],
          [78.870700, 17.769000]
        ]]
      }
    },
    {
      "type": "Feature",
      "id": "W-07-035",
      "properties": {
        "ward_number": 35,
        "ward_code": "W-07-035",
        "ward_name": "Zone_07 Municipal Ward 35",
        "population_census": 24250,
        "residential_properties": 5300,
        "commercial_units": 875,
        "sanitation_workers_allocated": 30,
        "nodal_officer": "OFF-ZONE7-WARD35",
        "helpline": "+91-1800-425-1105"
      },
      "geometry": {
        "type": "Polygon",
        "coordinates": [[
          [78.871700, 17.770000],
          [78.881700, 17.772000],
          [78.883700, 17.785000],
          [78.874700, 17.788000],
          [78.871700, 17.770000]
        ]]
      }
    },
    {
      "type": "Feature",
      "id": "W-07-036",
      "properties": {
        "ward_number": 36,
        "ward_code": "W-07-036",
        "ward_name": "Zone_07 Municipal Ward 36",
        "population_census": 24600,
        "residential_properties": 5380,
        "commercial_units": 890,
        "sanitation_workers_allocated": 31,
        "nodal_officer": "OFF-ZONE7-WARD36",
        "helpline": "+91-1800-425-1106"
      },
      "geometry": {
        "type": "Polygon",
        "coordinates": [[
          [78.872700, 17.771000],
          [78.882700, 17.773000],
          [78.884700, 17.786000],
          [78.875700, 17.789000],
          [78.872700, 17.771000]
        ]]
      }
    },
    {
      "type": "Feature",
      "id": "W-07-037",
      "properties": {
        "ward_number": 37,
        "ward_code": "W-07-037",
        "ward_name": "Zone_07 Municipal Ward 37",
        "population_census": 24950,
        "residential_properties": 5460,
        "commercial_units": 905,
        "sanitation_workers_allocated": 32,
        "nodal_officer": "OFF-ZONE7-WARD37",
        "helpline": "+91-1800-425-1107"
      },
      "geometry": {
        "type": "Polygon",
        "coordinates": [[
          [78.873700, 17.772000],
          [78.883700, 17.774000],
          [78.885700, 17.787000],
          [78.876700, 17.790000],
          [78.873700, 17.772000]
        ]]
      }
    },
    {
      "type": "Feature",
      "id": "W-07-038",
      "properties": {
        "ward_number": 38,
        "ward_code": "W-07-038",
        "ward_name": "Zone_07 Municipal Ward 38",
        "population_census": 25300,
        "residential_properties": 5540,
        "commercial_units": 920,
        "sanitation_workers_allocated": 33,
        "nodal_officer": "OFF-ZONE7-WARD38",
        "helpline": "+91-1800-425-1108"
      },
      "geometry": {
        "type": "Polygon",
        "coordinates": [[
          [78.874700, 17.773000],
          [78.884700, 17.775000],
          [78.886700, 17.788000],
          [78.877700, 17.791000],
          [78.874700, 17.773000]
        ]]
      }
    },
    {
      "type": "Feature",
      "id": "W-07-039",
      "properties": {
        "ward_number": 39,
        "ward_code": "W-07-039",
        "ward_name": "Zone_07 Municipal Ward 39",
        "population_census": 25650,
        "residential_properties": 5620,
        "commercial_units": 935,
        "sanitation_workers_allocated": 34,
        "nodal_officer": "OFF-ZONE7-WARD39",
        "helpline": "+91-1800-425-1109"
      },
      "geometry": {
        "type": "Polygon",
        "coordinates": [[
          [78.875700, 17.774000],
          [78.885700, 17.776000],
          [78.887700, 17.789000],
          [78.878700, 17.792000],
          [78.875700, 17.774000]
        ]]
      }
    },
    {
      "type": "Feature",
      "id": "W-07-040",
      "properties": {
        "ward_number": 40,
        "ward_code": "W-07-040",
        "ward_name": "Zone_07 Municipal Ward 40",
        "population_census": 26000,
        "residential_properties": 5700,
        "commercial_units": 950,
        "sanitation_workers_allocated": 15,
        "nodal_officer": "OFF-ZONE7-WARD40",
        "helpline": "+91-1800-425-1110"
      },
      "geometry": {
        "type": "Polygon",
        "coordinates": [[
          [78.876700, 17.775000],
          [78.886700, 17.777000],
          [78.888700, 17.790000],
          [78.879700, 17.793000],
          [78.876700, 17.775000]
        ]]
      }
    },
    {
      "type": "Feature",
      "id": "W-07-041",
      "properties": {
        "ward_number": 41,
        "ward_code": "W-07-041",
        "ward_name": "Zone_07 Municipal Ward 41",
        "population_census": 26350,
        "residential_properties": 5780,
        "commercial_units": 965,
        "sanitation_workers_allocated": 16,
        "nodal_officer": "OFF-ZONE7-WARD41",
        "helpline": "+91-1800-425-1111"
      },
      "geometry": {
        "type": "Polygon",
        "coordinates": [[
          [78.877700, 17.776000],
          [78.887700, 17.778000],
          [78.889700, 17.791000],
          [78.880700, 17.794000],
          [78.877700, 17.776000]
        ]]
      }
    },
    {
      "type": "Feature",
      "id": "W-07-042",
      "properties": {
        "ward_number": 42,
        "ward_code": "W-07-042",
        "ward_name": "Zone_07 Municipal Ward 42",
        "population_census": 26700,
        "residential_properties": 5860,
        "commercial_units": 980,
        "sanitation_workers_allocated": 17,
        "nodal_officer": "OFF-ZONE7-WARD42",
        "helpline": "+91-1800-425-1112"
      },
      "geometry": {
        "type": "Polygon",
        "coordinates": [[
          [78.878700, 17.777000],
          [78.888700, 17.779000],
          [78.890700, 17.792000],
          [78.881700, 17.795000],
          [78.878700, 17.777000]
        ]]
      }
    },
    {
      "type": "Feature",
      "id": "W-07-043",
      "properties": {
        "ward_number": 43,
        "ward_code": "W-07-043",
        "ward_name": "Zone_07 Municipal Ward 43",
        "population_census": 27050,
        "residential_properties": 5940,
        "commercial_units": 995,
        "sanitation_workers_allocated": 18,
        "nodal_officer": "OFF-ZONE7-WARD43",
        "helpline": "+91-1800-425-1113"
      },
      "geometry": {
        "type": "Polygon",
        "coordinates": [[
          [78.879700, 17.778000],
          [78.889700, 17.780000],
          [78.891700, 17.793000],
          [78.882700, 17.796000],
          [78.879700, 17.778000]
        ]]
      }
    },
    {
      "type": "Feature",
      "id": "W-07-044",
      "properties": {
        "ward_number": 44,
        "ward_code": "W-07-044",
        "ward_name": "Zone_07 Municipal Ward 44",
        "population_census": 27400,
        "residential_properties": 6020,
        "commercial_units": 1010,
        "sanitation_workers_allocated": 19,
        "nodal_officer": "OFF-ZONE7-WARD44",
        "helpline": "+91-1800-425-1114"
      },
      "geometry": {
        "type": "Polygon",
        "coordinates": [[
          [78.880700, 17.779000],
          [78.890700, 17.781000],
          [78.892700, 17.794000],
          [78.883700, 17.797000],
          [78.880700, 17.779000]
        ]]
      }
    },
    {
      "type": "Feature",
      "id": "W-07-045",
      "properties": {
        "ward_number": 45,
        "ward_code": "W-07-045",
        "ward_name": "Zone_07 Municipal Ward 45",
        "population_census": 27750,
        "residential_properties": 6100,
        "commercial_units": 1025,
        "sanitation_workers_allocated": 20,
        "nodal_officer": "OFF-ZONE7-WARD45",
        "helpline": "+91-1800-425-1115"
      },
      "geometry": {
        "type": "Polygon",
        "coordinates": [[
          [78.881700, 17.780000],
          [78.891700, 17.782000],
          [78.893700, 17.795000],
          [78.884700, 17.798000],
          [78.881700, 17.780000]
        ]]
      }
    },
    {
      "type": "Feature",
      "id": "W-07-046",
      "properties": {
        "ward_number": 46,
        "ward_code": "W-07-046",
        "ward_name": "Zone_07 Municipal Ward 46",
        "population_census": 28100,
        "residential_properties": 6180,
        "commercial_units": 1040,
        "sanitation_workers_allocated": 21,
        "nodal_officer": "OFF-ZONE7-WARD46",
        "helpline": "+91-1800-425-1116"
      },
      "geometry": {
        "type": "Polygon",
        "coordinates": [[
          [78.882700, 17.781000],
          [78.892700, 17.783000],
          [78.894700, 17.796000],
          [78.885700, 17.799000],
          [78.882700, 17.781000]
        ]]
      }
    },
    {
      "type": "Feature",
      "id": "W-07-047",
      "properties": {
        "ward_number": 47,
        "ward_code": "W-07-047",
        "ward_name": "Zone_07 Municipal Ward 47",
        "population_census": 28450,
        "residential_properties": 6260,
        "commercial_units": 1055,
        "sanitation_workers_allocated": 22,
        "nodal_officer": "OFF-ZONE7-WARD47",
        "helpline": "+91-1800-425-1117"
      },
      "geometry": {
        "type": "Polygon",
        "coordinates": [[
          [78.883700, 17.782000],
          [78.893700, 17.784000],
          [78.895700, 17.797000],
          [78.886700, 17.800000],
          [78.883700, 17.782000]
        ]]
      }
    },
    {
      "type": "Feature",
      "id": "W-07-048",
      "properties": {
        "ward_number": 48,
        "ward_code": "W-07-048",
        "ward_name": "Zone_07 Municipal Ward 48",
        "population_census": 28800,
        "residential_properties": 6340,
        "commercial_units": 1070,
        "sanitation_workers_allocated": 23,
        "nodal_officer": "OFF-ZONE7-WARD48",
        "helpline": "+91-1800-425-1118"
      },
      "geometry": {
        "type": "Polygon",
        "coordinates": [[
          [78.884700, 17.783000],
          [78.894700, 17.785000],
          [78.896700, 17.798000],
          [78.887700, 17.801000],
          [78.884700, 17.783000]
        ]]
      }
    },
    {
      "type": "Feature",
      "id": "W-07-049",
      "properties": {
        "ward_number": 49,
        "ward_code": "W-07-049",
        "ward_name": "Zone_07 Municipal Ward 49",
        "population_census": 29150,
        "residential_properties": 6420,
        "commercial_units": 1085,
        "sanitation_workers_allocated": 24,
        "nodal_officer": "OFF-ZONE7-WARD49",
        "helpline": "+91-1800-425-1119"
      },
      "geometry": {
        "type": "Polygon",
        "coordinates": [[
          [78.885700, 17.784000],
          [78.895700, 17.786000],
          [78.897700, 17.799000],
          [78.888700, 17.802000],
          [78.885700, 17.784000]
        ]]
      }
    },
    {
      "type": "Feature",
      "id": "W-07-050",
      "properties": {
        "ward_number": 50,
        "ward_code": "W-07-050",
        "ward_name": "Zone_07 Municipal Ward 50",
        "population_census": 29500,
        "residential_properties": 6500,
        "commercial_units": 1100,
        "sanitation_workers_allocated": 25,
        "nodal_officer": "OFF-ZONE7-WARD50",
        "helpline": "+91-1800-425-1120"
      },
      "geometry": {
        "type": "Polygon",
        "coordinates": [[
          [78.886700, 17.785000],
          [78.896700, 17.787000],
          [78.898700, 17.800000],
          [78.889700, 17.803000],
          [78.886700, 17.785000]
        ]]
      }
    },
    {
      "type": "Feature",
      "id": "W-07-051",
      "properties": {
        "ward_number": 51,
        "ward_code": "W-07-051",
        "ward_name": "Zone_07 Municipal Ward 51",
        "population_census": 29850,
        "residential_properties": 6580,
        "commercial_units": 1115,
        "sanitation_workers_allocated": 26,
        "nodal_officer": "OFF-ZONE7-WARD51",
        "helpline": "+91-1800-425-1121"
      },
      "geometry": {
        "type": "Polygon",
        "coordinates": [[
          [78.887700, 17.786000],
          [78.897700, 17.788000],
          [78.899700, 17.801000],
          [78.890700, 17.804000],
          [78.887700, 17.786000]
        ]]
      }
    },
    {
      "type": "Feature",
      "id": "W-07-052",
      "properties": {
        "ward_number": 52,
        "ward_code": "W-07-052",
        "ward_name": "Zone_07 Municipal Ward 52",
        "population_census": 30200,
        "residential_properties": 6660,
        "commercial_units": 1130,
        "sanitation_workers_allocated": 27,
        "nodal_officer": "OFF-ZONE7-WARD52",
        "helpline": "+91-1800-425-1122"
      },
      "geometry": {
        "type": "Polygon",
        "coordinates": [[
          [78.888700, 17.787000],
          [78.898700, 17.789000],
          [78.900700, 17.802000],
          [78.891700, 17.805000],
          [78.888700, 17.787000]
        ]]
      }
    },
    {
      "type": "Feature",
      "id": "W-07-053",
      "properties": {
        "ward_number": 53,
        "ward_code": "W-07-053",
        "ward_name": "Zone_07 Municipal Ward 53",
        "population_census": 30550,
        "residential_properties": 6740,
        "commercial_units": 1145,
        "sanitation_workers_allocated": 28,
        "nodal_officer": "OFF-ZONE7-WARD53",
        "helpline": "+91-1800-425-1123"
      },
      "geometry": {
        "type": "Polygon",
        "coordinates": [[
          [78.889700, 17.788000],
          [78.899700, 17.790000],
          [78.901700, 17.803000],
          [78.892700, 17.806000],
          [78.889700, 17.788000]
        ]]
      }
    },
    {
      "type": "Feature",
      "id": "W-07-054",
      "properties": {
        "ward_number": 54,
        "ward_code": "W-07-054",
        "ward_name": "Zone_07 Municipal Ward 54",
        "population_census": 30900,
        "residential_properties": 6820,
        "commercial_units": 1160,
        "sanitation_workers_allocated": 29,
        "nodal_officer": "OFF-ZONE7-WARD54",
        "helpline": "+91-1800-425-1124"
      },
      "geometry": {
        "type": "Polygon",
        "coordinates": [[
          [78.890700, 17.789000],
          [78.900700, 17.791000],
          [78.902700, 17.804000],
          [78.893700, 17.807000],
          [78.890700, 17.789000]
        ]]
      }
    },
    {
      "type": "Feature",
      "id": "W-07-055",
      "properties": {
        "ward_number": 55,
        "ward_code": "W-07-055",
        "ward_name": "Zone_07 Municipal Ward 55",
        "population_census": 31250,
        "residential_properties": 6900,
        "commercial_units": 1175,
        "sanitation_workers_allocated": 30,
        "nodal_officer": "OFF-ZONE7-WARD55",
        "helpline": "+91-1800-425-1125"
      },
      "geometry": {
        "type": "Polygon",
        "coordinates": [[
          [78.891700, 17.790000],
          [78.901700, 17.792000],
          [78.903700, 17.805000],
          [78.894700, 17.808000],
          [78.891700, 17.790000]
        ]]
      }
    },
    {
      "type": "Feature",
      "id": "W-07-056",
      "properties": {
        "ward_number": 56,
        "ward_code": "W-07-056",
        "ward_name": "Zone_07 Municipal Ward 56",
        "population_census": 31600,
        "residential_properties": 6980,
        "commercial_units": 1190,
        "sanitation_workers_allocated": 31,
        "nodal_officer": "OFF-ZONE7-WARD56",
        "helpline": "+91-1800-425-1126"
      },
      "geometry": {
        "type": "Polygon",
        "coordinates": [[
          [78.892700, 17.791000],
          [78.902700, 17.793000],
          [78.904700, 17.806000],
          [78.895700, 17.809000],
          [78.892700, 17.791000]
        ]]
      }
    },
    {
      "type": "Feature",
      "id": "W-07-057",
      "properties": {
        "ward_number": 57,
        "ward_code": "W-07-057",
        "ward_name": "Zone_07 Municipal Ward 57",
        "population_census": 31950,
        "residential_properties": 7060,
        "commercial_units": 1205,
        "sanitation_workers_allocated": 32,
        "nodal_officer": "OFF-ZONE7-WARD57",
        "helpline": "+91-1800-425-1127"
      },
      "geometry": {
        "type": "Polygon",
        "coordinates": [[
          [78.893700, 17.792000],
          [78.903700, 17.794000],
          [78.905700, 17.807000],
          [78.896700, 17.810000],
          [78.893700, 17.792000]
        ]]
      }
    },
    {
      "type": "Feature",
      "id": "W-07-058",
      "properties": {
        "ward_number": 58,
        "ward_code": "W-07-058",
        "ward_name": "Zone_07 Municipal Ward 58",
        "population_census": 32300,
        "residential_properties": 7140,
        "commercial_units": 1220,
        "sanitation_workers_allocated": 33,
        "nodal_officer": "OFF-ZONE7-WARD58",
        "helpline": "+91-1800-425-1128"
      },
      "geometry": {
        "type": "Polygon",
        "coordinates": [[
          [78.894700, 17.793000],
          [78.904700, 17.795000],
          [78.906700, 17.808000],
          [78.897700, 17.811000],
          [78.894700, 17.793000]
        ]]
      }
    },
    {
      "type": "Feature",
      "id": "W-07-059",
      "properties": {
        "ward_number": 59,
        "ward_code": "W-07-059",
        "ward_name": "Zone_07 Municipal Ward 59",
        "population_census": 32650,
        "residential_properties": 7220,
        "commercial_units": 1235,
        "sanitation_workers_allocated": 34,
        "nodal_officer": "OFF-ZONE7-WARD59",
        "helpline": "+91-1800-425-1129"
      },
      "geometry": {
        "type": "Polygon",
        "coordinates": [[
          [78.895700, 17.794000],
          [78.905700, 17.796000],
          [78.907700, 17.809000],
          [78.898700, 17.812000],
          [78.895700, 17.794000]
        ]]
      }
    },
    {
      "type": "Feature",
      "id": "W-07-060",
      "properties": {
        "ward_number": 60,
        "ward_code": "W-07-060",
        "ward_name": "Zone_07 Municipal Ward 60",
        "population_census": 33000,
        "residential_properties": 7300,
        "commercial_units": 1250,
        "sanitation_workers_allocated": 15,
        "nodal_officer": "OFF-ZONE7-WARD60",
        "helpline": "+91-1800-425-1130"
      },
      "geometry": {
        "type": "Polygon",
        "coordinates": [[
          [78.896700, 17.795000],
          [78.906700, 17.797000],
          [78.908700, 17.810000],
          [78.899700, 17.813000],
          [78.896700, 17.795000]
        ]]
      }
    },
    {
      "type": "Feature",
      "id": "W-07-061",
      "properties": {
        "ward_number": 61,
        "ward_code": "W-07-061",
        "ward_name": "Zone_07 Municipal Ward 61",
        "population_census": 33350,
        "residential_properties": 7380,
        "commercial_units": 1265,
        "sanitation_workers_allocated": 16,
        "nodal_officer": "OFF-ZONE7-WARD61",
        "helpline": "+91-1800-425-1131"
      },
      "geometry": {
        "type": "Polygon",
        "coordinates": [[
          [78.897700, 17.796000],
          [78.907700, 17.798000],
          [78.909700, 17.811000],
          [78.900700, 17.814000],
          [78.897700, 17.796000]
        ]]
      }
    },
    {
      "type": "Feature",
      "id": "W-07-062",
      "properties": {
        "ward_number": 62,
        "ward_code": "W-07-062",
        "ward_name": "Zone_07 Municipal Ward 62",
        "population_census": 33700,
        "residential_properties": 7460,
        "commercial_units": 1280,
        "sanitation_workers_allocated": 17,
        "nodal_officer": "OFF-ZONE7-WARD62",
        "helpline": "+91-1800-425-1132"
      },
      "geometry": {
        "type": "Polygon",
        "coordinates": [[
          [78.898700, 17.797000],
          [78.908700, 17.799000],
          [78.910700, 17.812000],
          [78.901700, 17.815000],
          [78.898700, 17.797000]
        ]]
      }
    },
    {
      "type": "Feature",
      "id": "W-07-063",
      "properties": {
        "ward_number": 63,
        "ward_code": "W-07-063",
        "ward_name": "Zone_07 Municipal Ward 63",
        "population_census": 34050,
        "residential_properties": 7540,
        "commercial_units": 1295,
        "sanitation_workers_allocated": 18,
        "nodal_officer": "OFF-ZONE7-WARD63",
        "helpline": "+91-1800-425-1133"
      },
      "geometry": {
        "type": "Polygon",
        "coordinates": [[
          [78.899700, 17.798000],
          [78.909700, 17.800000],
          [78.911700, 17.813000],
          [78.902700, 17.816000],
          [78.899700, 17.798000]
        ]]
      }
    },
    {
      "type": "Feature",
      "id": "W-07-064",
      "properties": {
        "ward_number": 64,
        "ward_code": "W-07-064",
        "ward_name": "Zone_07 Municipal Ward 64",
        "population_census": 34400,
        "residential_properties": 7620,
        "commercial_units": 1310,
        "sanitation_workers_allocated": 19,
        "nodal_officer": "OFF-ZONE7-WARD64",
        "helpline": "+91-1800-425-1134"
      },
      "geometry": {
        "type": "Polygon",
        "coordinates": [[
          [78.900700, 17.799000],
          [78.910700, 17.801000],
          [78.912700, 17.814000],
          [78.903700, 17.817000],
          [78.900700, 17.799000]
        ]]
      }
    },
    {
      "type": "Feature",
      "id": "W-07-065",
      "properties": {
        "ward_number": 65,
        "ward_code": "W-07-065",
        "ward_name": "Zone_07 Municipal Ward 65",
        "population_census": 34750,
        "residential_properties": 7700,
        "commercial_units": 1325,
        "sanitation_workers_allocated": 20,
        "nodal_officer": "OFF-ZONE7-WARD65",
        "helpline": "+91-1800-425-1135"
      },
      "geometry": {
        "type": "Polygon",
        "coordinates": [[
          [78.901700, 17.800000],
          [78.911700, 17.802000],
          [78.913700, 17.815000],
          [78.904700, 17.818000],
          [78.901700, 17.800000]
        ]]
      }
    },
    {
      "type": "Feature",
      "id": "W-07-066",
      "properties": {
        "ward_number": 66,
        "ward_code": "W-07-066",
        "ward_name": "Zone_07 Municipal Ward 66",
        "population_census": 35100,
        "residential_properties": 7780,
        "commercial_units": 1340,
        "sanitation_workers_allocated": 21,
        "nodal_officer": "OFF-ZONE7-WARD66",
        "helpline": "+91-1800-425-1136"
      },
      "geometry": {
        "type": "Polygon",
        "coordinates": [[
          [78.902700, 17.801000],
          [78.912700, 17.803000],
          [78.914700, 17.816000],
          [78.905700, 17.819000],
          [78.902700, 17.801000]
        ]]
      }
    },
    {
      "type": "Feature",
      "id": "W-07-067",
      "properties": {
        "ward_number": 67,
        "ward_code": "W-07-067",
        "ward_name": "Zone_07 Municipal Ward 67",
        "population_census": 35450,
        "residential_properties": 7860,
        "commercial_units": 1355,
        "sanitation_workers_allocated": 22,
        "nodal_officer": "OFF-ZONE7-WARD67",
        "helpline": "+91-1800-425-1137"
      },
      "geometry": {
        "type": "Polygon",
        "coordinates": [[
          [78.903700, 17.802000],
          [78.913700, 17.804000],
          [78.915700, 17.817000],
          [78.906700, 17.820000],
          [78.903700, 17.802000]
        ]]
      }
    },
    {
      "type": "Feature",
      "id": "W-07-068",
      "properties": {
        "ward_number": 68,
        "ward_code": "W-07-068",
        "ward_name": "Zone_07 Municipal Ward 68",
        "population_census": 35800,
        "residential_properties": 7940,
        "commercial_units": 1370,
        "sanitation_workers_allocated": 23,
        "nodal_officer": "OFF-ZONE7-WARD68",
        "helpline": "+91-1800-425-1138"
      },
      "geometry": {
        "type": "Polygon",
        "coordinates": [[
          [78.904700, 17.803000],
          [78.914700, 17.805000],
          [78.916700, 17.818000],
          [78.907700, 17.821000],
          [78.904700, 17.803000]
        ]]
      }
    },
    {
      "type": "Feature",
      "id": "W-07-069",
      "properties": {
        "ward_number": 69,
        "ward_code": "W-07-069",
        "ward_name": "Zone_07 Municipal Ward 69",
        "population_census": 36150,
        "residential_properties": 8020,
        "commercial_units": 1385,
        "sanitation_workers_allocated": 24,
        "nodal_officer": "OFF-ZONE7-WARD69",
        "helpline": "+91-1800-425-1139"
      },
      "geometry": {
        "type": "Polygon",
        "coordinates": [[
          [78.905700, 17.804000],
          [78.915700, 17.806000],
          [78.917700, 17.819000],
          [78.908700, 17.822000],
          [78.905700, 17.804000]
        ]]
      }
    },
    {
      "type": "Feature",
      "id": "W-07-070",
      "properties": {
        "ward_number": 70,
        "ward_code": "W-07-070",
        "ward_name": "Zone_07 Municipal Ward 70",
        "population_census": 36500,
        "residential_properties": 8100,
        "commercial_units": 1400,
        "sanitation_workers_allocated": 25,
        "nodal_officer": "OFF-ZONE7-WARD70",
        "helpline": "+91-1800-425-1140"
      },
      "geometry": {
        "type": "Polygon",
        "coordinates": [[
          [78.906700, 17.805000],
          [78.916700, 17.807000],
          [78.918700, 17.820000],
          [78.909700, 17.823000],
          [78.906700, 17.805000]
        ]]
      }
    },
    {
      "type": "Feature",
      "id": "W-07-071",
      "properties": {
        "ward_number": 71,
        "ward_code": "W-07-071",
        "ward_name": "Zone_07 Municipal Ward 71",
        "population_census": 36850,
        "residential_properties": 8180,
        "commercial_units": 1415,
        "sanitation_workers_allocated": 26,
        "nodal_officer": "OFF-ZONE7-WARD71",
        "helpline": "+91-1800-425-1141"
      },
      "geometry": {
        "type": "Polygon",
        "coordinates": [[
          [78.907700, 17.806000],
          [78.917700, 17.808000],
          [78.919700, 17.821000],
          [78.910700, 17.824000],
          [78.907700, 17.806000]
        ]]
      }
    },
    {
      "type": "Feature",
      "id": "W-07-072",
      "properties": {
        "ward_number": 72,
        "ward_code": "W-07-072",
        "ward_name": "Zone_07 Municipal Ward 72",
        "population_census": 37200,
        "residential_properties": 8260,
        "commercial_units": 1430,
        "sanitation_workers_allocated": 27,
        "nodal_officer": "OFF-ZONE7-WARD72",
        "helpline": "+91-1800-425-1142"
      },
      "geometry": {
        "type": "Polygon",
        "coordinates": [[
          [78.908700, 17.807000],
          [78.918700, 17.809000],
          [78.920700, 17.822000],
          [78.911700, 17.825000],
          [78.908700, 17.807000]
        ]]
      }
    },
    {
      "type": "Feature",
      "id": "W-07-073",
      "properties": {
        "ward_number": 73,
        "ward_code": "W-07-073",
        "ward_name": "Zone_07 Municipal Ward 73",
        "population_census": 37550,
        "residential_properties": 8340,
        "commercial_units": 1445,
        "sanitation_workers_allocated": 28,
        "nodal_officer": "OFF-ZONE7-WARD73",
        "helpline": "+91-1800-425-1143"
      },
      "geometry": {
        "type": "Polygon",
        "coordinates": [[
          [78.909700, 17.808000],
          [78.919700, 17.810000],
          [78.921700, 17.823000],
          [78.912700, 17.826000],
          [78.909700, 17.808000]
        ]]
      }
    },
    {
      "type": "Feature",
      "id": "W-07-074",
      "properties": {
        "ward_number": 74,
        "ward_code": "W-07-074",
        "ward_name": "Zone_07 Municipal Ward 74",
        "population_census": 37900,
        "residential_properties": 8420,
        "commercial_units": 1460,
        "sanitation_workers_allocated": 29,
        "nodal_officer": "OFF-ZONE7-WARD74",
        "helpline": "+91-1800-425-1144"
      },
      "geometry": {
        "type": "Polygon",
        "coordinates": [[
          [78.910700, 17.809000],
          [78.920700, 17.811000],
          [78.922700, 17.824000],
          [78.913700, 17.827000],
          [78.910700, 17.809000]
        ]]
      }
    },
    {
      "type": "Feature",
      "id": "W-07-075",
      "properties": {
        "ward_number": 75,
        "ward_code": "W-07-075",
        "ward_name": "Zone_07 Municipal Ward 75",
        "population_census": 38250,
        "residential_properties": 8500,
        "commercial_units": 1475,
        "sanitation_workers_allocated": 30,
        "nodal_officer": "OFF-ZONE7-WARD75",
        "helpline": "+91-1800-425-1145"
      },
      "geometry": {
        "type": "Polygon",
        "coordinates": [[
          [78.911700, 17.810000],
          [78.921700, 17.812000],
          [78.923700, 17.825000],
          [78.914700, 17.828000],
          [78.911700, 17.810000]
        ]]
      }
    },
    {
      "type": "Feature",
      "id": "W-07-076",
      "properties": {
        "ward_number": 76,
        "ward_code": "W-07-076",
        "ward_name": "Zone_07 Municipal Ward 76",
        "population_census": 38600,
        "residential_properties": 8580,
        "commercial_units": 1490,
        "sanitation_workers_allocated": 31,
        "nodal_officer": "OFF-ZONE7-WARD76",
        "helpline": "+91-1800-425-1146"
      },
      "geometry": {
        "type": "Polygon",
        "coordinates": [[
          [78.912700, 17.811000],
          [78.922700, 17.813000],
          [78.924700, 17.826000],
          [78.915700, 17.829000],
          [78.912700, 17.811000]
        ]]
      }
    },
    {
      "type": "Feature",
      "id": "W-07-077",
      "properties": {
        "ward_number": 77,
        "ward_code": "W-07-077",
        "ward_name": "Zone_07 Municipal Ward 77",
        "population_census": 38950,
        "residential_properties": 8660,
        "commercial_units": 1505,
        "sanitation_workers_allocated": 32,
        "nodal_officer": "OFF-ZONE7-WARD77",
        "helpline": "+91-1800-425-1147"
      },
      "geometry": {
        "type": "Polygon",
        "coordinates": [[
          [78.913700, 17.812000],
          [78.923700, 17.814000],
          [78.925700, 17.827000],
          [78.916700, 17.830000],
          [78.913700, 17.812000]
        ]]
      }
    },
    {
      "type": "Feature",
      "id": "W-07-078",
      "properties": {
        "ward_number": 78,
        "ward_code": "W-07-078",
        "ward_name": "Zone_07 Municipal Ward 78",
        "population_census": 39300,
        "residential_properties": 8740,
        "commercial_units": 1520,
        "sanitation_workers_allocated": 33,
        "nodal_officer": "OFF-ZONE7-WARD78",
        "helpline": "+91-1800-425-1148"
      },
      "geometry": {
        "type": "Polygon",
        "coordinates": [[
          [78.914700, 17.813000],
          [78.924700, 17.815000],
          [78.926700, 17.828000],
          [78.917700, 17.831000],
          [78.914700, 17.813000]
        ]]
      }
    },
    {
      "type": "Feature",
      "id": "W-07-079",
      "properties": {
        "ward_number": 79,
        "ward_code": "W-07-079",
        "ward_name": "Zone_07 Municipal Ward 79",
        "population_census": 39650,
        "residential_properties": 8820,
        "commercial_units": 1535,
        "sanitation_workers_allocated": 34,
        "nodal_officer": "OFF-ZONE7-WARD79",
        "helpline": "+91-1800-425-1149"
      },
      "geometry": {
        "type": "Polygon",
        "coordinates": [[
          [78.915700, 17.814000],
          [78.925700, 17.816000],
          [78.927700, 17.829000],
          [78.918700, 17.832000],
          [78.915700, 17.814000]
        ]]
      }
    },
    {
      "type": "Feature",
      "id": "W-07-080",
      "properties": {
        "ward_number": 80,
        "ward_code": "W-07-080",
        "ward_name": "Zone_07 Municipal Ward 80",
        "population_census": 40000,
        "residential_properties": 8900,
        "commercial_units": 1550,
        "sanitation_workers_allocated": 15,
        "nodal_officer": "OFF-ZONE7-WARD80",
        "helpline": "+91-1800-425-1150"
      },
      "geometry": {
        "type": "Polygon",
        "coordinates": [[
          [78.916700, 17.815000],
          [78.926700, 17.817000],
          [78.928700, 17.830000],
          [78.919700, 17.833000],
          [78.916700, 17.815000]
        ]]
      }
    },
    {
      "type": "Feature",
      "id": "W-07-081",
      "properties": {
        "ward_number": 81,
        "ward_code": "W-07-081",
        "ward_name": "Zone_07 Municipal Ward 81",
        "population_census": 40350,
        "residential_properties": 8980,
        "commercial_units": 1565,
        "sanitation_workers_allocated": 16,
        "nodal_officer": "OFF-ZONE7-WARD81",
        "helpline": "+91-1800-425-1151"
      },
      "geometry": {
        "type": "Polygon",
        "coordinates": [[
          [78.917700, 17.816000],
          [78.927700, 17.818000],
          [78.929700, 17.831000],
          [78.920700, 17.834000],
          [78.917700, 17.816000]
        ]]
      }
    },
    {
      "type": "Feature",
      "id": "W-07-082",
      "properties": {
        "ward_number": 82,
        "ward_code": "W-07-082",
        "ward_name": "Zone_07 Municipal Ward 82",
        "population_census": 40700,
        "residential_properties": 9060,
        "commercial_units": 1580,
        "sanitation_workers_allocated": 17,
        "nodal_officer": "OFF-ZONE7-WARD82",
        "helpline": "+91-1800-425-1152"
      },
      "geometry": {
        "type": "Polygon",
        "coordinates": [[
          [78.918700, 17.817000],
          [78.928700, 17.819000],
          [78.930700, 17.832000],
          [78.921700, 17.835000],
          [78.918700, 17.817000]
        ]]
      }
    },
    {
      "type": "Feature",
      "id": "W-07-083",
      "properties": {
        "ward_number": 83,
        "ward_code": "W-07-083",
        "ward_name": "Zone_07 Municipal Ward 83",
        "population_census": 41050,
        "residential_properties": 9140,
        "commercial_units": 1595,
        "sanitation_workers_allocated": 18,
        "nodal_officer": "OFF-ZONE7-WARD83",
        "helpline": "+91-1800-425-1153"
      },
      "geometry": {
        "type": "Polygon",
        "coordinates": [[
          [78.919700, 17.818000],
          [78.929700, 17.820000],
          [78.931700, 17.833000],
          [78.922700, 17.836000],
          [78.919700, 17.818000]
        ]]
      }
    },
    {
      "type": "Feature",
      "id": "W-07-084",
      "properties": {
        "ward_number": 84,
        "ward_code": "W-07-084",
        "ward_name": "Zone_07 Municipal Ward 84",
        "population_census": 41400,
        "residential_properties": 9220,
        "commercial_units": 1610,
        "sanitation_workers_allocated": 19,
        "nodal_officer": "OFF-ZONE7-WARD84",
        "helpline": "+91-1800-425-1154"
      },
      "geometry": {
        "type": "Polygon",
        "coordinates": [[
          [78.920700, 17.819000],
          [78.930700, 17.821000],
          [78.932700, 17.834000],
          [78.923700, 17.837000],
          [78.920700, 17.819000]
        ]]
      }
    },
    {
      "type": "Feature",
      "id": "W-07-085",
      "properties": {
        "ward_number": 85,
        "ward_code": "W-07-085",
        "ward_name": "Zone_07 Municipal Ward 85",
        "population_census": 41750,
        "residential_properties": 9300,
        "commercial_units": 1625,
        "sanitation_workers_allocated": 20,
        "nodal_officer": "OFF-ZONE7-WARD85",
        "helpline": "+91-1800-425-1155"
      },
      "geometry": {
        "type": "Polygon",
        "coordinates": [[
          [78.921700, 17.820000],
          [78.931700, 17.822000],
          [78.933700, 17.835000],
          [78.924700, 17.838000],
          [78.921700, 17.820000]
        ]]
      }
    },
    {
      "type": "Feature",
      "id": "W-07-086",
      "properties": {
        "ward_number": 86,
        "ward_code": "W-07-086",
        "ward_name": "Zone_07 Municipal Ward 86",
        "population_census": 42100,
        "residential_properties": 9380,
        "commercial_units": 1640,
        "sanitation_workers_allocated": 21,
        "nodal_officer": "OFF-ZONE7-WARD86",
        "helpline": "+91-1800-425-1156"
      },
      "geometry": {
        "type": "Polygon",
        "coordinates": [[
          [78.922700, 17.821000],
          [78.932700, 17.823000],
          [78.934700, 17.836000],
          [78.925700, 17.839000],
          [78.922700, 17.821000]
        ]]
      }
    },
    {
      "type": "Feature",
      "id": "W-07-087",
      "properties": {
        "ward_number": 87,
        "ward_code": "W-07-087",
        "ward_name": "Zone_07 Municipal Ward 87",
        "population_census": 42450,
        "residential_properties": 9460,
        "commercial_units": 1655,
        "sanitation_workers_allocated": 22,
        "nodal_officer": "OFF-ZONE7-WARD87",
        "helpline": "+91-1800-425-1157"
      },
      "geometry": {
        "type": "Polygon",
        "coordinates": [[
          [78.923700, 17.822000],
          [78.933700, 17.824000],
          [78.935700, 17.837000],
          [78.926700, 17.840000],
          [78.923700, 17.822000]
        ]]
      }
    },
    {
      "type": "Feature",
      "id": "W-07-088",
      "properties": {
        "ward_number": 88,
        "ward_code": "W-07-088",
        "ward_name": "Zone_07 Municipal Ward 88",
        "population_census": 42800,
        "residential_properties": 9540,
        "commercial_units": 1670,
        "sanitation_workers_allocated": 23,
        "nodal_officer": "OFF-ZONE7-WARD88",
        "helpline": "+91-1800-425-1158"
      },
      "geometry": {
        "type": "Polygon",
        "coordinates": [[
          [78.924700, 17.823000],
          [78.934700, 17.825000],
          [78.936700, 17.838000],
          [78.927700, 17.841000],
          [78.924700, 17.823000]
        ]]
      }
    },
    {
      "type": "Feature",
      "id": "W-07-089",
      "properties": {
        "ward_number": 89,
        "ward_code": "W-07-089",
        "ward_name": "Zone_07 Municipal Ward 89",
        "population_census": 43150,
        "residential_properties": 9620,
        "commercial_units": 1685,
        "sanitation_workers_allocated": 24,
        "nodal_officer": "OFF-ZONE7-WARD89",
        "helpline": "+91-1800-425-1159"
      },
      "geometry": {
        "type": "Polygon",
        "coordinates": [[
          [78.925700, 17.824000],
          [78.935700, 17.826000],
          [78.937700, 17.839000],
          [78.928700, 17.842000],
          [78.925700, 17.824000]
        ]]
      }
    },
    {
      "type": "Feature",
      "id": "W-07-090",
      "properties": {
        "ward_number": 90,
        "ward_code": "W-07-090",
        "ward_name": "Zone_07 Municipal Ward 90",
        "population_census": 43500,
        "residential_properties": 9700,
        "commercial_units": 1700,
        "sanitation_workers_allocated": 25,
        "nodal_officer": "OFF-ZONE7-WARD90",
        "helpline": "+91-1800-425-1160"
      },
      "geometry": {
        "type": "Polygon",
        "coordinates": [[
          [78.926700, 17.825000],
          [78.936700, 17.827000],
          [78.938700, 17.840000],
          [78.929700, 17.843000],
          [78.926700, 17.825000]
        ]]
      }
    },
    {
      "type": "Feature",
      "id": "W-07-091",
      "properties": {
        "ward_number": 91,
        "ward_code": "W-07-091",
        "ward_name": "Zone_07 Municipal Ward 91",
        "population_census": 43850,
        "residential_properties": 9780,
        "commercial_units": 1715,
        "sanitation_workers_allocated": 26,
        "nodal_officer": "OFF-ZONE7-WARD91",
        "helpline": "+91-1800-425-1161"
      },
      "geometry": {
        "type": "Polygon",
        "coordinates": [[
          [78.927700, 17.826000],
          [78.937700, 17.828000],
          [78.939700, 17.841000],
          [78.930700, 17.844000],
          [78.927700, 17.826000]
        ]]
      }
    },
    {
      "type": "Feature",
      "id": "W-07-092",
      "properties": {
        "ward_number": 92,
        "ward_code": "W-07-092",
        "ward_name": "Zone_07 Municipal Ward 92",
        "population_census": 44200,
        "residential_properties": 9860,
        "commercial_units": 1730,
        "sanitation_workers_allocated": 27,
        "nodal_officer": "OFF-ZONE7-WARD92",
        "helpline": "+91-1800-425-1162"
      },
      "geometry": {
        "type": "Polygon",
        "coordinates": [[
          [78.928700, 17.827000],
          [78.938700, 17.829000],
          [78.940700, 17.842000],
          [78.931700, 17.845000],
          [78.928700, 17.827000]
        ]]
      }
    },
    {
      "type": "Feature",
      "id": "W-07-093",
      "properties": {
        "ward_number": 93,
        "ward_code": "W-07-093",
        "ward_name": "Zone_07 Municipal Ward 93",
        "population_census": 44550,
        "residential_properties": 9940,
        "commercial_units": 1745,
        "sanitation_workers_allocated": 28,
        "nodal_officer": "OFF-ZONE7-WARD93",
        "helpline": "+91-1800-425-1163"
      },
      "geometry": {
        "type": "Polygon",
        "coordinates": [[
          [78.929700, 17.828000],
          [78.939700, 17.830000],
          [78.941700, 17.843000],
          [78.932700, 17.846000],
          [78.929700, 17.828000]
        ]]
      }
    },
    {
      "type": "Feature",
      "id": "W-07-094",
      "properties": {
        "ward_number": 94,
        "ward_code": "W-07-094",
        "ward_name": "Zone_07 Municipal Ward 94",
        "population_census": 44900,
        "residential_properties": 10020,
        "commercial_units": 1760,
        "sanitation_workers_allocated": 29,
        "nodal_officer": "OFF-ZONE7-WARD94",
        "helpline": "+91-1800-425-1164"
      },
      "geometry": {
        "type": "Polygon",
        "coordinates": [[
          [78.930700, 17.829000],
          [78.940700, 17.831000],
          [78.942700, 17.844000],
          [78.933700, 17.847000],
          [78.930700, 17.829000]
        ]]
      }
    },
    {
      "type": "Feature",
      "id": "W-07-095",
      "properties": {
        "ward_number": 95,
        "ward_code": "W-07-095",
        "ward_name": "Zone_07 Municipal Ward 95",
        "population_census": 45250,
        "residential_properties": 10100,
        "commercial_units": 1775,
        "sanitation_workers_allocated": 30,
        "nodal_officer": "OFF-ZONE7-WARD95",
        "helpline": "+91-1800-425-1165"
      },
      "geometry": {
        "type": "Polygon",
        "coordinates": [[
          [78.931700, 17.830000],
          [78.941700, 17.832000],
          [78.943700, 17.845000],
          [78.934700, 17.848000],
          [78.931700, 17.830000]
        ]]
      }
    },
    {
      "type": "Feature",
      "id": "W-07-096",
      "properties": {
        "ward_number": 96,
        "ward_code": "W-07-096",
        "ward_name": "Zone_07 Municipal Ward 96",
        "population_census": 45600,
        "residential_properties": 10180,
        "commercial_units": 1790,
        "sanitation_workers_allocated": 31,
        "nodal_officer": "OFF-ZONE7-WARD96",
        "helpline": "+91-1800-425-1166"
      },
      "geometry": {
        "type": "Polygon",
        "coordinates": [[
          [78.932700, 17.831000],
          [78.942700, 17.833000],
          [78.944700, 17.846000],
          [78.935700, 17.849000],
          [78.932700, 17.831000]
        ]]
      }
    },
    {
      "type": "Feature",
      "id": "W-07-097",
      "properties": {
        "ward_number": 97,
        "ward_code": "W-07-097",
        "ward_name": "Zone_07 Municipal Ward 97",
        "population_census": 45950,
        "residential_properties": 10260,
        "commercial_units": 1805,
        "sanitation_workers_allocated": 32,
        "nodal_officer": "OFF-ZONE7-WARD97",
        "helpline": "+91-1800-425-1167"
      },
      "geometry": {
        "type": "Polygon",
        "coordinates": [[
          [78.933700, 17.832000],
          [78.943700, 17.834000],
          [78.945700, 17.847000],
          [78.936700, 17.850000],
          [78.933700, 17.832000]
        ]]
      }
    },
    {
      "type": "Feature",
      "id": "W-07-098",
      "properties": {
        "ward_number": 98,
        "ward_code": "W-07-098",
        "ward_name": "Zone_07 Municipal Ward 98",
        "population_census": 46300,
        "residential_properties": 10340,
        "commercial_units": 1820,
        "sanitation_workers_allocated": 33,
        "nodal_officer": "OFF-ZONE7-WARD98",
        "helpline": "+91-1800-425-1168"
      },
      "geometry": {
        "type": "Polygon",
        "coordinates": [[
          [78.934700, 17.833000],
          [78.944700, 17.835000],
          [78.946700, 17.848000],
          [78.937700, 17.851000],
          [78.934700, 17.833000]
        ]]
      }
    },
    {
      "type": "Feature",
      "id": "W-07-099",
      "properties": {
        "ward_number": 99,
        "ward_code": "W-07-099",
        "ward_name": "Zone_07 Municipal Ward 99",
        "population_census": 46650,
        "residential_properties": 10420,
        "commercial_units": 1835,
        "sanitation_workers_allocated": 34,
        "nodal_officer": "OFF-ZONE7-WARD99",
        "helpline": "+91-1800-425-1169"
      },
      "geometry": {
        "type": "Polygon",
        "coordinates": [[
          [78.935700, 17.834000],
          [78.945700, 17.836000],
          [78.947700, 17.849000],
          [78.938700, 17.852000],
          [78.935700, 17.834000]
        ]]
      }
    },
    {
      "type": "Feature",
      "id": "W-07-100",
      "properties": {
        "ward_number": 100,
        "ward_code": "W-07-100",
        "ward_name": "Zone_07 Municipal Ward 100",
        "population_census": 47000,
        "residential_properties": 10500,
        "commercial_units": 1850,
        "sanitation_workers_allocated": 15,
        "nodal_officer": "OFF-ZONE7-WARD100",
        "helpline": "+91-1800-425-1170"
      },
      "geometry": {
        "type": "Polygon",
        "coordinates": [[
          [78.936700, 17.835000],
          [78.946700, 17.837000],
          [78.948700, 17.850000],
          [78.939700, 17.853000],
          [78.936700, 17.835000]
        ]]
      }
    }
  }
}