{
  "type": "FeatureCollection",
  "zone": "Zone_15",
  "crs": { "type": "name", "properties": { "name": "urn:ogc:def:crs:OGC:1.3:CRS84" } },
  "features": [
    {
      "type": "Feature",
      "id": "W-15-001",
      "properties": {
        "ward_number": 1,
        "ward_code": "W-15-001",
        "ward_name": "Zone_15 Municipal Ward 1",
        "population_census": 12350,
        "residential_properties": 2580,
        "commercial_units": 365,
        "sanitation_workers_allocated": 16,
        "nodal_officer": "OFF-ZONE15-WARD1",
        "helpline": "+91-1800-425-1151"
      },
      "geometry": {
        "type": "Polygon",
        "coordinates": [[
          [79.237700, 18.136000],
          [79.247700, 18.138000],
          [79.249700, 18.151000],
          [79.240700, 18.154000],
          [79.237700, 18.136000]
        ]]
      }
    },
    {
      "type": "Feature",
      "id": "W-15-002",
      "properties": {
        "ward_number": 2,
        "ward_code": "W-15-002",
        "ward_name": "Zone_15 Municipal Ward 2",
        "population_census": 12700,
        "residential_properties": 2660,
        "commercial_units": 380,
        "sanitation_workers_allocated": 17,
        "nodal_officer": "OFF-ZONE15-WARD2",
        "helpline": "+91-1800-425-1152"
      },
      "geometry": {
        "type": "Polygon",
        "coordinates": [[
          [79.238700, 18.137000],
          [79.248700, 18.139000],
          [79.250700, 18.152000],
          [79.241700, 18.155000],
          [79.238700, 18.137000]
        ]]
      }
    },
    {
      "type": "Feature",
      "id": "W-15-003",
      "properties": {
        "ward_number": 3,
        "ward_code": "W-15-003",
        "ward_name": "Zone_15 Municipal Ward 3",
        "population_census": 13050,
        "residential_properties": 2740,
        "commercial_units": 395,
        "sanitation_workers_allocated": 18,
        "nodal_officer": "OFF-ZONE15-WARD3",
        "helpline": "+91-1800-425-1153"
      },
      "geometry": {
        "type": "Polygon",
        "coordinates": [[
          [79.239700, 18.138000],
          [79.249700, 18.140000],
          [79.251700, 18.153000],
          [79.242700, 18.156000],
          [79.239700, 18.138000]
        ]]
      }
    },
    {
      "type": "Feature",
      "id": "W-15-004",
      "properties": {
        "ward_number": 4,
        "ward_code": "W-15-004",
        "ward_name": "Zone_15 Municipal Ward 4",
        "population_census": 13400,
        "residential_properties": 2820,
        "commercial_units": 410,
        "sanitation_workers_allocated": 19,
        "nodal_officer": "OFF-ZONE15-WARD4",
        "helpline": "+91-1800-425-1154"
      },
      "geometry": {
        "type": "Polygon",
        "coordinates": [[
          [79.240700, 18.139000],
          [79.250700, 18.141000],
          [79.252700, 18.154000],
          [79.243700, 18.157000],
          [79.240700, 18.139000]
        ]]
      }
    },
    {
      "type": "Feature",
      "id": "W-15-005",
      "properties": {
        "ward_number": 5,
        "ward_code": "W-15-005",
        "ward_name": "Zone_15 Municipal Ward 5",
        "population_census": 13750,
        "residential_properties": 2900,
        "commercial_units": 425,
        "sanitation_workers_allocated": 20,
        "nodal_officer": "OFF-ZONE15-WARD5",
        "helpline": "+91-1800-425-1155"
      },
      "geometry": {
        "type": "Polygon",
        "coordinates": [[
          [79.241700, 18.140000],
          [79.251700, 18.142000],
          [79.253700, 18.155000],
          [79.244700, 18.158000],
          [79.241700, 18.140000]
        ]]
      }
    },
    {
      "type": "Feature",
      "id": "W-15-006",
      "properties": {
        "ward_number": 6,
        "ward_code": "W-15-006",
        "ward_name": "Zone_15 Municipal Ward 6",
        "population_census": 14100,
        "residential_properties": 2980,
        "commercial_units": 440,
        "sanitation_workers_allocated": 21,
        "nodal_officer": "OFF-ZONE15-WARD6",
        "helpline": "+91-1800-425-1156"
      },
      "geometry": {
        "type": "Polygon",
        "coordinates": [[
          [79.242700, 18.141000],
          [79.252700, 18.143000],
          [79.254700, 18.156000],
          [79.245700, 18.159000],
          [79.242700, 18.141000]
        ]]
      }
    },
    {
      "type": "Feature",
      "id": "W-15-007",
      "properties": {
        "ward_number": 7,
        "ward_code": "W-15-007",
        "ward_name": "Zone_15 Municipal Ward 7",
        "population_census": 14450,
        "residential_properties": 3060,
        "commercial_units": 455,
        "sanitation_workers_allocated": 22,
        "nodal_officer": "OFF-ZONE15-WARD7",
        "helpline": "+91-1800-425-1157"
      },
      "geometry": {
        "type": "Polygon",
        "coordinates": [[
          [79.243700, 18.142000],
          [79.253700, 18.144000],
          [79.255700, 18.157000],
          [79.246700, 18.160000],
          [79.243700, 18.142000]
        ]]
      }
    },
    {
      "type": "Feature",
      "id": "W-15-008",
      "properties": {
        "ward_number": 8,
        "ward_code": "W-15-008",
        "ward_name": "Zone_15 Municipal Ward 8",
        "population_census": 14800,
        "residential_properties": 3140,
        "commercial_units": 470,
        "sanitation_workers_allocated": 23,
        "nodal_officer": "OFF-ZONE15-WARD8",
        "helpline": "+91-1800-425-1158"
      },
      "geometry": {
        "type": "Polygon",
        "coordinates": [[
          [79.244700, 18.143000],
          [79.254700, 18.145000],
          [79.256700, 18.158000],
          [79.247700, 18.161000],
          [79.244700, 18.143000]
        ]]
      }
    },
    {
      "type": "Feature",
      "id": "W-15-009",
      "properties": {
        "ward_number": 9,
        "ward_code": "W-15-009",
        "ward_name": "Zone_15 Municipal Ward 9",
        "population_census": 15150,
        "residential_properties": 3220,
        "commercial_units": 485,
        "sanitation_workers_allocated": 24,
        "nodal_officer": "OFF-ZONE15-WARD9",
        "helpline": "+91-1800-425-1159"
      },
      "geometry": {
        "type": "Polygon",
        "coordinates": [[
          [79.245700, 18.144000],
          [79.255700, 18.146000],
          [79.257700, 18.159000],
          [79.248700, 18.162000],
          [79.245700, 18.144000]
        ]]
      }
    },
    {
      "type": "Feature",
      "id": "W-15-010",
      "properties": {
        "ward_number": 10,
        "ward_code": "W-15-010",
        "ward_name": "Zone_15 Municipal Ward 10",
        "population_census": 15500,
        "residential_properties": 3300,
        "commercial_units": 500,
        "sanitation_workers_allocated": 25,
        "nodal_officer": "OFF-ZONE15-WARD10",
        "helpline": "+91-1800-425-1160"
      },
      "geometry": {
        "type": "Polygon",
        "coordinates": [[
          [79.246700, 18.145000],
          [79.256700, 18.147000],
          [79.258700, 18.160000],
          [79.249700, 18.163000],
          [79.246700, 18.145000]
        ]]
      }
    },
    {
      "type": "Feature",
      "id": "W-15-011",
      "properties": {
        "ward_number": 11,
        "ward_code": "W-15-011",
        "ward_name": "Zone_15 Municipal Ward 11",
        "population_census": 15850,
        "residential_properties": 3380,
        "commercial_units": 515,
        "sanitation_workers_allocated": 26,
        "nodal_officer": "OFF-ZONE15-WARD11",
        "helpline": "+91-1800-425-1161"
      },
      "geometry": {
        "type": "Polygon",
        "coordinates": [[
          [79.247700, 18.146000],
          [79.257700, 18.148000],
          [79.259700, 18.161000],
          [79.250700, 18.164000],
          [79.247700, 18.146000]
        ]]
      }
    },
    {
      "type": "Feature",
      "id": "W-15-012",
      "properties": {
        "ward_number": 12,
        "ward_code": "W-15-012",
        "ward_name": "Zone_15 Municipal Ward 12",
        "population_census": 16200,
        "residential_properties": 3460,
        "commercial_units": 530,
        "sanitation_workers_allocated": 27,
        "nodal_officer": "OFF-ZONE15-WARD12",
        "helpline": "+91-1800-425-1162"
      },
      "geometry": {
        "type": "Polygon",
        "coordinates": [[
          [79.248700, 18.147000],
          [79.258700, 18.149000],
          [79.260700, 18.162000],
          [79.251700, 18.165000],
          [79.248700, 18.147000]
        ]]
      }
    },
    {
      "type": "Feature",
      "id": "W-15-013",
      "properties": {
        "ward_number": 13,
        "ward_code": "W-15-013",
        "ward_name": "Zone_15 Municipal Ward 13",
        "population_census": 16550,
        "residential_properties": 3540,
        "commercial_units": 545,
        "sanitation_workers_allocated": 28,
        "nodal_officer": "OFF-ZONE15-WARD13",
        "helpline": "+91-1800-425-1163"
      },
      "geometry": {
        "type": "Polygon",
        "coordinates": [[
          [79.249700, 18.148000],
          [79.259700, 18.150000],
          [79.261700, 18.163000],
          [79.252700, 18.166000],
          [79.249700, 18.148000]
        ]]
      }
    },
    {
      "type": "Feature",
      "id": "W-15-014",
      "properties": {
        "ward_number": 14,
        "ward_code": "W-15-014",
        "ward_name": "Zone_15 Municipal Ward 14",
        "population_census": 16900,
        "residential_properties": 3620,
        "commercial_units": 560,
        "sanitation_workers_allocated": 29,
        "nodal_officer": "OFF-ZONE15-WARD14",
        "helpline": "+91-1800-425-1164"
      },
      "geometry": {
        "type": "Polygon",
        "coordinates": [[
          [79.250700, 18.149000],
          [79.260700, 18.151000],
          [79.262700, 18.164000],
          [79.253700, 18.167000],
          [79.250700, 18.149000]
        ]]
      }
    },
    {
      "type": "Feature",
      "id": "W-15-015",
      "properties": {
        "ward_number": 15,
        "ward_code": "W-15-015",
        "ward_name": "Zone_15 Municipal Ward 15",
        "population_census": 17250,
        "residential_properties": 3700,
        "commercial_units": 575,
        "sanitation_workers_allocated": 30,
        "nodal_officer": "OFF-ZONE15-WARD15",
        "helpline": "+91-1800-425-1165"
      },
      "geometry": {
        "type": "Polygon",
        "coordinates": [[
          [79.251700, 18.150000],
          [79.261700, 18.152000],
          [79.263700, 18.165000],
          [79.254700, 18.168000],
          [79.251700, 18.150000]
        ]]
      }
    },
    {
      "type": "Feature",
      "id": "W-15-016",
      "properties": {
        "ward_number": 16,
        "ward_code": "W-15-016",
        "ward_name": "Zone_15 Municipal Ward 16",
        "population_census": 17600,
        "residential_properties": 3780,
        "commercial_units": 590,
        "sanitation_workers_allocated": 31,
        "nodal_officer": "OFF-ZONE15-WARD16",
        "helpline": "+91-1800-425-1166"
      },
      "geometry": {
        "type": "Polygon",
        "coordinates": [[
          [79.252700, 18.151000],
          [79.262700, 18.153000],
          [79.264700, 18.166000],
          [79.255700, 18.169000],
          [79.252700, 18.151000]
        ]]
      }
    },
    {
      "type": "Feature",
      "id": "W-15-017",
      "properties": {
        "ward_number": 17,
        "ward_code": "W-15-017",
        "ward_name": "Zone_15 Municipal Ward 17",
        "population_census": 17950,
        "residential_properties": 3860,
        "commercial_units": 605,
        "sanitation_workers_allocated": 32,
        "nodal_officer": "OFF-ZONE15-WARD17",
        "helpline": "+91-1800-425-1167"
      },
      "geometry": {
        "type": "Polygon",
        "coordinates": [[
          [79.253700, 18.152000],
          [79.263700, 18.154000],
          [79.265700, 18.167000],
          [79.256700, 18.170000],
          [79.253700, 18.152000]
        ]]
      }
    },
    {
      "type": "Feature",
      "id": "W-15-018",
      "properties": {
        "ward_number": 18,
        "ward_code": "W-15-018",
        "ward_name": "Zone_15 Municipal Ward 18",
        "population_census": 18300,
        "residential_properties": 3940,
        "commercial_units": 620,
        "sanitation_workers_allocated": 33,
        "nodal_officer": "OFF-ZONE15-WARD18",
        "helpline": "+91-1800-425-1168"
      },
      "geometry": {
        "type": "Polygon",
        "coordinates": [[
          [79.254700, 18.153000],
          [79.264700, 18.155000],
          [79.266700, 18.168000],
          [79.257700, 18.171000],
          [79.254700, 18.153000]
        ]]
      }
    },
    {
      "type": "Feature",
      "id": "W-15-019",
      "properties": {
        "ward_number": 19,
        "ward_code": "W-15-019",
        "ward_name": "Zone_15 Municipal Ward 19",
        "population_census": 18650,
        "residential_properties": 4020,
        "commercial_units": 635,
        "sanitation_workers_allocated": 34,
        "nodal_officer": "OFF-ZONE15-WARD19",
        "helpline": "+91-1800-425-1169"
      },
      "geometry": {
        "type": "Polygon",
        "coordinates": [[
          [79.255700, 18.154000],
          [79.265700, 18.156000],
          [79.267700, 18.169000],
          [79.258700, 18.172000],
          [79.255700, 18.154000]
        ]]
      }
    },
    {
      "type": "Feature",
      "id": "W-15-020",
      "properties": {
        "ward_number": 20,
        "ward_code": "W-15-020",
        "ward_name": "Zone_15 Municipal Ward 20",
        "population_census": 19000,
        "residential_properties": 4100,
        "commercial_units": 650,
        "sanitation_workers_allocated": 15,
        "nodal_officer": "OFF-ZONE15-WARD20",
        "helpline": "+91-1800-425-1170"
      },
      "geometry": {
        "type": "Polygon",
        "coordinates": [[
          [79.256700, 18.155000],
          [79.266700, 18.157000],
          [79.268700, 18.170000],
          [79.259700, 18.173000],
          [79.256700, 18.155000]
        ]]
      }
    },
    {
      "type": "Feature",
      "id": "W-15-021",
      "properties": {
        "ward_number": 21,
        "ward_code": "W-15-021",
        "ward_name": "Zone_15 Municipal Ward 21",
        "population_census": 19350,
        "residential_properties": 4180,
        "commercial_units": 665,
        "sanitation_workers_allocated": 16,
        "nodal_officer": "OFF-ZONE15-WARD21",
        "helpline": "+91-1800-425-1171"
      },
      "geometry": {
        "type": "Polygon",
        "coordinates": [[
          [79.257700, 18.156000],
          [79.267700, 18.158000],
          [79.269700, 18.171000],
          [79.260700, 18.174000],
          [79.257700, 18.156000]
        ]]
      }
    },
    {
      "type": "Feature",
      "id": "W-15-022",
      "properties": {
        "ward_number": 22,
        "ward_code": "W-15-022",
        "ward_name": "Zone_15 Municipal Ward 22",
        "population_census": 19700,
        "residential_properties": 4260,
        "commercial_units": 680,
        "sanitation_workers_allocated": 17,
        "nodal_officer": "OFF-ZONE15-WARD22",
        "helpline": "+91-1800-425-1172"
      },
      "geometry": {
        "type": "Polygon",
        "coordinates": [[
          [79.258700, 18.157000],
          [79.268700, 18.159000],
          [79.270700, 18.172000],
          [79.261700, 18.175000],
          [79.258700, 18.157000]
        ]]
      }
    },
    {
      "type": "Feature",
      "id": "W-15-023",
      "properties": {
        "ward_number": 23,
        "ward_code": "W-15-023",
        "ward_name": "Zone_15 Municipal Ward 23",
        "population_census": 20050,
        "residential_properties": 4340,
        "commercial_units": 695,
        "sanitation_workers_allocated": 18,
        "nodal_officer": "OFF-ZONE15-WARD23",
        "helpline": "+91-1800-425-1173"
      },
      "geometry": {
        "type": "Polygon",
        "coordinates": [[
          [79.259700, 18.158000],
          [79.269700, 18.160000],
          [79.271700, 18.173000],
          [79.262700, 18.176000],
          [79.259700, 18.158000]
        ]]
      }
    },
    {
      "type": "Feature",
      "id": "W-15-024",
      "properties": {
        "ward_number": 24,
        "ward_code": "W-15-024",
        "ward_name": "Zone_15 Municipal Ward 24",
        "population_census": 20400,
        "residential_properties": 4420,
        "commercial_units": 710,
        "sanitation_workers_allocated": 19,
        "nodal_officer": "OFF-ZONE15-WARD24",
        "helpline": "+91-1800-425-1174"
      },
      "geometry": {
        "type": "Polygon",
        "coordinates": [[
          [79.260700, 18.159000],
          [79.270700, 18.161000],
          [79.272700, 18.174000],
          [79.263700, 18.177000],
          [79.260700, 18.159000]
        ]]
      }
    },
    {
      "type": "Feature",
      "id": "W-15-025",
      "properties": {
        "ward_number": 25,
        "ward_code": "W-15-025",
        "ward_name": "Zone_15 Municipal Ward 25",
        "population_census": 20750,
        "residential_properties": 4500,
        "commercial_units": 725,
        "sanitation_workers_allocated": 20,
        "nodal_officer": "OFF-ZONE15-WARD25",
        "helpline": "+91-1800-425-1175"
      },
      "geometry": {
        "type": "Polygon",
        "coordinates": [[
          [79.261700, 18.160000],
          [79.271700, 18.162000],
          [79.273700, 18.175000],
          [79.264700, 18.178000],
          [79.261700, 18.160000]
        ]]
      }
    },
    {
      "type": "Feature",
      "id": "W-15-026",
      "properties": {
        "ward_number": 26,
        "ward_code": "W-15-026",
        "ward_name": "Zone_15 Municipal Ward 26",
        "population_census": 21100,
        "residential_properties": 4580,
        "commercial_units": 740,
        "sanitation_workers_allocated": 21,
        "nodal_officer": "OFF-ZONE15-WARD26",
        "helpline": "+91-1800-425-1176"
      },
      "geometry": {
        "type": "Polygon",
        "coordinates": [[
          [79.262700, 18.161000],
          [79.272700, 18.163000],
          [79.274700, 18.176000],
          [79.265700, 18.179000],
          [79.262700, 18.161000]
        ]]
      }
    },
    {
      "type": "Feature",
      "id": "W-15-027",
      "properties": {
        "ward_number": 27,
        "ward_code": "W-15-027",
        "ward_name": "Zone_15 Municipal Ward 27",
        "population_census": 21450,
        "residential_properties": 4660,
        "commercial_units": 755,
        "sanitation_workers_allocated": 22,
        "nodal_officer": "OFF-ZONE15-WARD27",
        "helpline": "+91-1800-425-1177"
      },
      "geometry": {
        "type": "Polygon",
        "coordinates": [[
          [79.263700, 18.162000],
          [79.273700, 18.164000],
          [79.275700, 18.177000],
          [79.266700, 18.180000],
          [79.263700, 18.162000]
        ]]
      }
    },
    {
      "type": "Feature",
      "id": "W-15-028",
      "properties": {
        "ward_number": 28,
        "ward_code": "W-15-028",
        "ward_name": "Zone_15 Municipal Ward 28",
        "population_census": 21800,
        "residential_properties": 4740,
        "commercial_units": 770,
        "sanitation_workers_allocated": 23,
        "nodal_officer": "OFF-ZONE15-WARD28",
        "helpline": "+91-1800-425-1178"
      },
      "geometry": {
        "type": "Polygon",
        "coordinates": [[
          [79.264700, 18.163000],
          [79.274700, 18.165000],
          [79.276700, 18.178000],
          [79.267700, 18.181000],
          [79.264700, 18.163000]
        ]]
      }
    },
    {
      "type": "Feature",
      "id": "W-15-029",
      "properties": {
        "ward_number": 29,
        "ward_code": "W-15-029",
        "ward_name": "Zone_15 Municipal Ward 29",
        "population_census": 22150,
        "residential_properties": 4820,
        "commercial_units": 785,
        "sanitation_workers_allocated": 24,
        "nodal_officer": "OFF-ZONE15-WARD29",
        "helpline": "+91-1800-425-1179"
      },
      "geometry": {
        "type": "Polygon",
        "coordinates": [[
          [79.265700, 18.164000],
          [79.275700, 18.166000],
          [79.277700, 18.179000],
          [79.268700, 18.182000],
          [79.265700, 18.164000]
        ]]
      }
    },
    {
      "type": "Feature",
      "id": "W-15-030",
      "properties": {
        "ward_number": 30,
        "ward_code": "W-15-030",
        "ward_name": "Zone_15 Municipal Ward 30",
        "population_census": 22500,
        "residential_properties": 4900,
        "commercial_units": 800,
        "sanitation_workers_allocated": 25,
        "nodal_officer": "OFF-ZONE15-WARD30",
        "helpline": "+91-1800-425-1180"
      },
      "geometry": {
        "type": "Polygon",
        "coordinates": [[
          [79.266700, 18.165000],
          [79.276700, 18.167000],
          [79.278700, 18.180000],
          [79.269700, 18.183000],
          [79.266700, 18.165000]
        ]]
      }
    },
    {
      "type": "Feature",
      "id": "W-15-031",
      "properties": {
        "ward_number": 31,
        "ward_code": "W-15-031",
        "ward_name": "Zone_15 Municipal Ward 31",
        "population_census": 22850,
        "residential_properties": 4980,
        "commercial_units": 815,
        "sanitation_workers_allocated": 26,
        "nodal_officer": "OFF-ZONE15-WARD31",
        "helpline": "+91-1800-425-1181"
      },
      "geometry": {
        "type": "Polygon",
        "coordinates": [[
          [79.267700, 18.166000],
          [79.277700, 18.168000],
          [79.279700, 18.181000],
          [79.270700, 18.184000],
          [79.267700, 18.166000]
        ]]
      }
    },
    {
      "type": "Feature",
      "id": "W-15-032",
      "properties": {
        "ward_number": 32,
        "ward_code": "W-15-032",
        "ward_name": "Zone_15 Municipal Ward 32",
        "population_census": 23200,
        "residential_properties": 5060,
        "commercial_units": 830,
        "sanitation_workers_allocated": 27,
        "nodal_officer": "OFF-ZONE15-WARD32",
        "helpline": "+91-1800-425-1182"
      },
      "geometry": {
        "type": "Polygon",
        "coordinates": [[
          [79.268700, 18.167000],
          [79.278700, 18.169000],
          [79.280700, 18.182000],
          [79.271700, 18.185000],
          [79.268700, 18.167000]
        ]]
      }
    },
    {
      "type": "Feature",
      "id": "W-15-033",
      "properties": {
        "ward_number": 33,
        "ward_code": "W-15-033",
        "ward_name": "Zone_15 Municipal Ward 33",
        "population_census": 23550,
        "residential_properties": 5140,
        "commercial_units": 845,
        "sanitation_workers_allocated": 28,
        "nodal_officer": "OFF-ZONE15-WARD33",
        "helpline": "+91-1800-425-1183"
      },
      "geometry": {
        "type": "Polygon",
        "coordinates": [[
          [79.269700, 18.168000],
          [79.279700, 18.170000],
          [79.281700, 18.183000],
          [79.272700, 18.186000],
          [79.269700, 18.168000]
        ]]
      }
    },
    {
      "type": "Feature",
      "id": "W-15-034",
      "properties": {
        "ward_number": 34,
        "ward_code": "W-15-034",
        "ward_name": "Zone_15 Municipal Ward 34",
        "population_census": 23900,
        "residential_properties": 5220,
        "commercial_units": 860,
        "sanitation_workers_allocated": 29,
        "nodal_officer": "OFF-ZONE15-WARD34",
        "helpline": "+91-1800-425-1184"
      },
      "geometry": {
        "type": "Polygon",
        "coordinates": [[
          [79.270700, 18.169000],
          [79.280700, 18.171000],
          [79.282700, 18.184000],
          [79.273700, 18.187000],
          [79.270700, 18.169000]
        ]]
      }
    },
    {
      "type": "Feature",
      "id": "W-15-035",
      "properties": {
        "ward_number": 35,
        "ward_code": "W-15-035",
        "ward_name": "Zone_15 Municipal Ward 35",
        "population_census": 24250,
        "residential_properties": 5300,
        "commercial_units": 875,
        "sanitation_workers_allocated": 30,
        "nodal_officer": "OFF-ZONE15-WARD35",
        "helpline": "+91-1800-425-1185"
      },
      "geometry": {
        "type": "Polygon",
        "coordinates": [[
          [79.271700, 18.170000],
          [79.281700, 18.172000],
          [79.283700, 18.185000],
          [79.274700, 18.188000],
          [79.271700, 18.170000]
        ]]
      }
    },
    {
      "type": "Feature",
      "id": "W-15-036",
      "properties": {
        "ward_number": 36,
        "ward_code": "W-15-036",
        "ward_name": "Zone_15 Municipal Ward 36",
        "population_census": 24600,
        "residential_properties": 5380,
        "commercial_units": 890,
        "sanitation_workers_allocated": 31,
        "nodal_officer": "OFF-ZONE15-WARD36",
        "helpline": "+91-1800-425-1186"
      },
      "geometry": {
        "type": "Polygon",
        "coordinates": [[
          [79.272700, 18.171000],
          [79.282700, 18.173000],
          [79.284700, 18.186000],
          [79.275700, 18.189000],
          [79.272700, 18.171000]
        ]]
      }
    },
    {
      "type": "Feature",
      "id": "W-15-037",
      "properties": {
        "ward_number": 37,
        "ward_code": "W-15-037",
        "ward_name": "Zone_15 Municipal Ward 37",
        "population_census": 24950,
        "residential_properties": 5460,
        "commercial_units": 905,
        "sanitation_workers_allocated": 32,
        "nodal_officer": "OFF-ZONE15-WARD37",
        "helpline": "+91-1800-425-1187"
      },
      "geometry": {
        "type": "Polygon",
        "coordinates": [[
          [79.273700, 18.172000],
          [79.283700, 18.174000],
          [79.285700, 18.187000],
          [79.276700, 18.190000],
          [79.273700, 18.172000]
        ]]
      }
    },
    {
      "type": "Feature",
      "id": "W-15-038",
      "properties": {
        "ward_number": 38,
        "ward_code": "W-15-038",
        "ward_name": "Zone_15 Municipal Ward 38",
        "population_census": 25300,
        "residential_properties": 5540,
        "commercial_units": 920,
        "sanitation_workers_allocated": 33,
        "nodal_officer": "OFF-ZONE15-WARD38",
        "helpline": "+91-1800-425-1188"
      },
      "geometry": {
        "type": "Polygon",
        "coordinates": [[
          [79.274700, 18.173000],
          [79.284700, 18.175000],
          [79.286700, 18.188000],
          [79.277700, 18.191000],
          [79.274700, 18.173000]
        ]]
      }
    },
    {
      "type": "Feature",
      "id": "W-15-039",
      "properties": {
        "ward_number": 39,
        "ward_code": "W-15-039",
        "ward_name": "Zone_15 Municipal Ward 39",
        "population_census": 25650,
        "residential_properties": 5620,
        "commercial_units": 935,
        "sanitation_workers_allocated": 34,
        "nodal_officer": "OFF-ZONE15-WARD39",
        "helpline": "+91-1800-425-1189"
      },
      "geometry": {
        "type": "Polygon",
        "coordinates": [[
          [79.275700, 18.174000],
          [79.285700, 18.176000],
          [79.287700, 18.189000],
          [79.278700, 18.192000],
          [79.275700, 18.174000]
        ]]
      }
    },
    {
      "type": "Feature",
      "id": "W-15-040",
      "properties": {
        "ward_number": 40,
        "ward_code": "W-15-040",
        "ward_name": "Zone_15 Municipal Ward 40",
        "population_census": 26000,
        "residential_properties": 5700,
        "commercial_units": 950,
        "sanitation_workers_allocated": 15,
        "nodal_officer": "OFF-ZONE15-WARD40",
        "helpline": "+91-1800-425-1190"
      },
      "geometry": {
        "type": "Polygon",
        "coordinates": [[
          [79.276700, 18.175000],
          [79.286700, 18.177000],
          [79.288700, 18.190000],
          [79.279700, 18.193000],
          [79.276700, 18.175000]
        ]]
      }
    },
    {
      "type": "Feature",
      "id": "W-15-041",
      "properties": {
        "ward_number": 41,
        "ward_code": "W-15-041",
        "ward_name": "Zone_15 Municipal Ward 41",
        "population_census": 26350,
        "residential_properties": 5780,
        "commercial_units": 965,
        "sanitation_workers_allocated": 16,
        "nodal_officer": "OFF-ZONE15-WARD41",
        "helpline": "+91-1800-425-1191"
      },
      "geometry": {
        "type": "Polygon",
        "coordinates": [[
          [79.277700, 18.176000],
          [79.287700, 18.178000],
          [79.289700, 18.191000],
          [79.280700, 18.194000],
          [79.277700, 18.176000]
        ]]
      }
    },
    {
      "type": "Feature",
      "id": "W-15-042",
      "properties": {
        "ward_number": 42,
        "ward_code": "W-15-042",
        "ward_name": "Zone_15 Municipal Ward 42",
        "population_census": 26700,
        "residential_properties": 5860,
        "commercial_units": 980,
        "sanitation_workers_allocated": 17,
        "nodal_officer": "OFF-ZONE15-WARD42",
        "helpline": "+91-1800-425-1192"
      },
      "geometry": {
        "type": "Polygon",
        "coordinates": [[
          [79.278700, 18.177000],
          [79.288700, 18.179000],
          [79.290700, 18.192000],
          [79.281700, 18.195000],
          [79.278700, 18.177000]
        ]]
      }
    },
    {
      "type": "Feature",
      "id": "W-15-043",
      "properties": {
        "ward_number": 43,
        "ward_code": "W-15-043",
        "ward_name": "Zone_15 Municipal Ward 43",
        "population_census": 27050,
        "residential_properties": 5940,
        "commercial_units": 995,
        "sanitation_workers_allocated": 18,
        "nodal_officer": "OFF-ZONE15-WARD43",
        "helpline": "+91-1800-425-1193"
      },
      "geometry": {
        "type": "Polygon",
        "coordinates": [[
          [79.279700, 18.178000],
          [79.289700, 18.180000],
          [79.291700, 18.193000],
          [79.282700, 18.196000],
          [79.279700, 18.178000]
        ]]
      }
    },
    {
      "type": "Feature",
      "id": "W-15-044",
      "properties": {
        "ward_number": 44,
        "ward_code": "W-15-044",
        "ward_name": "Zone_15 Municipal Ward 44",
        "population_census": 27400,
        "residential_properties": 6020,
        "commercial_units": 1010,
        "sanitation_workers_allocated": 19,
        "nodal_officer": "OFF-ZONE15-WARD44",
        "helpline": "+91-1800-425-1194"
      },
      "geometry": {
        "type": "Polygon",
        "coordinates": [[
          [79.280700, 18.179000],
          [79.290700, 18.181000],
          [79.292700, 18.194000],
          [79.283700, 18.197000],
          [79.280700, 18.179000]
        ]]
      }
    },
    {
      "type": "Feature",
      "id": "W-15-045",
      "properties": {
        "ward_number": 45,
        "ward_code": "W-15-045",
        "ward_name": "Zone_15 Municipal Ward 45",
        "population_census": 27750,
        "residential_properties": 6100,
        "commercial_units": 1025,
        "sanitation_workers_allocated": 20,
        "nodal_officer": "OFF-ZONE15-WARD45",
        "helpline": "+91-1800-425-1195"
      },
      "geometry": {
        "type": "Polygon",
        "coordinates": [[
          [79.281700, 18.180000],
          [79.291700, 18.182000],
          [79.293700, 18.195000],
          [79.284700, 18.198000],
          [79.281700, 18.180000]
        ]]
      }
    },
    {
      "type": "Feature",
      "id": "W-15-046",
      "properties": {
        "ward_number": 46,
        "ward_code": "W-15-046",
        "ward_name": "Zone_15 Municipal Ward 46",
        "population_census": 28100,
        "residential_properties": 6180,
        "commercial_units": 1040,
        "sanitation_workers_allocated": 21,
        "nodal_officer": "OFF-ZONE15-WARD46",
        "helpline": "+91-1800-425-1196"
      },
      "geometry": {
        "type": "Polygon",
        "coordinates": [[
          [79.282700, 18.181000],
          [79.292700, 18.183000],
          [79.294700, 18.196000],
          [79.285700, 18.199000],
          [79.282700, 18.181000]
        ]]
      }
    },
    {
      "type": "Feature",
      "id": "W-15-047",
      "properties": {
        "ward_number": 47,
        "ward_code": "W-15-047",
        "ward_name": "Zone_15 Municipal Ward 47",
        "population_census": 28450,
        "residential_properties": 6260,
        "commercial_units": 1055,
        "sanitation_workers_allocated": 22,
        "nodal_officer": "OFF-ZONE15-WARD47",
        "helpline": "+91-1800-425-1197"
      },
      "geometry": {
        "type": "Polygon",
        "coordinates": [[
          [79.283700, 18.182000],
          [79.293700, 18.184000],
          [79.295700, 18.197000],
          [79.286700, 18.200000],
          [79.283700, 18.182000]
        ]]
      }
    },
    {
      "type": "Feature",
      "id": "W-15-048",
      "properties": {
        "ward_number": 48,
        "ward_code": "W-15-048",
        "ward_name": "Zone_15 Municipal Ward 48",
        "population_census": 28800,
        "residential_properties": 6340,
        "commercial_units": 1070,
        "sanitation_workers_allocated": 23,
        "nodal_officer": "OFF-ZONE15-WARD48",
        "helpline": "+91-1800-425-1198"
      },
      "geometry": {
        "type": "Polygon",
        "coordinates": [[
          [79.284700, 18.183000],
          [79.294700, 18.185000],
          [79.296700, 18.198000],
          [79.287700, 18.201000],
          [79.284700, 18.183000]
        ]]
      }
    },
    {
      "type": "Feature",
      "id": "W-15-049",
      "properties": {
        "ward_number": 49,
        "ward_code": "W-15-049",
        "ward_name": "Zone_15 Municipal Ward 49",
        "population_census": 29150,
        "residential_properties": 6420,
        "commercial_units": 1085,
        "sanitation_workers_allocated": 24,
        "nodal_officer": "OFF-ZONE15-WARD49",
        "helpline": "+91-1800-425-1199"
      },
      "geometry": {
        "type": "Polygon",
        "coordinates": [[
          [79.285700, 18.184000],
          [79.295700, 18.186000],
          [79.297700, 18.199000],
          [79.288700, 18.202000],
          [79.285700, 18.184000]
        ]]
      }
    },
    {
      "type": "Feature",
      "id": "W-15-050",
      "properties": {
        "ward_number": 50,
        "ward_code": "W-15-050",
        "ward_name": "Zone_15 Municipal Ward 50",
        "population_census": 29500,
        "residential_properties": 6500,
        "commercial_units": 1100,
        "sanitation_workers_allocated": 25,
        "nodal_officer": "OFF-ZONE15-WARD50",
        "helpline": "+91-1800-425-1200"
      },
      "geometry": {
        "type": "Polygon",
        "coordinates": [[
          [79.286700, 18.185000],
          [79.296700, 18.187000],
          [79.298700, 18.200000],
          [79.289700, 18.203000],
          [79.286700, 18.185000]
        ]]
      }
    },
    {
      "type": "Feature",
      "id": "W-15-051",
      "properties": {
        "ward_number": 51,
        "ward_code": "W-15-051",
        "ward_name": "Zone_15 Municipal Ward 51",
        "population_census": 29850,
        "residential_properties": 6580,
        "commercial_units": 1115,
        "sanitation_workers_allocated": 26,
        "nodal_officer": "OFF-ZONE15-WARD51",
        "helpline": "+91-1800-425-1201"
      },
      "geometry": {
        "type": "Polygon",
        "coordinates": [[
          [79.287700, 18.186000],
          [79.297700, 18.188000],
          [79.299700, 18.201000],
          [79.290700, 18.204000],
          [79.287700, 18.186000]
        ]]
      }
    },
    {
      "type": "Feature",
      "id": "W-15-052",
      "properties": {
        "ward_number": 52,
        "ward_code": "W-15-052",
        "ward_name": "Zone_15 Municipal Ward 52",
        "population_census": 30200,
        "residential_properties": 6660,
        "commercial_units": 1130,
        "sanitation_workers_allocated": 27,
        "nodal_officer": "OFF-ZONE15-WARD52",
        "helpline": "+91-1800-425-1202"
      },
      "geometry": {
        "type": "Polygon",
        "coordinates": [[
          [79.288700, 18.187000],
          [79.298700, 18.189000],
          [79.300700, 18.202000],
          [79.291700, 18.205000],
          [79.288700, 18.187000]
        ]]
      }
    },
    {
      "type": "Feature",
      "id": "W-15-053",
      "properties": {
        "ward_number": 53,
        "ward_code": "W-15-053",
        "ward_name": "Zone_15 Municipal Ward 53",
        "population_census": 30550,
        "residential_properties": 6740,
        "commercial_units": 1145,
        "sanitation_workers_allocated": 28,
        "nodal_officer": "OFF-ZONE15-WARD53",
        "helpline": "+91-1800-425-1203"
      },
      "geometry": {
        "type": "Polygon",
        "coordinates": [[
          [79.289700, 18.188000],
          [79.299700, 18.190000],
          [79.301700, 18.203000],
          [79.292700, 18.206000],
          [79.289700, 18.188000]
        ]]
      }
    },
    {
      "type": "Feature",
      "id": "W-15-054",
      "properties": {
        "ward_number": 54,
        "ward_code": "W-15-054",
        "ward_name": "Zone_15 Municipal Ward 54",
        "population_census": 30900,
        "residential_properties": 6820,
        "commercial_units": 1160,
        "sanitation_workers_allocated": 29,
        "nodal_officer": "OFF-ZONE15-WARD54",
        "helpline": "+91-1800-425-1204"
      },
      "geometry": {
        "type": "Polygon",
        "coordinates": [[
          [79.290700, 18.189000],
          [79.300700, 18.191000],
          [79.302700, 18.204000],
          [79.293700, 18.207000],
          [79.290700, 18.189000]
        ]]
      }
    },
    {
      "type": "Feature",
      "id": "W-15-055",
      "properties": {
        "ward_number": 55,
        "ward_code": "W-15-055",
        "ward_name": "Zone_15 Municipal Ward 55",
        "population_census": 31250,
        "residential_properties": 6900,
        "commercial_units": 1175,
        "sanitation_workers_allocated": 30,
        "nodal_officer": "OFF-ZONE15-WARD55",
        "helpline": "+91-1800-425-1205"
      },
      "geometry": {
        "type": "Polygon",
        "coordinates": [[
          [79.291700, 18.190000],
          [79.301700, 18.192000],
          [79.303700, 18.205000],
          [79.294700, 18.208000],
          [79.291700, 18.190000]
        ]]
      }
    },
    {
      "type": "Feature",
      "id": "W-15-056",
      "properties": {
        "ward_number": 56,
        "ward_code": "W-15-056",
        "ward_name": "Zone_15 Municipal Ward 56",
        "population_census": 31600,
        "residential_properties": 6980,
        "commercial_units": 1190,
        "sanitation_workers_allocated": 31,
        "nodal_officer": "OFF-ZONE15-WARD56",
        "helpline": "+91-1800-425-1206"
      },
      "geometry": {
        "type": "Polygon",
        "coordinates": [[
          [79.292700, 18.191000],
          [79.302700, 18.193000],
          [79.304700, 18.206000],
          [79.295700, 18.209000],
          [79.292700, 18.191000]
        ]]
      }
    },
    {
      "type": "Feature",
      "id": "W-15-057",
      "properties": {
        "ward_number": 57,
        "ward_code": "W-15-057",
        "ward_name": "Zone_15 Municipal Ward 57",
        "population_census": 31950,
        "residential_properties": 7060,
        "commercial_units": 1205,
        "sanitation_workers_allocated": 32,
        "nodal_officer": "OFF-ZONE15-WARD57",
        "helpline": "+91-1800-425-1207"
      },
      "geometry": {
        "type": "Polygon",
        "coordinates": [[
          [79.293700, 18.192000],
          [79.303700, 18.194000],
          [79.305700, 18.207000],
          [79.296700, 18.210000],
          [79.293700, 18.192000]
        ]]
      }
    },
    {
      "type": "Feature",
      "id": "W-15-058",
      "properties": {
        "ward_number": 58,
        "ward_code": "W-15-058",
        "ward_name": "Zone_15 Municipal Ward 58",
        "population_census": 32300,
        "residential_properties": 7140,
        "commercial_units": 1220,
        "sanitation_workers_allocated": 33,
        "nodal_officer": "OFF-ZONE15-WARD58",
        "helpline": "+91-1800-425-1208"
      },
      "geometry": {
        "type": "Polygon",
        "coordinates": [[
          [79.294700, 18.193000],
          [79.304700, 18.195000],
          [79.306700, 18.208000],
          [79.297700, 18.211000],
          [79.294700, 18.193000]
        ]]
      }
    },
    {
      "type": "Feature",
      "id": "W-15-059",
      "properties": {
        "ward_number": 59,
        "ward_code": "W-15-059",
        "ward_name": "Zone_15 Municipal Ward 59",
        "population_census": 32650,
        "residential_properties": 7220,
        "commercial_units": 1235,
        "sanitation_workers_allocated": 34,
        "nodal_officer": "OFF-ZONE15-WARD59",
        "helpline": "+91-1800-425-1209"
      },
      "geometry": {
        "type": "Polygon",
        "coordinates": [[
          [79.295700, 18.194000],
          [79.305700, 18.196000],
          [79.307700, 18.209000],
          [79.298700, 18.212000],
          [79.295700, 18.194000]
        ]]
      }
    },
    {
      "type": "Feature",
      "id": "W-15-060",
      "properties": {
        "ward_number": 60,
        "ward_code": "W-15-060",
        "ward_name": "Zone_15 Municipal Ward 60",
        "population_census": 33000,
        "residential_properties": 7300,
        "commercial_units": 1250,
        "sanitation_workers_allocated": 15,
        "nodal_officer": "OFF-ZONE15-WARD60",
        "helpline": "+91-1800-425-1210"
      },
      "geometry": {
        "type": "Polygon",
        "coordinates": [[
          [79.296700, 18.195000],
          [79.306700, 18.197000],
          [79.308700, 18.210000],
          [79.299700, 18.213000],
          [79.296700, 18.195000]
        ]]
      }
    },
    {
      "type": "Feature",
      "id": "W-15-061",
      "properties": {
        "ward_number": 61,
        "ward_code": "W-15-061",
        "ward_name": "Zone_15 Municipal Ward 61",
        "population_census": 33350,
        "residential_properties": 7380,
        "commercial_units": 1265,
        "sanitation_workers_allocated": 16,
        "nodal_officer": "OFF-ZONE15-WARD61",
        "helpline": "+91-1800-425-1211"
      },
      "geometry": {
        "type": "Polygon",
        "coordinates": [[
          [79.297700, 18.196000],
          [79.307700, 18.198000],
          [79.309700, 18.211000],
          [79.300700, 18.214000],
          [79.297700, 18.196000]
        ]]
      }
    },
    {
      "type": "Feature",
      "id": "W-15-062",
      "properties": {
        "ward_number": 62,
        "ward_code": "W-15-062",
        "ward_name": "Zone_15 Municipal Ward 62",
        "population_census": 33700,
        "residential_properties": 7460,
        "commercial_units": 1280,
        "sanitation_workers_allocated": 17,
        "nodal_officer": "OFF-ZONE15-WARD62",
        "helpline": "+91-1800-425-1212"
      },
      "geometry": {
        "type": "Polygon",
        "coordinates": [[
          [79.298700, 18.197000],
          [79.308700, 18.199000],
          [79.310700, 18.212000],
          [79.301700, 18.215000],
          [79.298700, 18.197000]
        ]]
      }
    },
    {
      "type": "Feature",
      "id": "W-15-063",
      "properties": {
        "ward_number": 63,
        "ward_code": "W-15-063",
        "ward_name": "Zone_15 Municipal Ward 63",
        "population_census": 34050,
        "residential_properties": 7540,
        "commercial_units": 1295,
        "sanitation_workers_allocated": 18,
        "nodal_officer": "OFF-ZONE15-WARD63",
        "helpline": "+91-1800-425-1213"
      },
      "geometry": {
        "type": "Polygon",
        "coordinates": [[
          [79.299700, 18.198000],
          [79.309700, 18.200000],
          [79.311700, 18.213000],
          [79.302700, 18.216000],
          [79.299700, 18.198000]
        ]]
      }
    },
    {
      "type": "Feature",
      "id": "W-15-064",
      "properties": {
        "ward_number": 64,
        "ward_code": "W-15-064",
        "ward_name": "Zone_15 Municipal Ward 64",
        "population_census": 34400,
        "residential_properties": 7620,
        "commercial_units": 1310,
        "sanitation_workers_allocated": 19,
        "nodal_officer": "OFF-ZONE15-WARD64",
        "helpline": "+91-1800-425-1214"
      },
      "geometry": {
        "type": "Polygon",
        "coordinates": [[
          [79.300700, 18.199000],
          [79.310700, 18.201000],
          [79.312700, 18.214000],
          [79.303700, 18.217000],
          [79.300700, 18.199000]
        ]]
      }
    },
    {
      "type": "Feature",
      "id": "W-15-065",
      "properties": {
        "ward_number": 65,
        "ward_code": "W-15-065",
        "ward_name": "Zone_15 Municipal Ward 65",
        "population_census": 34750,
        "residential_properties": 7700,
        "commercial_units": 1325,
        "sanitation_workers_allocated": 20,
        "nodal_officer": "OFF-ZONE15-WARD65",
        "helpline": "+91-1800-425-1215"
      },
      "geometry": {
        "type": "Polygon",
        "coordinates": [[
          [79.301700, 18.200000],
          [79.311700, 18.202000],
          [79.313700, 18.215000],
          [79.304700, 18.218000],
          [79.301700, 18.200000]
        ]]
      }
    },
    {
      "type": "Feature",
      "id": "W-15-066",
      "properties": {
        "ward_number": 66,
        "ward_code": "W-15-066",
        "ward_name": "Zone_15 Municipal Ward 66",
        "population_census": 35100,
        "residential_properties": 7780,
        "commercial_units": 1340,
        "sanitation_workers_allocated": 21,
        "nodal_officer": "OFF-ZONE15-WARD66",
        "helpline": "+91-1800-425-1216"
      },
      "geometry": {
        "type": "Polygon",
        "coordinates": [[
          [79.302700, 18.201000],
          [79.312700, 18.203000],
          [79.314700, 18.216000],
          [79.305700, 18.219000],
          [79.302700, 18.201000]
        ]]
      }
    },
    {
      "type": "Feature",
      "id": "W-15-067",
      "properties": {
        "ward_number": 67,
        "ward_code": "W-15-067",
        "ward_name": "Zone_15 Municipal Ward 67",
        "population_census": 35450,
        "residential_properties": 7860,
        "commercial_units": 1355,
        "sanitation_workers_allocated": 22,
        "nodal_officer": "OFF-ZONE15-WARD67",
        "helpline": "+91-1800-425-1217"
      },
      "geometry": {
        "type": "Polygon",
        "coordinates": [[
          [79.303700, 18.202000],
          [79.313700, 18.204000],
          [79.315700, 18.217000],
          [79.306700, 18.220000],
          [79.303700, 18.202000]
        ]]
      }
    },
    {
      "type": "Feature",
      "id": "W-15-068",
      "properties": {
        "ward_number": 68,
        "ward_code": "W-15-068",
        "ward_name": "Zone_15 Municipal Ward 68",
        "population_census": 35800,
        "residential_properties": 7940,
        "commercial_units": 1370,
        "sanitation_workers_allocated": 23,
        "nodal_officer": "OFF-ZONE15-WARD68",
        "helpline": "+91-1800-425-1218"
      },
      "geometry": {
        "type": "Polygon",
        "coordinates": [[
          [79.304700, 18.203000],
          [79.314700, 18.205000],
          [79.316700, 18.218000],
          [79.307700, 18.221000],
          [79.304700, 18.203000]
        ]]
      }
    },
    {
      "type": "Feature",
      "id": "W-15-069",
      "properties": {
        "ward_number": 69,
        "ward_code": "W-15-069",
        "ward_name": "Zone_15 Municipal Ward 69",
        "population_census": 36150,
        "residential_properties": 8020,
        "commercial_units": 1385,
        "sanitation_workers_allocated": 24,
        "nodal_officer": "OFF-ZONE15-WARD69",
        "helpline": "+91-1800-425-1219"
      },
      "geometry": {
        "type": "Polygon",
        "coordinates": [[
          [79.305700, 18.204000],
          [79.315700, 18.206000],
          [79.317700, 18.219000],
          [79.308700, 18.222000],
          [79.305700, 18.204000]
        ]]
      }
    },
    {
      "type": "Feature",
      "id": "W-15-070",
      "properties": {
        "ward_number": 70,
        "ward_code": "W-15-070",
        "ward_name": "Zone_15 Municipal Ward 70",
        "population_census": 36500,
        "residential_properties": 8100,
        "commercial_units": 1400,
        "sanitation_workers_allocated": 25,
        "nodal_officer": "OFF-ZONE15-WARD70",
        "helpline": "+91-1800-425-1220"
      },
      "geometry": {
        "type": "Polygon",
        "coordinates": [[
          [79.306700, 18.205000],
          [79.316700, 18.207000],
          [79.318700, 18.220000],
          [79.309700, 18.223000],
          [79.306700, 18.205000]
        ]]
      }
    },
    {
      "type": "Feature",
      "id": "W-15-071",
      "properties": {
        "ward_number": 71,
        "ward_code": "W-15-071",
        "ward_name": "Zone_15 Municipal Ward 71",
        "population_census": 36850,
        "residential_properties": 8180,
        "commercial_units": 1415,
        "sanitation_workers_allocated": 26,
        "nodal_officer": "OFF-ZONE15-WARD71",
        "helpline": "+91-1800-425-1221"
      },
      "geometry": {
        "type": "Polygon",
        "coordinates": [[
          [79.307700, 18.206000],
          [79.317700, 18.208000],
          [79.319700, 18.221000],
          [79.310700, 18.224000],
          [79.307700, 18.206000]
        ]]
      }
    },
    {
      "type": "Feature",
      "id": "W-15-072",
      "properties": {
        "ward_number": 72,
        "ward_code": "W-15-072",
        "ward_name": "Zone_15 Municipal Ward 72",
        "population_census": 37200,
        "residential_properties": 8260,
        "commercial_units": 1430,
        "sanitation_workers_allocated": 27,
        "nodal_officer": "OFF-ZONE15-WARD72",
        "helpline": "+91-1800-425-1222"
      },
      "geometry": {
        "type": "Polygon",
        "coordinates": [[
          [79.308700, 18.207000],
          [79.318700, 18.209000],
          [79.320700, 18.222000],
          [79.311700, 18.225000],
          [79.308700, 18.207000]
        ]]
      }
    },
    {
      "type": "Feature",
      "id": "W-15-073",
      "properties": {
        "ward_number": 73,
        "ward_code": "W-15-073",
        "ward_name": "Zone_15 Municipal Ward 73",
        "population_census": 37550,
        "residential_properties": 8340,
        "commercial_units": 1445,
        "sanitation_workers_allocated": 28,
        "nodal_officer": "OFF-ZONE15-WARD73",
        "helpline": "+91-1800-425-1223"
      },
      "geometry": {
        "type": "Polygon",
        "coordinates": [[
          [79.309700, 18.208000],
          [79.319700, 18.210000],
          [79.321700, 18.223000],
          [79.312700, 18.226000],
          [79.309700, 18.208000]
        ]]
      }
    },
    {
      "type": "Feature",
      "id": "W-15-074",
      "properties": {
        "ward_number": 74,
        "ward_code": "W-15-074",
        "ward_name": "Zone_15 Municipal Ward 74",
        "population_census": 37900,
        "residential_properties": 8420,
        "commercial_units": 1460,
        "sanitation_workers_allocated": 29,
        "nodal_officer": "OFF-ZONE15-WARD74",
        "helpline": "+91-1800-425-1224"
      },
      "geometry": {
        "type": "Polygon",
        "coordinates": [[
          [79.310700, 18.209000],
          [79.320700, 18.211000],
          [79.322700, 18.224000],
          [79.313700, 18.227000],
          [79.310700, 18.209000]
        ]]
      }
    },
    {
      "type": "Feature",
      "id": "W-15-075",
      "properties": {
        "ward_number": 75,
        "ward_code": "W-15-075",
        "ward_name": "Zone_15 Municipal Ward 75",
        "population_census": 38250,
        "residential_properties": 8500,
        "commercial_units": 1475,
        "sanitation_workers_allocated": 30,
        "nodal_officer": "OFF-ZONE15-WARD75",
        "helpline": "+91-1800-425-1225"
      },
      "geometry": {
        "type": "Polygon",
        "coordinates": [[
          [79.311700, 18.210000],
          [79.321700, 18.212000],
          [79.323700, 18.225000],
          [79.314700, 18.228000],
          [79.311700, 18.210000]
        ]]
      }
    },
    {
      "type": "Feature",
      "id": "W-15-076",
      "properties": {
        "ward_number": 76,
        "ward_code": "W-15-076",
        "ward_name": "Zone_15 Municipal Ward 76",
        "population_census": 38600,
        "residential_properties": 8580,
        "commercial_units": 1490,
        "sanitation_workers_allocated": 31,
        "nodal_officer": "OFF-ZONE15-WARD76",
        "helpline": "+91-1800-425-1226"
      },
      "geometry": {
        "type": "Polygon",
        "coordinates": [[
          [79.312700, 18.211000],
          [79.322700, 18.213000],
          [79.324700, 18.226000],
          [79.315700, 18.229000],
          [79.312700, 18.211000]
        ]]
      }
    },
    {
      "type": "Feature",
      "id": "W-15-077",
      "properties": {
        "ward_number": 77,
        "ward_code": "W-15-077",
        "ward_name": "Zone_15 Municipal Ward 77",
        "population_census": 38950,
        "residential_properties": 8660,
        "commercial_units": 1505,
        "sanitation_workers_allocated": 32,
        "nodal_officer": "OFF-ZONE15-WARD77",
        "helpline": "+91-1800-425-1227"
      },
      "geometry": {
        "type": "Polygon",
        "coordinates": [[
          [79.313700, 18.212000],
          [79.323700, 18.214000],
          [79.325700, 18.227000],
          [79.316700, 18.230000],
          [79.313700, 18.212000]
        ]]
      }
    },
    {
      "type": "Feature",
      "id": "W-15-078",
      "properties": {
        "ward_number": 78,
        "ward_code": "W-15-078",
        "ward_name": "Zone_15 Municipal Ward 78",
        "population_census": 39300,
        "residential_properties": 8740,
        "commercial_units": 1520,
        "sanitation_workers_allocated": 33,
        "nodal_officer": "OFF-ZONE15-WARD78",
        "helpline": "+91-1800-425-1228"
      },
      "geometry": {
        "type": "Polygon",
        "coordinates": [[
          [79.314700, 18.213000],
          [79.324700, 18.215000],
          [79.326700, 18.228000],
          [79.317700, 18.231000],
          [79.314700, 18.213000]
        ]]
      }
    },
    {
      "type": "Feature",
      "id": "W-15-079",
      "properties": {
        "ward_number": 79,
        "ward_code": "W-15-079",
        "ward_name": "Zone_15 Municipal Ward 79",
        "population_census": 39650,
        "residential_properties": 8820,
        "commercial_units": 1535,
        "sanitation_workers_allocated": 34,
        "nodal_officer": "OFF-ZONE15-WARD79",
        "helpline": "+91-1800-425-1229"
      },
      "geometry": {
        "type": "Polygon",
        "coordinates": [[
          [79.315700, 18.214000],
          [79.325700, 18.216000],
          [79.327700, 18.229000],
          [79.318700, 18.232000],
          [79.315700, 18.214000]
        ]]
      }
    },
    {
      "type": "Feature",
      "id": "W-15-080",
      "properties": {
        "ward_number": 80,
        "ward_code": "W-15-080",
        "ward_name": "Zone_15 Municipal Ward 80",
        "population_census": 40000,
        "residential_properties": 8900,
        "commercial_units": 1550,
        "sanitation_workers_allocated": 15,
        "nodal_officer": "OFF-ZONE15-WARD80",
        "helpline": "+91-1800-425-1230"
      },
      "geometry": {
        "type": "Polygon",
        "coordinates": [[
          [79.316700, 18.215000],
          [79.326700, 18.217000],
          [79.328700, 18.230000],
          [79.319700, 18.233000],
          [79.316700, 18.215000]
        ]]
      }
    },
    {
      "type": "Feature",
      "id": "W-15-081",
      "properties": {
        "ward_number": 81,
        "ward_code": "W-15-081",
        "ward_name": "Zone_15 Municipal Ward 81",
        "population_census": 40350,
        "residential_properties": 8980,
        "commercial_units": 1565,
        "sanitation_workers_allocated": 16,
        "nodal_officer": "OFF-ZONE15-WARD81",
        "helpline": "+91-1800-425-1231"
      },
      "geometry": {
        "type": "Polygon",
        "coordinates": [[
          [79.317700, 18.216000],
          [79.327700, 18.218000],
          [79.329700, 18.231000],
          [79.320700, 18.234000],
          [79.317700, 18.216000]
        ]]
      }
    },
    {
      "type": "Feature",
      "id": "W-15-082",
      "properties": {
        "ward_number": 82,
        "ward_code": "W-15-082",
        "ward_name": "Zone_15 Municipal Ward 82",
        "population_census": 40700,
        "residential_properties": 9060,
        "commercial_units": 1580,
        "sanitation_workers_allocated": 17,
        "nodal_officer": "OFF-ZONE15-WARD82",
        "helpline": "+91-1800-425-1232"
      },
      "geometry": {
        "type": "Polygon",
        "coordinates": [[
          [79.318700, 18.217000],
          [79.328700, 18.219000],
          [79.330700, 18.232000],
          [79.321700, 18.235000],
          [79.318700, 18.217000]
        ]]
      }
    },
    {
      "type": "Feature",
      "id": "W-15-083",
      "properties": {
        "ward_number": 83,
        "ward_code": "W-15-083",
        "ward_name": "Zone_15 Municipal Ward 83",
        "population_census": 41050,
        "residential_properties": 9140,
        "commercial_units": 1595,
        "sanitation_workers_allocated": 18,
        "nodal_officer": "OFF-ZONE15-WARD83",
        "helpline": "+91-1800-425-1233"
      },
      "geometry": {
        "type": "Polygon",
        "coordinates": [[
          [79.319700, 18.218000],
          [79.329700, 18.220000],
          [79.331700, 18.233000],
          [79.322700, 18.236000],
          [79.319700, 18.218000]
        ]]
      }
    },
    {
      "type": "Feature",
      "id": "W-15-084",
      "properties": {
        "ward_number": 84,
        "ward_code": "W-15-084",
        "ward_name": "Zone_15 Municipal Ward 84",
        "population_census": 41400,
        "residential_properties": 9220,
        "commercial_units": 1610,
        "sanitation_workers_allocated": 19,
        "nodal_officer": "OFF-ZONE15-WARD84",
        "helpline": "+91-1800-425-1234"
      },
      "geometry": {
        "type": "Polygon",
        "coordinates": [[
          [79.320700, 18.219000],
          [79.330700, 18.221000],
          [79.332700, 18.234000],
          [79.323700, 18.237000],
          [79.320700, 18.219000]
        ]]
      }
    },
    {
      "type": "Feature",
      "id": "W-15-085",
      "properties": {
        "ward_number": 85,
        "ward_code": "W-15-085",
        "ward_name": "Zone_15 Municipal Ward 85",
        "population_census": 41750,
        "residential_properties": 9300,
        "commercial_units": 1625,
        "sanitation_workers_allocated": 20,
        "nodal_officer": "OFF-ZONE15-WARD85",
        "helpline": "+91-1800-425-1235"
      },
      "geometry": {
        "type": "Polygon",
        "coordinates": [[
          [79.321700, 18.220000],
          [79.331700, 18.222000],
          [79.333700, 18.235000],
          [79.324700, 18.238000],
          [79.321700, 18.220000]
        ]]
      }
    },
    {
      "type": "Feature",
      "id": "W-15-086",
      "properties": {
        "ward_number": 86,
        "ward_code": "W-15-086",
        "ward_name": "Zone_15 Municipal Ward 86",
        "population_census": 42100,
        "residential_properties": 9380,
        "commercial_units": 1640,
        "sanitation_workers_allocated": 21,
        "nodal_officer": "OFF-ZONE15-WARD86",
        "helpline": "+91-1800-425-1236"
      },
      "geometry": {
        "type": "Polygon",
        "coordinates": [[
          [79.322700, 18.221000],
          [79.332700, 18.223000],
          [79.334700, 18.236000],
          [79.325700, 18.239000],
          [79.322700, 18.221000]
        ]]
      }
    },
    {
      "type": "Feature",
      "id": "W-15-087",
      "properties": {
        "ward_number": 87,
        "ward_code": "W-15-087",
        "ward_name": "Zone_15 Municipal Ward 87",
        "population_census": 42450,
        "residential_properties": 9460,
        "commercial_units": 1655,
        "sanitation_workers_allocated": 22,
        "nodal_officer": "OFF-ZONE15-WARD87",
        "helpline": "+91-1800-425-1237"
      },
      "geometry": {
        "type": "Polygon",
        "coordinates": [[
          [79.323700, 18.222000],
          [79.333700, 18.224000],
          [79.335700, 18.237000],
          [79.326700, 18.240000],
          [79.323700, 18.222000]
        ]]
      }
    },
    {
      "type": "Feature",
      "id": "W-15-088",
      "properties": {
        "ward_number": 88,
        "ward_code": "W-15-088",
        "ward_name": "Zone_15 Municipal Ward 88",
        "population_census": 42800,
        "residential_properties": 9540,
        "commercial_units": 1670,
        "sanitation_workers_allocated": 23,
        "nodal_officer": "OFF-ZONE15-WARD88",
        "helpline": "+91-1800-425-1238"
      },
      "geometry": {
        "type": "Polygon",
        "coordinates": [[
          [79.324700, 18.223000],
          [79.334700, 18.225000],
          [79.336700, 18.238000],
          [79.327700, 18.241000],
          [79.324700, 18.223000]
        ]]
      }
    },
    {
      "type": "Feature",
      "id": "W-15-089",
      "properties": {
        "ward_number": 89,
        "ward_code": "W-15-089",
        "ward_name": "Zone_15 Municipal Ward 89",
        "population_census": 43150,
        "residential_properties": 9620,
        "commercial_units": 1685,
        "sanitation_workers_allocated": 24,
        "nodal_officer": "OFF-ZONE15-WARD89",
        "helpline": "+91-1800-425-1239"
      },
      "geometry": {
        "type": "Polygon",
        "coordinates": [[
          [79.325700, 18.224000],
          [79.335700, 18.226000],
          [79.337700, 18.239000],
          [79.328700, 18.242000],
          [79.325700, 18.224000]
        ]]
      }
    },
    {
      "type": "Feature",
      "id": "W-15-090",
      "properties": {
        "ward_number": 90,
        "ward_code": "W-15-090",
        "ward_name": "Zone_15 Municipal Ward 90",
        "population_census": 43500,
        "residential_properties": 9700,
        "commercial_units": 1700,
        "sanitation_workers_allocated": 25,
        "nodal_officer": "OFF-ZONE15-WARD90",
        "helpline": "+91-1800-425-1240"
      },
      "geometry": {
        "type": "Polygon",
        "coordinates": [[
          [79.326700, 18.225000],
          [79.336700, 18.227000],
          [79.338700, 18.240000],
          [79.329700, 18.243000],
          [79.326700, 18.225000]
        ]]
      }
    },
    {
      "type": "Feature",
      "id": "W-15-091",
      "properties": {
        "ward_number": 91,
        "ward_code": "W-15-091",
        "ward_name": "Zone_15 Municipal Ward 91",
        "population_census": 43850,
        "residential_properties": 9780,
        "commercial_units": 1715,
        "sanitation_workers_allocated": 26,
        "nodal_officer": "OFF-ZONE15-WARD91",
        "helpline": "+91-1800-425-1241"
      },
      "geometry": {
        "type": "Polygon",
        "coordinates": [[
          [79.327700, 18.226000],
          [79.337700, 18.228000],
          [79.339700, 18.241000],
          [79.330700, 18.244000],
          [79.327700, 18.226000]
        ]]
      }
    },
    {
      "type": "Feature",
      "id": "W-15-092",
      "properties": {
        "ward_number": 92,
        "ward_code": "W-15-092",
        "ward_name": "Zone_15 Municipal Ward 92",
        "population_census": 44200,
        "residential_properties": 9860,
        "commercial_units": 1730,
        "sanitation_workers_allocated": 27,
        "nodal_officer": "OFF-ZONE15-WARD92",
        "helpline": "+91-1800-425-1242"
      },
      "geometry": {
        "type": "Polygon",
        "coordinates": [[
          [79.328700, 18.227000],
          [79.338700, 18.229000],
          [79.340700, 18.242000],
          [79.331700, 18.245000],
          [79.328700, 18.227000]
        ]]
      }
    },
    {
      "type": "Feature",
      "id": "W-15-093",
      "properties": {
        "ward_number": 93,
        "ward_code": "W-15-093",
        "ward_name": "Zone_15 Municipal Ward 93",
        "population_census": 44550,
        "residential_properties": 9940,
        "commercial_units": 1745,
        "sanitation_workers_allocated": 28,
        "nodal_officer": "OFF-ZONE15-WARD93",
        "helpline": "+91-1800-425-1243"
      },
      "geometry": {
        "type": "Polygon",
        "coordinates": [[
          [79.329700, 18.228000],
          [79.339700, 18.230000],
          [79.341700, 18.243000],
          [79.332700, 18.246000],
          [79.329700, 18.228000]
        ]]
      }
    },
    {
      "type": "Feature",
      "id": "W-15-094",
      "properties": {
        "ward_number": 94,
        "ward_code": "W-15-094",
        "ward_name": "Zone_15 Municipal Ward 94",
        "population_census": 44900,
        "residential_properties": 10020,
        "commercial_units": 1760,
        "sanitation_workers_allocated": 29,
        "nodal_officer": "OFF-ZONE15-WARD94",
        "helpline": "+91-1800-425-1244"
      },
      "geometry": {
        "type": "Polygon",
        "coordinates": [[
          [79.330700, 18.229000],
          [79.340700, 18.231000],
          [79.342700, 18.244000],
          [79.333700, 18.247000],
          [79.330700, 18.229000]
        ]]
      }
    },
    {
      "type": "Feature",
      "id": "W-15-095",
      "properties": {
        "ward_number": 95,
        "ward_code": "W-15-095",
        "ward_name": "Zone_15 Municipal Ward 95",
        "population_census": 45250,
        "residential_properties": 10100,
        "commercial_units": 1775,
        "sanitation_workers_allocated": 30,
        "nodal_officer": "OFF-ZONE15-WARD95",
        "helpline": "+91-1800-425-1245"
      },
      "geometry": {
        "type": "Polygon",
        "coordinates": [[
          [79.331700, 18.230000],
          [79.341700, 18.232000],
          [79.343700, 18.245000],
          [79.334700, 18.248000],
          [79.331700, 18.230000]
        ]]
      }
    },
    {
      "type": "Feature",
      "id": "W-15-096",
      "properties": {
        "ward_number": 96,
        "ward_code": "W-15-096",
        "ward_name": "Zone_15 Municipal Ward 96",
        "population_census": 45600,
        "residential_properties": 10180,
        "commercial_units": 1790,
        "sanitation_workers_allocated": 31,
        "nodal_officer": "OFF-ZONE15-WARD96",
        "helpline": "+91-1800-425-1246"
      },
      "geometry": {
        "type": "Polygon",
        "coordinates": [[
          [79.332700, 18.231000],
          [79.342700, 18.233000],
          [79.344700, 18.246000],
          [79.335700, 18.249000],
          [79.332700, 18.231000]
        ]]
      }
    },
    {
      "type": "Feature",
      "id": "W-15-097",
      "properties": {
        "ward_number": 97,
        "ward_code": "W-15-097",
        "ward_name": "Zone_15 Municipal Ward 97",
        "population_census": 45950,
        "residential_properties": 10260,
        "commercial_units": 1805,
        "sanitation_workers_allocated": 32,
        "nodal_officer": "OFF-ZONE15-WARD97",
        "helpline": "+91-1800-425-1247"
      },
      "geometry": {
        "type": "Polygon",
        "coordinates": [[
          [79.333700, 18.232000],
          [79.343700, 18.234000],
          [79.345700, 18.247000],
          [79.336700, 18.250000],
          [79.333700, 18.232000]
        ]]
      }
    },
    {
      "type": "Feature",
      "id": "W-15-098",
      "properties": {
        "ward_number": 98,
        "ward_code": "W-15-098",
        "ward_name": "Zone_15 Municipal Ward 98",
        "population_census": 46300,
        "residential_properties": 10340,
        "commercial_units": 1820,
        "sanitation_workers_allocated": 33,
        "nodal_officer": "OFF-ZONE15-WARD98",
        "helpline": "+91-1800-425-1248"
      },
      "geometry": {
        "type": "Polygon",
        "coordinates": [[
          [79.334700, 18.233000],
          [79.344700, 18.235000],
          [79.346700, 18.248000],
          [79.337700, 18.251000],
          [79.334700, 18.233000]
        ]]
      }
    },
    {
      "type": "Feature",
      "id": "W-15-099",
      "properties": {
        "ward_number": 99,
        "ward_code": "W-15-099",
        "ward_name": "Zone_15 Municipal Ward 99",
        "population_census": 46650,
        "residential_properties": 10420,
        "commercial_units": 1835,
        "sanitation_workers_allocated": 34,
        "nodal_officer": "OFF-ZONE15-WARD99",
        "helpline": "+91-1800-425-1249"
      },
      "geometry": {
        "type": "Polygon",
        "coordinates": [[
          [79.335700, 18.234000],
          [79.345700, 18.236000],
          [79.347700, 18.249000],
          [79.338700, 18.252000],
          [79.335700, 18.234000]
        ]]
      }
    },
    {
      "type": "Feature",
      "id": "W-15-100",
      "properties": {
        "ward_number": 100,
        "ward_code": "W-15-100",
        "ward_name": "Zone_15 Municipal Ward 100",
        "population_census": 47000,
        "residential_properties": 10500,
        "commercial_units": 1850,
        "sanitation_workers_allocated": 15,
        "nodal_officer": "OFF-ZONE15-WARD100",
        "helpline": "+91-1800-425-1250"
      },
      "geometry": {
        "type": "Polygon",
        "coordinates": [[
          [79.336700, 18.235000],
          [79.346700, 18.237000],
          [79.348700, 18.250000],
          [79.339700, 18.253000],
          [79.336700, 18.235000]
        ]]
      }
    }
  }
}