{
  "type": "FeatureCollection",
  "zone": "Zone_05",
  "crs": { "type": "name", "properties": { "name": "urn:ogc:def:crs:OGC:1.3:CRS84" } },
  "features": [
    {
      "type": "Feature",
      "id": "W-05-001",
      "properties": {
        "ward_number": 1,
        "ward_code": "W-05-001",
        "ward_name": "Zone_05 Municipal Ward 1",
        "population_census": 12350,
        "residential_properties": 2580,
        "commercial_units": 365,
        "sanitation_workers_allocated": 16,
        "nodal_officer": "OFF-ZONE5-WARD1",
        "helpline": "+91-1800-425-1051"
      },
      "geometry": {
        "type": "Polygon",
        "coordinates": [[
          [78.737700, 17.636000],
          [78.747700, 17.638000],
          [78.749700, 17.651000],
          [78.740700, 17.654000],
          [78.737700, 17.636000]
        ]]
      }
    },
    {
      "type": "Feature",
      "id": "W-05-002",
      "properties": {
        "ward_number": 2,
        "ward_code": "W-05-002",
        "ward_name": "Zone_05 Municipal Ward 2",
        "population_census": 12700,
        "residential_properties": 2660,
        "commercial_units": 380,
        "sanitation_workers_allocated": 17,
        "nodal_officer": "OFF-ZONE5-WARD2",
        "helpline": "+91-1800-425-1052"
      },
      "geometry": {
        "type": "Polygon",
        "coordinates": [[
          [78.738700, 17.637000],
          [78.748700, 17.639000],
          [78.750700, 17.652000],
          [78.741700, 17.655000],
          [78.738700, 17.637000]
        ]]
      }
    },
    {
      "type": "Feature",
      "id": "W-05-003",
      "properties": {
        "ward_number": 3,
        "ward_code": "W-05-003",
        "ward_name": "Zone_05 Municipal Ward 3",
        "population_census": 13050,
        "residential_properties": 2740,
        "commercial_units": 395,
        "sanitation_workers_allocated": 18,
        "nodal_officer": "OFF-ZONE5-WARD3",
        "helpline": "+91-1800-425-1053"
      },
      "geometry": {
        "type": "Polygon",
        "coordinates": [[
          [78.739700, 17.638000],
          [78.749700, 17.640000],
          [78.751700, 17.653000],
          [78.742700, 17.656000],
          [78.739700, 17.638000]
        ]]
      }
    },
    {
      "type": "Feature",
      "id": "W-05-004",
      "properties": {
        "ward_number": 4,
        "ward_code": "W-05-004",
        "ward_name": "Zone_05 Municipal Ward 4",
        "population_census": 13400,
        "residential_properties": 2820,
        "commercial_units": 410,
        "sanitation_workers_allocated": 19,
        "nodal_officer": "OFF-ZONE5-WARD4",
        "helpline": "+91-1800-425-1054"
      },
      "geometry": {
        "type": "Polygon",
        "coordinates": [[
          [78.740700, 17.639000],
          [78.750700, 17.641000],
          [78.752700, 17.654000],
          [78.743700, 17.657000],
          [78.740700, 17.639000]
        ]]
      }
    },
    {
      "type": "Feature",
      "id": "W-05-005",
      "properties": {
        "ward_number": 5,
        "ward_code": "W-05-005",
        "ward_name": "Zone_05 Municipal Ward 5",
        "population_census": 13750,
        "residential_properties": 2900,
        "commercial_units": 425,
        "sanitation_workers_allocated": 20,
        "nodal_officer": "OFF-ZONE5-WARD5",
        "helpline": "+91-1800-425-1055"
      },
      "geometry": {
        "type": "Polygon",
        "coordinates": [[
          [78.741700, 17.640000],
          [78.751700, 17.642000],
          [78.753700, 17.655000],
          [78.744700, 17.658000],
          [78.741700, 17.640000]
        ]]
      }
    },
    {
      "type": "Feature",
      "id": "W-05-006",
      "properties": {
        "ward_number": 6,
        "ward_code": "W-05-006",
        "ward_name": "Zone_05 Municipal Ward 6",
        "population_census": 14100,
        "residential_properties": 2980,
        "commercial_units": 440,
        "sanitation_workers_allocated": 21,
        "nodal_officer": "OFF-ZONE5-WARD6",
        "helpline": "+91-1800-425-1056"
      },
      "geometry": {
        "type": "Polygon",
        "coordinates": [[
          [78.742700, 17.641000],
          [78.752700, 17.643000],
          [78.754700, 17.656000],
          [78.745700, 17.659000],
          [78.742700, 17.641000]
        ]]
      }
    },
    {
      "type": "Feature",
      "id": "W-05-007",
      "properties": {
        "ward_number": 7,
        "ward_code": "W-05-007",
        "ward_name": "Zone_05 Municipal Ward 7",
        "population_census": 14450,
        "residential_properties": 3060,
        "commercial_units": 455,
        "sanitation_workers_allocated": 22,
        "nodal_officer": "OFF-ZONE5-WARD7",
        "helpline": "+91-1800-425-1057"
      },
      "geometry": {
        "type": "Polygon",
        "coordinates": [[
          [78.743700, 17.642000],
          [78.753700, 17.644000],
          [78.755700, 17.657000],
          [78.746700, 17.660000],
          [78.743700, 17.642000]
        ]]
      }
    },
    {
      "type": "Feature",
      "id": "W-05-008",
      "properties": {
        "ward_number": 8,
        "ward_code": "W-05-008",
        "ward_name": "Zone_05 Municipal Ward 8",
        "population_census": 14800,
        "residential_properties": 3140,
        "commercial_units": 470,
        "sanitation_workers_allocated": 23,
        "nodal_officer": "OFF-ZONE5-WARD8",
        "helpline": "+91-1800-425-1058"
      },
      "geometry": {
        "type": "Polygon",
        "coordinates": [[
          [78.744700, 17.643000],
          [78.754700, 17.645000],
          [78.756700, 17.658000],
          [78.747700, 17.661000],
          [78.744700, 17.643000]
        ]]
      }
    },
    {
      "type": "Feature",
      "id": "W-05-009",
      "properties": {
        "ward_number": 9,
        "ward_code": "W-05-009",
        "ward_name": "Zone_05 Municipal Ward 9",
        "population_census": 15150,
        "residential_properties": 3220,
        "commercial_units": 485,
        "sanitation_workers_allocated": 24,
        "nodal_officer": "OFF-ZONE5-WARD9",
        "helpline": "+91-1800-425-1059"
      },
      "geometry": {
        "type": "Polygon",
        "coordinates": [[
          [78.745700, 17.644000],
          [78.755700, 17.646000],
          [78.757700, 17.659000],
          [78.748700, 17.662000],
          [78.745700, 17.644000]
        ]]
      }
    },
    {
      "type": "Feature",
      "id": "W-05-010",
      "properties": {
        "ward_number": 10,
        "ward_code": "W-05-010",
        "ward_name": "Zone_05 Municipal Ward 10",
        "population_census": 15500,
        "residential_properties": 3300,
        "commercial_units": 500,
        "sanitation_workers_allocated": 25,
        "nodal_officer": "OFF-ZONE5-WARD10",
        "helpline": "+91-1800-425-1060"
      },
      "geometry": {
        "type": "Polygon",
        "coordinates": [[
          [78.746700, 17.645000],
          [78.756700, 17.647000],
          [78.758700, 17.660000],
          [78.749700, 17.663000],
          [78.746700, 17.645000]
        ]]
      }
    },
    {
      "type": "Feature",
      "id": "W-05-011",
      "properties": {
        "ward_number": 11,
        "ward_code": "W-05-011",
        "ward_name": "Zone_05 Municipal Ward 11",
        "population_census": 15850,
        "residential_properties": 3380,
        "commercial_units": 515,
        "sanitation_workers_allocated": 26,
        "nodal_officer": "OFF-ZONE5-WARD11",
        "helpline": "+91-1800-425-1061"
      },
      "geometry": {
        "type": "Polygon",
        "coordinates": [[
          [78.747700, 17.646000],
          [78.757700, 17.648000],
          [78.759700, 17.661000],
          [78.750700, 17.664000],
          [78.747700, 17.646000]
        ]]
      }
    },
    {
      "type": "Feature",
      "id": "W-05-012",
      "properties": {
        "ward_number": 12,
        "ward_code": "W-05-012",
        "ward_name": "Zone_05 Municipal Ward 12",
        "population_census": 16200,
        "residential_properties": 3460,
        "commercial_units": 530,
        "sanitation_workers_allocated": 27,
        "nodal_officer": "OFF-ZONE5-WARD12",
        "helpline": "+91-1800-425-1062"
      },
      "geometry": {
        "type": "Polygon",
        "coordinates": [[
          [78.748700, 17.647000],
          [78.758700, 17.649000],
          [78.760700, 17.662000],
          [78.751700, 17.665000],
          [78.748700, 17.647000]
        ]]
      }
    },
    {
      "type": "Feature",
      "id": "W-05-013",
      "properties": {
        "ward_number": 13,
        "ward_code": "W-05-013",
        "ward_name": "Zone_05 Municipal Ward 13",
        "population_census": 16550,
        "residential_properties": 3540,
        "commercial_units": 545,
        "sanitation_workers_allocated": 28,
        "nodal_officer": "OFF-ZONE5-WARD13",
        "helpline": "+91-1800-425-1063"
      },
      "geometry": {
        "type": "Polygon",
        "coordinates": [[
          [78.749700, 17.648000],
          [78.759700, 17.650000],
          [78.761700, 17.663000],
          [78.752700, 17.666000],
          [78.749700, 17.648000]
        ]]
      }
    },
    {
      "type": "Feature",
      "id": "W-05-014",
      "properties": {
        "ward_number": 14,
        "ward_code": "W-05-014",
        "ward_name": "Zone_05 Municipal Ward 14",
        "population_census": 16900,
        "residential_properties": 3620,
        "commercial_units": 560,
        "sanitation_workers_allocated": 29,
        "nodal_officer": "OFF-ZONE5-WARD14",
        "helpline": "+91-1800-425-1064"
      },
      "geometry": {
        "type": "Polygon",
        "coordinates": [[
          [78.750700, 17.649000],
          [78.760700, 17.651000],
          [78.762700, 17.664000],
          [78.753700, 17.667000],
          [78.750700, 17.649000]
        ]]
      }
    },
    {
      "type": "Feature",
      "id": "W-05-015",
      "properties": {
        "ward_number": 15,
        "ward_code": "W-05-015",
        "ward_name": "Zone_05 Municipal Ward 15",
        "population_census": 17250,
        "residential_properties": 3700,
        "commercial_units": 575,
        "sanitation_workers_allocated": 30,
        "nodal_officer": "OFF-ZONE5-WARD15",
        "helpline": "+91-1800-425-1065"
      },
      "geometry": {
        "type": "Polygon",
        "coordinates": [[
          [78.751700, 17.650000],
          [78.761700, 17.652000],
          [78.763700, 17.665000],
          [78.754700, 17.668000],
          [78.751700, 17.650000]
        ]]
      }
    },
    {
      "type": "Feature",
      "id": "W-05-016",
      "properties": {
        "ward_number": 16,
        "ward_code": "W-05-016",
        "ward_name": "Zone_05 Municipal Ward 16",
        "population_census": 17600,
        "residential_properties": 3780,
        "commercial_units": 590,
        "sanitation_workers_allocated": 31,
        "nodal_officer": "OFF-ZONE5-WARD16",
        "helpline": "+91-1800-425-1066"
      },
      "geometry": {
        "type": "Polygon",
        "coordinates": [[
          [78.752700, 17.651000],
          [78.762700, 17.653000],
          [78.764700, 17.666000],
          [78.755700, 17.669000],
          [78.752700, 17.651000]
        ]]
      }
    },
    {
      "type": "Feature",
      "id": "W-05-017",
      "properties": {
        "ward_number": 17,
        "ward_code": "W-05-017",
        "ward_name": "Zone_05 Municipal Ward 17",
        "population_census": 17950,
        "residential_properties": 3860,
        "commercial_units": 605,
        "sanitation_workers_allocated": 32,
        "nodal_officer": "OFF-ZONE5-WARD17",
        "helpline": "+91-1800-425-1067"
      },
      "geometry": {
        "type": "Polygon",
        "coordinates": [[
          [78.753700, 17.652000],
          [78.763700, 17.654000],
          [78.765700, 17.667000],
          [78.756700, 17.670000],
          [78.753700, 17.652000]
        ]]
      }
    },
    {
      "type": "Feature",
      "id": "W-05-018",
      "properties": {
        "ward_number": 18,
        "ward_code": "W-05-018",
        "ward_name": "Zone_05 Municipal Ward 18",
        "population_census": 18300,
        "residential_properties": 3940,
        "commercial_units": 620,
        "sanitation_workers_allocated": 33,
        "nodal_officer": "OFF-ZONE5-WARD18",
        "helpline": "+91-1800-425-1068"
      },
      "geometry": {
        "type": "Polygon",
        "coordinates": [[
          [78.754700, 17.653000],
          [78.764700, 17.655000],
          [78.766700, 17.668000],
          [78.757700, 17.671000],
          [78.754700, 17.653000]
        ]]
      }
    },
    {
      "type": "Feature",
      "id": "W-05-019",
      "properties": {
        "ward_number": 19,
        "ward_code": "W-05-019",
        "ward_name": "Zone_05 Municipal Ward 19",
        "population_census": 18650,
        "residential_properties": 4020,
        "commercial_units": 635,
        "sanitation_workers_allocated": 34,
        "nodal_officer": "OFF-ZONE5-WARD19",
        "helpline": "+91-1800-425-1069"
      },
      "geometry": {
        "type": "Polygon",
        "coordinates": [[
          [78.755700, 17.654000],
          [78.765700, 17.656000],
          [78.767700, 17.669000],
          [78.758700, 17.672000],
          [78.755700, 17.654000]
        ]]
      }
    },
    {
      "type": "Feature",
      "id": "W-05-020",
      "properties": {
        "ward_number": 20,
        "ward_code": "W-05-020",
        "ward_name": "Zone_05 Municipal Ward 20",
        "population_census": 19000,
        "residential_properties": 4100,
        "commercial_units": 650,
        "sanitation_workers_allocated": 15,
        "nodal_officer": "OFF-ZONE5-WARD20",
        "helpline": "+91-1800-425-1070"
      },
      "geometry": {
        "type": "Polygon",
        "coordinates": [[
          [78.756700, 17.655000],
          [78.766700, 17.657000],
          [78.768700, 17.670000],
          [78.759700, 17.673000],
          [78.756700, 17.655000]
        ]]
      }
    },
    {
      "type": "Feature",
      "id": "W-05-021",
      "properties": {
        "ward_number": 21,
        "ward_code": "W-05-021",
        "ward_name": "Zone_05 Municipal Ward 21",
        "population_census": 19350,
        "residential_properties": 4180,
        "commercial_units": 665,
        "sanitation_workers_allocated": 16,
        "nodal_officer": "OFF-ZONE5-WARD21",
        "helpline": "+91-1800-425-1071"
      },
      "geometry": {
        "type": "Polygon",
        "coordinates": [[
          [78.757700, 17.656000],
          [78.767700, 17.658000],
          [78.769700, 17.671000],
          [78.760700, 17.674000],
          [78.757700, 17.656000]
        ]]
      }
    },
    {
      "type": "Feature",
      "id": "W-05-022",
      "properties": {
        "ward_number": 22,
        "ward_code": "W-05-022",
        "ward_name": "Zone_05 Municipal Ward 22",
        "population_census": 19700,
        "residential_properties": 4260,
        "commercial_units": 680,
        "sanitation_workers_allocated": 17,
        "nodal_officer": "OFF-ZONE5-WARD22",
        "helpline": "+91-1800-425-1072"
      },
      "geometry": {
        "type": "Polygon",
        "coordinates": [[
          [78.758700, 17.657000],
          [78.768700, 17.659000],
          [78.770700, 17.672000],
          [78.761700, 17.675000],
          [78.758700, 17.657000]
        ]]
      }
    },
    {
      "type": "Feature",
      "id": "W-05-023",
      "properties": {
        "ward_number": 23,
        "ward_code": "W-05-023",
        "ward_name": "Zone_05 Municipal Ward 23",
        "population_census": 20050,
        "residential_properties": 4340,
        "commercial_units": 695,
        "sanitation_workers_allocated": 18,
        "nodal_officer": "OFF-ZONE5-WARD23",
        "helpline": "+91-1800-425-1073"
      },
      "geometry": {
        "type": "Polygon",
        "coordinates": [[
          [78.759700, 17.658000],
          [78.769700, 17.660000],
          [78.771700, 17.673000],
          [78.762700, 17.676000],
          [78.759700, 17.658000]
        ]]
      }
    },
    {
      "type": "Feature",
      "id": "W-05-024",
      "properties": {
        "ward_number": 24,
        "ward_code": "W-05-024",
        "ward_name": "Zone_05 Municipal Ward 24",
        "population_census": 20400,
        "residential_properties": 4420,
        "commercial_units": 710,
        "sanitation_workers_allocated": 19,
        "nodal_officer": "OFF-ZONE5-WARD24",
        "helpline": "+91-1800-425-1074"
      },
      "geometry": {
        "type": "Polygon",
        "coordinates": [[
          [78.760700, 17.659000],
          [78.770700, 17.661000],
          [78.772700, 17.674000],
          [78.763700, 17.677000],
          [78.760700, 17.659000]
        ]]
      }
    },
    {
      "type": "Feature",
      "id": "W-05-025",
      "properties": {
        "ward_number": 25,
        "ward_code": "W-05-025",
        "ward_name": "Zone_05 Municipal Ward 25",
        "population_census": 20750,
        "residential_properties": 4500,
        "commercial_units": 725,
        "sanitation_workers_allocated": 20,
        "nodal_officer": "OFF-ZONE5-WARD25",
        "helpline": "+91-1800-425-1075"
      },
      "geometry": {
        "type": "Polygon",
        "coordinates": [[
          [78.761700, 17.660000],
          [78.771700, 17.662000],
          [78.773700, 17.675000],
          [78.764700, 17.678000],
          [78.761700, 17.660000]
        ]]
      }
    },
    {
      "type": "Feature",
      "id": "W-05-026",
      "properties": {
        "ward_number": 26,
        "ward_code": "W-05-026",
        "ward_name": "Zone_05 Municipal Ward 26",
        "population_census": 21100,
        "residential_properties": 4580,
        "commercial_units": 740,
        "sanitation_workers_allocated": 21,
        "nodal_officer": "OFF-ZONE5-WARD26",
        "helpline": "+91-1800-425-1076"
      },
      "geometry": {
        "type": "Polygon",
        "coordinates": [[
          [78.762700, 17.661000],
          [78.772700, 17.663000],
          [78.774700, 17.676000],
          [78.765700, 17.679000],
          [78.762700, 17.661000]
        ]]
      }
    },
    {
      "type": "Feature",
      "id": "W-05-027",
      "properties": {
        "ward_number": 27,
        "ward_code": "W-05-027",
        "ward_name": "Zone_05 Municipal Ward 27",
        "population_census": 21450,
        "residential_properties": 4660,
        "commercial_units": 755,
        "sanitation_workers_allocated": 22,
        "nodal_officer": "OFF-ZONE5-WARD27",
        "helpline": "+91-1800-425-1077"
      },
      "geometry": {
        "type": "Polygon",
        "coordinates": [[
          [78.763700, 17.662000],
          [78.773700, 17.664000],
          [78.775700, 17.677000],
          [78.766700, 17.680000],
          [78.763700, 17.662000]
        ]]
      }
    },
    {
      "type": "Feature",
      "id": "W-05-028",
      "properties": {
        "ward_number": 28,
        "ward_code": "W-05-028",
        "ward_name": "Zone_05 Municipal Ward 28",
        "population_census": 21800,
        "residential_properties": 4740,
        "commercial_units": 770,
        "sanitation_workers_allocated": 23,
        "nodal_officer": "OFF-ZONE5-WARD28",
        "helpline": "+91-1800-425-1078"
      },
      "geometry": {
        "type": "Polygon",
        "coordinates": [[
          [78.764700, 17.663000],
          [78.774700, 17.665000],
          [78.776700, 17.678000],
          [78.767700, 17.681000],
          [78.764700, 17.663000]
        ]]
      }
    },
    {
      "type": "Feature",
      "id": "W-05-029",
      "properties": {
        "ward_number": 29,
        "ward_code": "W-05-029",
        "ward_name": "Zone_05 Municipal Ward 29",
        "population_census": 22150,
        "residential_properties": 4820,
        "commercial_units": 785,
        "sanitation_workers_allocated": 24,
        "nodal_officer": "OFF-ZONE5-WARD29",
        "helpline": "+91-1800-425-1079"
      },
      "geometry": {
        "type": "Polygon",
        "coordinates": [[
          [78.765700, 17.664000],
          [78.775700, 17.666000],
          [78.777700, 17.679000],
          [78.768700, 17.682000],
          [78.765700, 17.664000]
        ]]
      }
    },
    {
      "type": "Feature",
      "id": "W-05-030",
      "properties": {
        "ward_number": 30,
        "ward_code": "W-05-030",
        "ward_name": "Zone_05 Municipal Ward 30",
        "population_census": 22500,
        "residential_properties": 4900,
        "commercial_units": 800,
        "sanitation_workers_allocated": 25,
        "nodal_officer": "OFF-ZONE5-WARD30",
        "helpline": "+91-1800-425-1080"
      },
      "geometry": {
        "type": "Polygon",
        "coordinates": [[
          [78.766700, 17.665000],
          [78.776700, 17.667000],
          [78.778700, 17.680000],
          [78.769700, 17.683000],
          [78.766700, 17.665000]
        ]]
      }
    },
    {
      "type": "Feature",
      "id": "W-05-031",
      "properties": {
        "ward_number": 31,
        "ward_code": "W-05-031",
        "ward_name": "Zone_05 Municipal Ward 31",
        "population_census": 22850,
        "residential_properties": 4980,
        "commercial_units": 815,
        "sanitation_workers_allocated": 26,
        "nodal_officer": "OFF-ZONE5-WARD31",
        "helpline": "+91-1800-425-1081"
      },
      "geometry": {
        "type": "Polygon",
        "coordinates": [[
          [78.767700, 17.666000],
          [78.777700, 17.668000],
          [78.779700, 17.681000],
          [78.770700, 17.684000],
          [78.767700, 17.666000]
        ]]
      }
    },
    {
      "type": "Feature",
      "id": "W-05-032",
      "properties": {
        "ward_number": 32,
        "ward_code": "W-05-032",
        "ward_name": "Zone_05 Municipal Ward 32",
        "population_census": 23200,
        "residential_properties": 5060,
        "commercial_units": 830,
        "sanitation_workers_allocated": 27,
        "nodal_officer": "OFF-ZONE5-WARD32",
        "helpline": "+91-1800-425-1082"
      },
      "geometry": {
        "type": "Polygon",
        "coordinates": [[
          [78.768700, 17.667000],
          [78.778700, 17.669000],
          [78.780700, 17.682000],
          [78.771700, 17.685000],
          [78.768700, 17.667000]
        ]]
      }
    },
    {
      "type": "Feature",
      "id": "W-05-033",
      "properties": {
        "ward_number": 33,
        "ward_code": "W-05-033",
        "ward_name": "Zone_05 Municipal Ward 33",
        "population_census": 23550,
        "residential_properties": 5140,
        "commercial_units": 845,
        "sanitation_workers_allocated": 28,
        "nodal_officer": "OFF-ZONE5-WARD33",
        "helpline": "+91-1800-425-1083"
      },
      "geometry": {
        "type": "Polygon",
        "coordinates": [[
          [78.769700, 17.668000],
          [78.779700, 17.670000],
          [78.781700, 17.683000],
          [78.772700, 17.686000],
          [78.769700, 17.668000]
        ]]
      }
    },
    {
      "type": "Feature",
      "id": "W-05-034",
      "properties": {
        "ward_number": 34,
        "ward_code": "W-05-034",
        "ward_name": "Zone_05 Municipal Ward 34",
        "population_census": 23900,
        "residential_properties": 5220,
        "commercial_units": 860,
        "sanitation_workers_allocated": 29,
        "nodal_officer": "OFF-ZONE5-WARD34",
        "helpline": "+91-1800-425-1084"
      },
      "geometry": {
        "type": "Polygon",
        "coordinates": [[
          [78.770700, 17.669000],
          [78.780700, 17.671000],
          [78.782700, 17.684000],
          [78.773700, 17.687000],
          [78.770700, 17.669000]
        ]]
      }
    },
    {
      "type": "Feature",
      "id": "W-05-035",
      "properties": {
        "ward_number": 35,
        "ward_code": "W-05-035",
        "ward_name": "Zone_05 Municipal Ward 35",
        "population_census": 24250,
        "residential_properties": 5300,
        "commercial_units": 875,
        "sanitation_workers_allocated": 30,
        "nodal_officer": "OFF-ZONE5-WARD35",
        "helpline": "+91-1800-425-1085"
      },
      "geometry": {
        "type": "Polygon",
        "coordinates": [[
          [78.771700, 17.670000],
          [78.781700, 17.672000],
          [78.783700, 17.685000],
          [78.774700, 17.688000],
          [78.771700, 17.670000]
        ]]
      }
    },
    {
      "type": "Feature",
      "id": "W-05-036",
      "properties": {
        "ward_number": 36,
        "ward_code": "W-05-036",
        "ward_name": "Zone_05 Municipal Ward 36",
        "population_census": 24600,
        "residential_properties": 5380,
        "commercial_units": 890,
        "sanitation_workers_allocated": 31,
        "nodal_officer": "OFF-ZONE5-WARD36",
        "helpline": "+91-1800-425-1086"
      },
      "geometry": {
        "type": "Polygon",
        "coordinates": [[
          [78.772700, 17.671000],
          [78.782700, 17.673000],
          [78.784700, 17.686000],
          [78.775700, 17.689000],
          [78.772700, 17.671000]
        ]]
      }
    },
    {
      "type": "Feature",
      "id": "W-05-037",
      "properties": {
        "ward_number": 37,
        "ward_code": "W-05-037",
        "ward_name": "Zone_05 Municipal Ward 37",
        "population_census": 24950,
        "residential_properties": 5460,
        "commercial_units": 905,
        "sanitation_workers_allocated": 32,
        "nodal_officer": "OFF-ZONE5-WARD37",
        "helpline": "+91-1800-425-1087"
      },
      "geometry": {
        "type": "Polygon",
        "coordinates": [[
          [78.773700, 17.672000],
          [78.783700, 17.674000],
          [78.785700, 17.687000],
          [78.776700, 17.690000],
          [78.773700, 17.672000]
        ]]
      }
    },
    {
      "type": "Feature",
      "id": "W-05-038",
      "properties": {
        "ward_number": 38,
        "ward_code": "W-05-038",
        "ward_name": "Zone_05 Municipal Ward 38",
        "population_census": 25300,
        "residential_properties": 5540,
        "commercial_units": 920,
        "sanitation_workers_allocated": 33,
        "nodal_officer": "OFF-ZONE5-WARD38",
        "helpline": "+91-1800-425-1088"
      },
      "geometry": {
        "type": "Polygon",
        "coordinates": [[
          [78.774700, 17.673000],
          [78.784700, 17.675000],
          [78.786700, 17.688000],
          [78.777700, 17.691000],
          [78.774700, 17.673000]
        ]]
      }
    },
    {
      "type": "Feature",
      "id": "W-05-039",
      "properties": {
        "ward_number": 39,
        "ward_code": "W-05-039",
        "ward_name": "Zone_05 Municipal Ward 39",
        "population_census": 25650,
        "residential_properties": 5620,
        "commercial_units": 935,
        "sanitation_workers_allocated": 34,
        "nodal_officer": "OFF-ZONE5-WARD39",
        "helpline": "+91-1800-425-1089"
      },
      "geometry": {
        "type": "Polygon",
        "coordinates": [[
          [78.775700, 17.674000],
          [78.785700, 17.676000],
          [78.787700, 17.689000],
          [78.778700, 17.692000],
          [78.775700, 17.674000]
        ]]
      }
    },
    {
      "type": "Feature",
      "id": "W-05-040",
      "properties": {
        "ward_number": 40,
        "ward_code": "W-05-040",
        "ward_name": "Zone_05 Municipal Ward 40",
        "population_census": 26000,
        "residential_properties": 5700,
        "commercial_units": 950,
        "sanitation_workers_allocated": 15,
        "nodal_officer": "OFF-ZONE5-WARD40",
        "helpline": "+91-1800-425-1090"
      },
      "geometry": {
        "type": "Polygon",
        "coordinates": [[
          [78.776700, 17.675000],
          [78.786700, 17.677000],
          [78.788700, 17.690000],
          [78.779700, 17.693000],
          [78.776700, 17.675000]
        ]]
      }
    },
    {
      "type": "Feature",
      "id": "W-05-041",
      "properties": {
        "ward_number": 41,
        "ward_code": "W-05-041",
        "ward_name": "Zone_05 Municipal Ward 41",
        "population_census": 26350,
        "residential_properties": 5780,
        "commercial_units": 965,
        "sanitation_workers_allocated": 16,
        "nodal_officer": "OFF-ZONE5-WARD41",
        "helpline": "+91-1800-425-1091"
      },
      "geometry": {
        "type": "Polygon",
        "coordinates": [[
          [78.777700, 17.676000],
          [78.787700, 17.678000],
          [78.789700, 17.691000],
          [78.780700, 17.694000],
          [78.777700, 17.676000]
        ]]
      }
    },
    {
      "type": "Feature",
      "id": "W-05-042",
      "properties": {
        "ward_number": 42,
        "ward_code": "W-05-042",
        "ward_name": "Zone_05 Municipal Ward 42",
        "population_census": 26700,
        "residential_properties": 5860,
        "commercial_units": 980,
        "sanitation_workers_allocated": 17,
        "nodal_officer": "OFF-ZONE5-WARD42",
        "helpline": "+91-1800-425-1092"
      },
      "geometry": {
        "type": "Polygon",
        "coordinates": [[
          [78.778700, 17.677000],
          [78.788700, 17.679000],
          [78.790700, 17.692000],
          [78.781700, 17.695000],
          [78.778700, 17.677000]
        ]]
      }
    },
    {
      "type": "Feature",
      "id": "W-05-043",
      "properties": {
        "ward_number": 43,
        "ward_code": "W-05-043",
        "ward_name": "Zone_05 Municipal Ward 43",
        "population_census": 27050,
        "residential_properties": 5940,
        "commercial_units": 995,
        "sanitation_workers_allocated": 18,
        "nodal_officer": "OFF-ZONE5-WARD43",
        "helpline": "+91-1800-425-1093"
      },
      "geometry": {
        "type": "Polygon",
        "coordinates": [[
          [78.779700, 17.678000],
          [78.789700, 17.680000],
          [78.791700, 17.693000],
          [78.782700, 17.696000],
          [78.779700, 17.678000]
        ]]
      }
    },
    {
      "type": "Feature",
      "id": "W-05-044",
      "properties": {
        "ward_number": 44,
        "ward_code": "W-05-044",
        "ward_name": "Zone_05 Municipal Ward 44",
        "population_census": 27400,
        "residential_properties": 6020,
        "commercial_units": 1010,
        "sanitation_workers_allocated": 19,
        "nodal_officer": "OFF-ZONE5-WARD44",
        "helpline": "+91-1800-425-1094"
      },
      "geometry": {
        "type": "Polygon",
        "coordinates": [[
          [78.780700, 17.679000],
          [78.790700, 17.681000],
          [78.792700, 17.694000],
          [78.783700, 17.697000],
          [78.780700, 17.679000]
        ]]
      }
    },
    {
      "type": "Feature",
      "id": "W-05-045",
      "properties": {
        "ward_number": 45,
        "ward_code": "W-05-045",
        "ward_name": "Zone_05 Municipal Ward 45",
        "population_census": 27750,
        "residential_properties": 6100,
        "commercial_units": 1025,
        "sanitation_workers_allocated": 20,
        "nodal_officer": "OFF-ZONE5-WARD45",
        "helpline": "+91-1800-425-1095"
      },
      "geometry": {
        "type": "Polygon",
        "coordinates": [[
          [78.781700, 17.680000],
          [78.791700, 17.682000],
          [78.793700, 17.695000],
          [78.784700, 17.698000],
          [78.781700, 17.680000]
        ]]
      }
    },
    {
      "type": "Feature",
      "id": "W-05-046",
      "properties": {
        "ward_number": 46,
        "ward_code": "W-05-046",
        "ward_name": "Zone_05 Municipal Ward 46",
        "population_census": 28100,
        "residential_properties": 6180,
        "commercial_units": 1040,
        "sanitation_workers_allocated": 21,
        "nodal_officer": "OFF-ZONE5-WARD46",
        "helpline": "+91-1800-425-1096"
      },
      "geometry": {
        "type": "Polygon",
        "coordinates": [[
          [78.782700, 17.681000],
          [78.792700, 17.683000],
          [78.794700, 17.696000],
          [78.785700, 17.699000],
          [78.782700, 17.681000]
        ]]
      }
    },
    {
      "type": "Feature",
      "id": "W-05-047",
      "properties": {
        "ward_number": 47,
        "ward_code": "W-05-047",
        "ward_name": "Zone_05 Municipal Ward 47",
        "population_census": 28450,
        "residential_properties": 6260,
        "commercial_units": 1055,
        "sanitation_workers_allocated": 22,
        "nodal_officer": "OFF-ZONE5-WARD47",
        "helpline": "+91-1800-425-1097"
      },
      "geometry": {
        "type": "Polygon",
        "coordinates": [[
          [78.783700, 17.682000],
          [78.793700, 17.684000],
          [78.795700, 17.697000],
          [78.786700, 17.700000],
          [78.783700, 17.682000]
        ]]
      }
    },
    {
      "type": "Feature",
      "id": "W-05-048",
      "properties": {
        "ward_number": 48,
        "ward_code": "W-05-048",
        "ward_name": "Zone_05 Municipal Ward 48",
        "population_census": 28800,
        "residential_properties": 6340,
        "commercial_units": 1070,
        "sanitation_workers_allocated": 23,
        "nodal_officer": "OFF-ZONE5-WARD48",
        "helpline": "+91-1800-425-1098"
      },
      "geometry": {
        "type": "Polygon",
        "coordinates": [[
          [78.784700, 17.683000],
          [78.794700, 17.685000],
          [78.796700, 17.698000],
          [78.787700, 17.701000],
          [78.784700, 17.683000]
        ]]
      }
    },
    {
      "type": "Feature",
      "id": "W-05-049",
      "properties": {
        "ward_number": 49,
        "ward_code": "W-05-049",
        "ward_name": "Zone_05 Municipal Ward 49",
        "population_census": 29150,
        "residential_properties": 6420,
        "commercial_units": 1085,
        "sanitation_workers_allocated": 24,
        "nodal_officer": "OFF-ZONE5-WARD49",
        "helpline": "+91-1800-425-1099"
      },
      "geometry": {
        "type": "Polygon",
        "coordinates": [[
          [78.785700, 17.684000],
          [78.795700, 17.686000],
          [78.797700, 17.699000],
          [78.788700, 17.702000],
          [78.785700, 17.684000]
        ]]
      }
    },
    {
      "type": "Feature",
      "id": "W-05-050",
      "properties": {
        "ward_number": 50,
        "ward_code": "W-05-050",
        "ward_name": "Zone_05 Municipal Ward 50",
        "population_census": 29500,
        "residential_properties": 6500,
        "commercial_units": 1100,
        "sanitation_workers_allocated": 25,
        "nodal_officer": "OFF-ZONE5-WARD50",
        "helpline": "+91-1800-425-1100"
      },
      "geometry": {
        "type": "Polygon",
        "coordinates": [[
          [78.786700, 17.685000],
          [78.796700, 17.687000],
          [78.798700, 17.700000],
          [78.789700, 17.703000],
          [78.786700, 17.685000]
        ]]
      }
    },
    {
      "type": "Feature",
      "id": "W-05-051",
      "properties": {
        "ward_number": 51,
        "ward_code": "W-05-051",
        "ward_name": "Zone_05 Municipal Ward 51",
        "population_census": 29850,
        "residential_properties": 6580,
        "commercial_units": 1115,
        "sanitation_workers_allocated": 26,
        "nodal_officer": "OFF-ZONE5-WARD51",
        "helpline": "+91-1800-425-1101"
      },
      "geometry": {
        "type": "Polygon",
        "coordinates": [[
          [78.787700, 17.686000],
          [78.797700, 17.688000],
          [78.799700, 17.701000],
          [78.790700, 17.704000],
          [78.787700, 17.686000]
        ]]
      }
    },
    {
      "type": "Feature",
      "id": "W-05-052",
      "properties": {
        "ward_number": 52,
        "ward_code": "W-05-052",
        "ward_name": "Zone_05 Municipal Ward 52",
        "population_census": 30200,
        "residential_properties": 6660,
        "commercial_units": 1130,
        "sanitation_workers_allocated": 27,
        "nodal_officer": "OFF-ZONE5-WARD52",
        "helpline": "+91-1800-425-1102"
      },
      "geometry": {
        "type": "Polygon",
        "coordinates": [[
          [78.788700, 17.687000],
          [78.798700, 17.689000],
          [78.800700, 17.702000],
          [78.791700, 17.705000],
          [78.788700, 17.687000]
        ]]
      }
    },
    {
      "type": "Feature",
      "id": "W-05-053",
      "properties": {
        "ward_number": 53,
        "ward_code": "W-05-053",
        "ward_name": "Zone_05 Municipal Ward 53",
        "population_census": 30550,
        "residential_properties": 6740,
        "commercial_units": 1145,
        "sanitation_workers_allocated": 28,
        "nodal_officer": "OFF-ZONE5-WARD53",
        "helpline": "+91-1800-425-1103"
      },
      "geometry": {
        "type": "Polygon",
        "coordinates": [[
          [78.789700, 17.688000],
          [78.799700, 17.690000],
          [78.801700, 17.703000],
          [78.792700, 17.706000],
          [78.789700, 17.688000]
        ]]
      }
    },
    {
      "type": "Feature",
      "id": "W-05-054",
      "properties": {
        "ward_number": 54,
        "ward_code": "W-05-054",
        "ward_name": "Zone_05 Municipal Ward 54",
        "population_census": 30900,
        "residential_properties": 6820,
        "commercial_units": 1160,
        "sanitation_workers_allocated": 29,
        "nodal_officer": "OFF-ZONE5-WARD54",
        "helpline": "+91-1800-425-1104"
      },
      "geometry": {
        "type": "Polygon",
        "coordinates": [[
          [78.790700, 17.689000],
          [78.800700, 17.691000],
          [78.802700, 17.704000],
          [78.793700, 17.707000],
          [78.790700, 17.689000]
        ]]
      }
    },
    {
      "type": "Feature",
      "id": "W-05-055",
      "properties": {
        "ward_number": 55,
        "ward_code": "W-05-055",
        "ward_name": "Zone_05 Municipal Ward 55",
        "population_census": 31250,
        "residential_properties": 6900,
        "commercial_units": 1175,
        "sanitation_workers_allocated": 30,
        "nodal_officer": "OFF-ZONE5-WARD55",
        "helpline": "+91-1800-425-1105"
      },
      "geometry": {
        "type": "Polygon",
        "coordinates": [[
          [78.791700, 17.690000],
          [78.801700, 17.692000],
          [78.803700, 17.705000],
          [78.794700, 17.708000],
          [78.791700, 17.690000]
        ]]
      }
    },
    {
      "type": "Feature",
      "id": "W-05-056",
      "properties": {
        "ward_number": 56,
        "ward_code": "W-05-056",
        "ward_name": "Zone_05 Municipal Ward 56",
        "population_census": 31600,
        "residential_properties": 6980,
        "commercial_units": 1190,
        "sanitation_workers_allocated": 31,
        "nodal_officer": "OFF-ZONE5-WARD56",
        "helpline": "+91-1800-425-1106"
      },
      "geometry": {
        "type": "Polygon",
        "coordinates": [[
          [78.792700, 17.691000],
          [78.802700, 17.693000],
          [78.804700, 17.706000],
          [78.795700, 17.709000],
          [78.792700, 17.691000]
        ]]
      }
    },
    {
      "type": "Feature",
      "id": "W-05-057",
      "properties": {
        "ward_number": 57,
        "ward_code": "W-05-057",
        "ward_name": "Zone_05 Municipal Ward 57",
        "population_census": 31950,
        "residential_properties": 7060,
        "commercial_units": 1205,
        "sanitation_workers_allocated": 32,
        "nodal_officer": "OFF-ZONE5-WARD57",
        "helpline": "+91-1800-425-1107"
      },
      "geometry": {
        "type": "Polygon",
        "coordinates": [[
          [78.793700, 17.692000],
          [78.803700, 17.694000],
          [78.805700, 17.707000],
          [78.796700, 17.710000],
          [78.793700, 17.692000]
        ]]
      }
    },
    {
      "type": "Feature",
      "id": "W-05-058",
      "properties": {
        "ward_number": 58,
        "ward_code": "W-05-058",
        "ward_name": "Zone_05 Municipal Ward 58",
        "population_census": 32300,
        "residential_properties": 7140,
        "commercial_units": 1220,
        "sanitation_workers_allocated": 33,
        "nodal_officer": "OFF-ZONE5-WARD58",
        "helpline": "+91-1800-425-1108"
      },
      "geometry": {
        "type": "Polygon",
        "coordinates": [[
          [78.794700, 17.693000],
          [78.804700, 17.695000],
          [78.806700, 17.708000],
          [78.797700, 17.711000],
          [78.794700, 17.693000]
        ]]
      }
    },
    {
      "type": "Feature",
      "id": "W-05-059",
      "properties": {
        "ward_number": 59,
        "ward_code": "W-05-059",
        "ward_name": "Zone_05 Municipal Ward 59",
        "population_census": 32650,
        "residential_properties": 7220,
        "commercial_units": 1235,
        "sanitation_workers_allocated": 34,
        "nodal_officer": "OFF-ZONE5-WARD59",
        "helpline": "+91-1800-425-1109"
      },
      "geometry": {
        "type": "Polygon",
        "coordinates": [[
          [78.795700, 17.694000],
          [78.805700, 17.696000],
          [78.807700, 17.709000],
          [78.798700, 17.712000],
          [78.795700, 17.694000]
        ]]
      }
    },
    {
      "type": "Feature",
      "id": "W-05-060",
      "properties": {
        "ward_number": 60,
        "ward_code": "W-05-060",
        "ward_name": "Zone_05 Municipal Ward 60",
        "population_census": 33000,
        "residential_properties": 7300,
        "commercial_units": 1250,
        "sanitation_workers_allocated": 15,
        "nodal_officer": "OFF-ZONE5-WARD60",
        "helpline": "+91-1800-425-1110"
      },
      "geometry": {
        "type": "Polygon",
        "coordinates": [[
          [78.796700, 17.695000],
          [78.806700, 17.697000],
          [78.808700, 17.710000],
          [78.799700, 17.713000],
          [78.796700, 17.695000]
        ]]
      }
    },
    {
      "type": "Feature",
      "id": "W-05-061",
      "properties": {
        "ward_number": 61,
        "ward_code": "W-05-061",
        "ward_name": "Zone_05 Municipal Ward 61",
        "population_census": 33350,
        "residential_properties": 7380,
        "commercial_units": 1265,
        "sanitation_workers_allocated": 16,
        "nodal_officer": "OFF-ZONE5-WARD61",
        "helpline": "+91-1800-425-1111"
      },
      "geometry": {
        "type": "Polygon",
        "coordinates": [[
          [78.797700, 17.696000],
          [78.807700, 17.698000],
          [78.809700, 17.711000],
          [78.800700, 17.714000],
          [78.797700, 17.696000]
        ]]
      }
    },
    {
      "type": "Feature",
      "id": "W-05-062",
      "properties": {
        "ward_number": 62,
        "ward_code": "W-05-062",
        "ward_name": "Zone_05 Municipal Ward 62",
        "population_census": 33700,
        "residential_properties": 7460,
        "commercial_units": 1280,
        "sanitation_workers_allocated": 17,
        "nodal_officer": "OFF-ZONE5-WARD62",
        "helpline": "+91-1800-425-1112"
      },
      "geometry": {
        "type": "Polygon",
        "coordinates": [[
          [78.798700, 17.697000],
          [78.808700, 17.699000],
          [78.810700, 17.712000],
          [78.801700, 17.715000],
          [78.798700, 17.697000]
        ]]
      }
    },
    {
      "type": "Feature",
      "id": "W-05-063",
      "properties": {
        "ward_number": 63,
        "ward_code": "W-05-063",
        "ward_name": "Zone_05 Municipal Ward 63",
        "population_census": 34050,
        "residential_properties": 7540,
        "commercial_units": 1295,
        "sanitation_workers_allocated": 18,
        "nodal_officer": "OFF-ZONE5-WARD63",
        "helpline": "+91-1800-425-1113"
      },
      "geometry": {
        "type": "Polygon",
        "coordinates": [[
          [78.799700, 17.698000],
          [78.809700, 17.700000],
          [78.811700, 17.713000],
          [78.802700, 17.716000],
          [78.799700, 17.698000]
        ]]
      }
    },
    {
      "type": "Feature",
      "id": "W-05-064",
      "properties": {
        "ward_number": 64,
        "ward_code": "W-05-064",
        "ward_name": "Zone_05 Municipal Ward 64",
        "population_census": 34400,
        "residential_properties": 7620,
        "commercial_units": 1310,
        "sanitation_workers_allocated": 19,
        "nodal_officer": "OFF-ZONE5-WARD64",
        "helpline": "+91-1800-425-1114"
      },
      "geometry": {
        "type": "Polygon",
        "coordinates": [[
          [78.800700, 17.699000],
          [78.810700, 17.701000],
          [78.812700, 17.714000],
          [78.803700, 17.717000],
          [78.800700, 17.699000]
        ]]
      }
    },
    {
      "type": "Feature",
      "id": "W-05-065",
      "properties": {
        "ward_number": 65,
        "ward_code": "W-05-065",
        "ward_name": "Zone_05 Municipal Ward 65",
        "population_census": 34750,
        "residential_properties": 7700,
        "commercial_units": 1325,
        "sanitation_workers_allocated": 20,
        "nodal_officer": "OFF-ZONE5-WARD65",
        "helpline": "+91-1800-425-1115"
      },
      "geometry": {
        "type": "Polygon",
        "coordinates": [[
          [78.801700, 17.700000],
          [78.811700, 17.702000],
          [78.813700, 17.715000],
          [78.804700, 17.718000],
          [78.801700, 17.700000]
        ]]
      }
    },
    {
      "type": "Feature",
      "id": "W-05-066",
      "properties": {
        "ward_number": 66,
        "ward_code": "W-05-066",
        "ward_name": "Zone_05 Municipal Ward 66",
        "population_census": 35100,
        "residential_properties": 7780,
        "commercial_units": 1340,
        "sanitation_workers_allocated": 21,
        "nodal_officer": "OFF-ZONE5-WARD66",
        "helpline": "+91-1800-425-1116"
      },
      "geometry": {
        "type": "Polygon",
        "coordinates": [[
          [78.802700, 17.701000],
          [78.812700, 17.703000],
          [78.814700, 17.716000],
          [78.805700, 17.719000],
          [78.802700, 17.701000]
        ]]
      }
    },
    {
      "type": "Feature",
      "id": "W-05-067",
      "properties": {
        "ward_number": 67,
        "ward_code": "W-05-067",
        "ward_name": "Zone_05 Municipal Ward 67",
        "population_census": 35450,
        "residential_properties": 7860,
        "commercial_units": 1355,
        "sanitation_workers_allocated": 22,
        "nodal_officer": "OFF-ZONE5-WARD67",
        "helpline": "+91-1800-425-1117"
      },
      "geometry": {
        "type": "Polygon",
        "coordinates": [[
          [78.803700, 17.702000],
          [78.813700, 17.704000],
          [78.815700, 17.717000],
          [78.806700, 17.720000],
          [78.803700, 17.702000]
        ]]
      }
    },
    {
      "type": "Feature",
      "id": "W-05-068",
      "properties": {
        "ward_number": 68,
        "ward_code": "W-05-068",
        "ward_name": "Zone_05 Municipal Ward 68",
        "population_census": 35800,
        "residential_properties": 7940,
        "commercial_units": 1370,
        "sanitation_workers_allocated": 23,
        "nodal_officer": "OFF-ZONE5-WARD68",
        "helpline": "+91-1800-425-1118"
      },
      "geometry": {
        "type": "Polygon",
        "coordinates": [[
          [78.804700, 17.703000],
          [78.814700, 17.705000],
          [78.816700, 17.718000],
          [78.807700, 17.721000],
          [78.804700, 17.703000]
        ]]
      }
    },
    {
      "type": "Feature",
      "id": "W-05-069",
      "properties": {
        "ward_number": 69,
        "ward_code": "W-05-069",
        "ward_name": "Zone_05 Municipal Ward 69",
        "population_census": 36150,
        "residential_properties": 8020,
        "commercial_units": 1385,
        "sanitation_workers_allocated": 24,
        "nodal_officer": "OFF-ZONE5-WARD69",
        "helpline": "+91-1800-425-1119"
      },
      "geometry": {
        "type": "Polygon",
        "coordinates": [[
          [78.805700, 17.704000],
          [78.815700, 17.706000],
          [78.817700, 17.719000],
          [78.808700, 17.722000],
          [78.805700, 17.704000]
        ]]
      }
    },
    {
      "type": "Feature",
      "id": "W-05-070",
      "properties": {
        "ward_number": 70,
        "ward_code": "W-05-070",
        "ward_name": "Zone_05 Municipal Ward 70",
        "population_census": 36500,
        "residential_properties": 8100,
        "commercial_units": 1400,
        "sanitation_workers_allocated": 25,
        "nodal_officer": "OFF-ZONE5-WARD70",
        "helpline": "+91-1800-425-1120"
      },
      "geometry": {
        "type": "Polygon",
        "coordinates": [[
          [78.806700, 17.705000],
          [78.816700, 17.707000],
          [78.818700, 17.720000],
          [78.809700, 17.723000],
          [78.806700, 17.705000]
        ]]
      }
    },
    {
      "type": "Feature",
      "id": "W-05-071",
      "properties": {
        "ward_number": 71,
        "ward_code": "W-05-071",
        "ward_name": "Zone_05 Municipal Ward 71",
        "population_census": 36850,
        "residential_properties": 8180,
        "commercial_units": 1415,
        "sanitation_workers_allocated": 26,
        "nodal_officer": "OFF-ZONE5-WARD71",
        "helpline": "+91-1800-425-1121"
      },
      "geometry": {
        "type": "Polygon",
        "coordinates": [[
          [78.807700, 17.706000],
          [78.817700, 17.708000],
          [78.819700, 17.721000],
          [78.810700, 17.724000],
          [78.807700, 17.706000]
        ]]
      }
    },
    {
      "type": "Feature",
      "id": "W-05-072",
      "properties": {
        "ward_number": 72,
        "ward_code": "W-05-072",
        "ward_name": "Zone_05 Municipal Ward 72",
        "population_census": 37200,
        "residential_properties": 8260,
        "commercial_units": 1430,
        "sanitation_workers_allocated": 27,
        "nodal_officer": "OFF-ZONE5-WARD72",
        "helpline": "+91-1800-425-1122"
      },
      "geometry": {
        "type": "Polygon",
        "coordinates": [[
          [78.808700, 17.707000],
          [78.818700, 17.709000],
          [78.820700, 17.722000],
          [78.811700, 17.725000],
          [78.808700, 17.707000]
        ]]
      }
    },
    {
      "type": "Feature",
      "id": "W-05-073",
      "properties": {
        "ward_number": 73,
        "ward_code": "W-05-073",
        "ward_name": "Zone_05 Municipal Ward 73",
        "population_census": 37550,
        "residential_properties": 8340,
        "commercial_units": 1445,
        "sanitation_workers_allocated": 28,
        "nodal_officer": "OFF-ZONE5-WARD73",
        "helpline": "+91-1800-425-1123"
      },
      "geometry": {
        "type": "Polygon",
        "coordinates": [[
          [78.809700, 17.708000],
          [78.819700, 17.710000],
          [78.821700, 17.723000],
          [78.812700, 17.726000],
          [78.809700, 17.708000]
        ]]
      }
    },
    {
      "type": "Feature",
      "id": "W-05-074",
      "properties": {
        "ward_number": 74,
        "ward_code": "W-05-074",
        "ward_name": "Zone_05 Municipal Ward 74",
        "population_census": 37900,
        "residential_properties": 8420,
        "commercial_units": 1460,
        "sanitation_workers_allocated": 29,
        "nodal_officer": "OFF-ZONE5-WARD74",
        "helpline": "+91-1800-425-1124"
      },
      "geometry": {
        "type": "Polygon",
        "coordinates": [[
          [78.810700, 17.709000],
          [78.820700, 17.711000],
          [78.822700, 17.724000],
          [78.813700, 17.727000],
          [78.810700, 17.709000]
        ]]
      }
    },
    {
      "type": "Feature",
      "id": "W-05-075",
      "properties": {
        "ward_number": 75,
        "ward_code": "W-05-075",
        "ward_name": "Zone_05 Municipal Ward 75",
        "population_census": 38250,
        "residential_properties": 8500,
        "commercial_units": 1475,
        "sanitation_workers_allocated": 30,
        "nodal_officer": "OFF-ZONE5-WARD75",
        "helpline": "+91-1800-425-1125"
      },
      "geometry": {
        "type": "Polygon",
        "coordinates": [[
          [78.811700, 17.710000],
          [78.821700, 17.712000],
          [78.823700, 17.725000],
          [78.814700, 17.728000],
          [78.811700, 17.710000]
        ]]
      }
    },
    {
      "type": "Feature",
      "id": "W-05-076",
      "properties": {
        "ward_number": 76,
        "ward_code": "W-05-076",
        "ward_name": "Zone_05 Municipal Ward 76",
        "population_census": 38600,
        "residential_properties": 8580,
        "commercial_units": 1490,
        "sanitation_workers_allocated": 31,
        "nodal_officer": "OFF-ZONE5-WARD76",
        "helpline": "+91-1800-425-1126"
      },
      "geometry": {
        "type": "Polygon",
        "coordinates": [[
          [78.812700, 17.711000],
          [78.822700, 17.713000],
          [78.824700, 17.726000],
          [78.815700, 17.729000],
          [78.812700, 17.711000]
        ]]
      }
    },
    {
      "type": "Feature",
      "id": "W-05-077",
      "properties": {
        "ward_number": 77,
        "ward_code": "W-05-077",
        "ward_name": "Zone_05 Municipal Ward 77",
        "population_census": 38950,
        "residential_properties": 8660,
        "commercial_units": 1505,
        "sanitation_workers_allocated": 32,
        "nodal_officer": "OFF-ZONE5-WARD77",
        "helpline": "+91-1800-425-1127"
      },
      "geometry": {
        "type": "Polygon",
        "coordinates": [[
          [78.813700, 17.712000],
          [78.823700, 17.714000],
          [78.825700, 17.727000],
          [78.816700, 17.730000],
          [78.813700, 17.712000]
        ]]
      }
    },
    {
      "type": "Feature",
      "id": "W-05-078",
      "properties": {
        "ward_number": 78,
        "ward_code": "W-05-078",
        "ward_name": "Zone_05 Municipal Ward 78",
        "population_census": 39300,
        "residential_properties": 8740,
        "commercial_units": 1520,
        "sanitation_workers_allocated": 33,
        "nodal_officer": "OFF-ZONE5-WARD78",
        "helpline": "+91-1800-425-1128"
      },
      "geometry": {
        "type": "Polygon",
        "coordinates": [[
          [78.814700, 17.713000],
          [78.824700, 17.715000],
          [78.826700, 17.728000],
          [78.817700, 17.731000],
          [78.814700, 17.713000]
        ]]
      }
    },
    {
      "type": "Feature",
      "id": "W-05-079",
      "properties": {
        "ward_number": 79,
        "ward_code": "W-05-079",
        "ward_name": "Zone_05 Municipal Ward 79",
        "population_census": 39650,
        "residential_properties": 8820,
        "commercial_units": 1535,
        "sanitation_workers_allocated": 34,
        "nodal_officer": "OFF-ZONE5-WARD79",
        "helpline": "+91-1800-425-1129"
      },
      "geometry": {
        "type": "Polygon",
        "coordinates": [[
          [78.815700, 17.714000],
          [78.825700, 17.716000],
          [78.827700, 17.729000],
          [78.818700, 17.732000],
          [78.815700, 17.714000]
        ]]
      }
    },
    {
      "type": "Feature",
      "id": "W-05-080",
      "properties": {
        "ward_number": 80,
        "ward_code": "W-05-080",
        "ward_name": "Zone_05 Municipal Ward 80",
        "population_census": 40000,
        "residential_properties": 8900,
        "commercial_units": 1550,
        "sanitation_workers_allocated": 15,
        "nodal_officer": "OFF-ZONE5-WARD80",
        "helpline": "+91-1800-425-1130"
      },
      "geometry": {
        "type": "Polygon",
        "coordinates": [[
          [78.816700, 17.715000],
          [78.826700, 17.717000],
          [78.828700, 17.730000],
          [78.819700, 17.733000],
          [78.816700, 17.715000]
        ]]
      }
    },
    {
      "type": "Feature",
      "id": "W-05-081",
      "properties": {
        "ward_number": 81,
        "ward_code": "W-05-081",
        "ward_name": "Zone_05 Municipal Ward 81",
        "population_census": 40350,
        "residential_properties": 8980,
        "commercial_units": 1565,
        "sanitation_workers_allocated": 16,
        "nodal_officer": "OFF-ZONE5-WARD81",
        "helpline": "+91-1800-425-1131"
      },
      "geometry": {
        "type": "Polygon",
        "coordinates": [[
          [78.817700, 17.716000],
          [78.827700, 17.718000],
          [78.829700, 17.731000],
          [78.820700, 17.734000],
          [78.817700, 17.716000]
        ]]
      }
    },
    {
      "type": "Feature",
      "id": "W-05-082",
      "properties": {
        "ward_number": 82,
        "ward_code": "W-05-082",
        "ward_name": "Zone_05 Municipal Ward 82",
        "population_census": 40700,
        "residential_properties": 9060,
        "commercial_units": 1580,
        "sanitation_workers_allocated": 17,
        "nodal_officer": "OFF-ZONE5-WARD82",
        "helpline": "+91-1800-425-1132"
      },
      "geometry": {
        "type": "Polygon",
        "coordinates": [[
          [78.818700, 17.717000],
          [78.828700, 17.719000],
          [78.830700, 17.732000],
          [78.821700, 17.735000],
          [78.818700, 17.717000]
        ]]
      }
    },
    {
      "type": "Feature",
      "id": "W-05-083",
      "properties": {
        "ward_number": 83,
        "ward_code": "W-05-083",
        "ward_name": "Zone_05 Municipal Ward 83",
        "population_census": 41050,
        "residential_properties": 9140,
        "commercial_units": 1595,
        "sanitation_workers_allocated": 18,
        "nodal_officer": "OFF-ZONE5-WARD83",
        "helpline": "+91-1800-425-1133"
      },
      "geometry": {
        "type": "Polygon",
        "coordinates": [[
          [78.819700, 17.718000],
          [78.829700, 17.720000],
          [78.831700, 17.733000],
          [78.822700, 17.736000],
          [78.819700, 17.718000]
        ]]
      }
    },
    {
      "type": "Feature",
      "id": "W-05-084",
      "properties": {
        "ward_number": 84,
        "ward_code": "W-05-084",
        "ward_name": "Zone_05 Municipal Ward 84",
        "population_census": 41400,
        "residential_properties": 9220,
        "commercial_units": 1610,
        "sanitation_workers_allocated": 19,
        "nodal_officer": "OFF-ZONE5-WARD84",
        "helpline": "+91-1800-425-1134"
      },
      "geometry": {
        "type": "Polygon",
        "coordinates": [[
          [78.820700, 17.719000],
          [78.830700, 17.721000],
          [78.832700, 17.734000],
          [78.823700, 17.737000],
          [78.820700, 17.719000]
        ]]
      }
    },
    {
      "type": "Feature",
      "id": "W-05-085",
      "properties": {
        "ward_number": 85,
        "ward_code": "W-05-085",
        "ward_name": "Zone_05 Municipal Ward 85",
        "population_census": 41750,
        "residential_properties": 9300,
        "commercial_units": 1625,
        "sanitation_workers_allocated": 20,
        "nodal_officer": "OFF-ZONE5-WARD85",
        "helpline": "+91-1800-425-1135"
      },
      "geometry": {
        "type": "Polygon",
        "coordinates": [[
          [78.821700, 17.720000],
          [78.831700, 17.722000],
          [78.833700, 17.735000],
          [78.824700, 17.738000],
          [78.821700, 17.720000]
        ]]
      }
    },
    {
      "type": "Feature",
      "id": "W-05-086",
      "properties": {
        "ward_number": 86,
        "ward_code": "W-05-086",
        "ward_name": "Zone_05 Municipal Ward 86",
        "population_census": 42100,
        "residential_properties": 9380,
        "commercial_units": 1640,
        "sanitation_workers_allocated": 21,
        "nodal_officer": "OFF-ZONE5-WARD86",
        "helpline": "+91-1800-425-1136"
      },
      "geometry": {
        "type": "Polygon",
        "coordinates": [[
          [78.822700, 17.721000],
          [78.832700, 17.723000],
          [78.834700, 17.736000],
          [78.825700, 17.739000],
          [78.822700, 17.721000]
        ]]
      }
    },
    {
      "type": "Feature",
      "id": "W-05-087",
      "properties": {
        "ward_number": 87,
        "ward_code": "W-05-087",
        "ward_name": "Zone_05 Municipal Ward 87",
        "population_census": 42450,
        "residential_properties": 9460,
        "commercial_units": 1655,
        "sanitation_workers_allocated": 22,
        "nodal_officer": "OFF-ZONE5-WARD87",
        "helpline": "+91-1800-425-1137"
      },
      "geometry": {
        "type": "Polygon",
        "coordinates": [[
          [78.823700, 17.722000],
          [78.833700, 17.724000],
          [78.835700, 17.737000],
          [78.826700, 17.740000],
          [78.823700, 17.722000]
        ]]
      }
    },
    {
      "type": "Feature",
      "id": "W-05-088",
      "properties": {
        "ward_number": 88,
        "ward_code": "W-05-088",
        "ward_name": "Zone_05 Municipal Ward 88",
        "population_census": 42800,
        "residential_properties": 9540,
        "commercial_units": 1670,
        "sanitation_workers_allocated": 23,
        "nodal_officer": "OFF-ZONE5-WARD88",
        "helpline": "+91-1800-425-1138"
      },
      "geometry": {
        "type": "Polygon",
        "coordinates": [[
          [78.824700, 17.723000],
          [78.834700, 17.725000],
          [78.836700, 17.738000],
          [78.827700, 17.741000],
          [78.824700, 17.723000]
        ]]
      }
    },
    {
      "type": "Feature",
      "id": "W-05-089",
      "properties": {
        "ward_number": 89,
        "ward_code": "W-05-089",
        "ward_name": "Zone_05 Municipal Ward 89",
        "population_census": 43150,
        "residential_properties": 9620,
        "commercial_units": 1685,
        "sanitation_workers_allocated": 24,
        "nodal_officer": "OFF-ZONE5-WARD89",
        "helpline": "+91-1800-425-1139"
      },
      "geometry": {
        "type": "Polygon",
        "coordinates": [[
          [78.825700, 17.724000],
          [78.835700, 17.726000],
          [78.837700, 17.739000],
          [78.828700, 17.742000],
          [78.825700, 17.724000]
        ]]
      }
    },
    {
      "type": "Feature",
      "id": "W-05-090",
      "properties": {
        "ward_number": 90,
        "ward_code": "W-05-090",
        "ward_name": "Zone_05 Municipal Ward 90",
        "population_census": 43500,
        "residential_properties": 9700,
        "commercial_units": 1700,
        "sanitation_workers_allocated": 25,
        "nodal_officer": "OFF-ZONE5-WARD90",
        "helpline": "+91-1800-425-1140"
      },
      "geometry": {
        "type": "Polygon",
        "coordinates": [[
          [78.826700, 17.725000],
          [78.836700, 17.727000],
          [78.838700, 17.740000],
          [78.829700, 17.743000],
          [78.826700, 17.725000]
        ]]
      }
    },
    {
      "type": "Feature",
      "id": "W-05-091",
      "properties": {
        "ward_number": 91,
        "ward_code": "W-05-091",
        "ward_name": "Zone_05 Municipal Ward 91",
        "population_census": 43850,
        "residential_properties": 9780,
        "commercial_units": 1715,
        "sanitation_workers_allocated": 26,
        "nodal_officer": "OFF-ZONE5-WARD91",
        "helpline": "+91-1800-425-1141"
      },
      "geometry": {
        "type": "Polygon",
        "coordinates": [[
          [78.827700, 17.726000],
          [78.837700, 17.728000],
          [78.839700, 17.741000],
          [78.830700, 17.744000],
          [78.827700, 17.726000]
        ]]
      }
    },
    {
      "type": "Feature",
      "id": "W-05-092",
      "properties": {
        "ward_number": 92,
        "ward_code": "W-05-092",
        "ward_name": "Zone_05 Municipal Ward 92",
        "population_census": 44200,
        "residential_properties": 9860,
        "commercial_units": 1730,
        "sanitation_workers_allocated": 27,
        "nodal_officer": "OFF-ZONE5-WARD92",
        "helpline": "+91-1800-425-1142"
      },
      "geometry": {
        "type": "Polygon",
        "coordinates": [[
          [78.828700, 17.727000],
          [78.838700, 17.729000],
          [78.840700, 17.742000],
          [78.831700, 17.745000],
          [78.828700, 17.727000]
        ]]
      }
    },
    {
      "type": "Feature",
      "id": "W-05-093",
      "properties": {
        "ward_number": 93,
        "ward_code": "W-05-093",
        "ward_name": "Zone_05 Municipal Ward 93",
        "population_census": 44550,
        "residential_properties": 9940,
        "commercial_units": 1745,
        "sanitation_workers_allocated": 28,
        "nodal_officer": "OFF-ZONE5-WARD93",
        "helpline": "+91-1800-425-1143"
      },
      "geometry": {
        "type": "Polygon",
        "coordinates": [[
          [78.829700, 17.728000],
          [78.839700, 17.730000],
          [78.841700, 17.743000],
          [78.832700, 17.746000],
          [78.829700, 17.728000]
        ]]
      }
    },
    {
      "type": "Feature",
      "id": "W-05-094",
      "properties": {
        "ward_number": 94,
        "ward_code": "W-05-094",
        "ward_name": "Zone_05 Municipal Ward 94",
        "population_census": 44900,
        "residential_properties": 10020,
        "commercial_units": 1760,
        "sanitation_workers_allocated": 29,
        "nodal_officer": "OFF-ZONE5-WARD94",
        "helpline": "+91-1800-425-1144"
      },
      "geometry": {
        "type": "Polygon",
        "coordinates": [[
          [78.830700, 17.729000],
          [78.840700, 17.731000],
          [78.842700, 17.744000],
          [78.833700, 17.747000],
          [78.830700, 17.729000]
        ]]
      }
    },
    {
      "type": "Feature",
      "id": "W-05-095",
      "properties": {
        "ward_number": 95,
        "ward_code": "W-05-095",
        "ward_name": "Zone_05 Municipal Ward 95",
        "population_census": 45250,
        "residential_properties": 10100,
        "commercial_units": 1775,
        "sanitation_workers_allocated": 30,
        "nodal_officer": "OFF-ZONE5-WARD95",
        "helpline": "+91-1800-425-1145"
      },
      "geometry": {
        "type": "Polygon",
        "coordinates": [[
          [78.831700, 17.730000],
          [78.841700, 17.732000],
          [78.843700, 17.745000],
          [78.834700, 17.748000],
          [78.831700, 17.730000]
        ]]
      }
    },
    {
      "type": "Feature",
      "id": "W-05-096",
      "properties": {
        "ward_number": 96,
        "ward_code": "W-05-096",
        "ward_name": "Zone_05 Municipal Ward 96",
        "population_census": 45600,
        "residential_properties": 10180,
        "commercial_units": 1790,
        "sanitation_workers_allocated": 31,
        "nodal_officer": "OFF-ZONE5-WARD96",
        "helpline": "+91-1800-425-1146"
      },
      "geometry": {
        "type": "Polygon",
        "coordinates": [[
          [78.832700, 17.731000],
          [78.842700, 17.733000],
          [78.844700, 17.746000],
          [78.835700, 17.749000],
          [78.832700, 17.731000]
        ]]
      }
    },
    {
      "type": "Feature",
      "id": "W-05-097",
      "properties": {
        "ward_number": 97,
        "ward_code": "W-05-097",
        "ward_name": "Zone_05 Municipal Ward 97",
        "population_census": 45950,
        "residential_properties": 10260,
        "commercial_units": 1805,
        "sanitation_workers_allocated": 32,
        "nodal_officer": "OFF-ZONE5-WARD97",
        "helpline": "+91-1800-425-1147"
      },
      "geometry": {
        "type": "Polygon",
        "coordinates": [[
          [78.833700, 17.732000],
          [78.843700, 17.734000],
          [78.845700, 17.747000],
          [78.836700, 17.750000],
          [78.833700, 17.732000]
        ]]
      }
    },
    {
      "type": "Feature",
      "id": "W-05-098",
      "properties": {
        "ward_number": 98,
        "ward_code": "W-05-098",
        "ward_name": "Zone_05 Municipal Ward 98",
        "population_census": 46300,
        "residential_properties": 10340,
        "commercial_units": 1820,
        "sanitation_workers_allocated": 33,
        "nodal_officer": "OFF-ZONE5-WARD98",
        "helpline": "+91-1800-425-1148"
      },
      "geometry": {
        "type": "Polygon",
        "coordinates": [[
          [78.834700, 17.733000],
          [78.844700, 17.735000],
          [78.846700, 17.748000],
          [78.837700, 17.751000],
          [78.834700, 17.733000]
        ]]
      }
    },
    {
      "type": "Feature",
      "id": "W-05-099",
      "properties": {
        "ward_number": 99,
        "ward_code": "W-05-099",
        "ward_name": "Zone_05 Municipal Ward 99",
        "population_census": 46650,
        "residential_properties": 10420,
        "commercial_units": 1835,
        "sanitation_workers_allocated": 34,
        "nodal_officer": "OFF-ZONE5-WARD99",
        "helpline": "+91-1800-425-1149"
      },
      "geometry": {
        "type": "Polygon",
        "coordinates": [[
          [78.835700, 17.734000],
          [78.845700, 17.736000],
          [78.847700, 17.749000],
          [78.838700, 17.752000],
          [78.835700, 17.734000]
        ]]
      }
    },
    {
      "type": "Feature",
      "id": "W-05-100",
      "properties": {
        "ward_number": 100,
        "ward_code": "W-05-100",
        "ward_name": "Zone_05 Municipal Ward 100",
        "population_census": 47000,
        "residential_properties": 10500,
        "commercial_units": 1850,
        "sanitation_workers_allocated": 15,
        "nodal_officer": "OFF-ZONE5-WARD100",
        "helpline": "+91-1800-425-1150"
      },
      "geometry": {
        "type": "Polygon",
        "coordinates": [[
          [78.836700, 17.735000],
          [78.846700, 17.737000],
          [78.848700, 17.750000],
          [78.839700, 17.753000],
          [78.836700, 17.735000]
        ]]
      }
    }
  }
}