{
  "type": "FeatureCollection",
  "zone": "Zone_14",
  "crs": { "type": "name", "properties": { "name": "urn:ogc:def:crs:OGC:1.3:CRS84" } },
  "features": [
    {
      "type": "Feature",
      "id": "W-14-001",
      "properties": {
        "ward_number": 1,
        "ward_code": "W-14-001",
        "ward_name": "Zone_14 Municipal Ward 1",
        "population_census": 12350,
        "residential_properties": 2580,
        "commercial_units": 365,
        "sanitation_workers_allocated": 16,
        "nodal_officer": "OFF-ZONE14-WARD1",
        "helpline": "+91-1800-425-1141"
      },
      "geometry": {
        "type": "Polygon",
        "coordinates": [[
          [79.187700, 18.086000],
          [79.197700, 18.088000],
          [79.199700, 18.101000],
          [79.190700, 18.104000],
          [79.187700, 18.086000]
        ]]
      }
    },
    {
      "type": "Feature",
      "id": "W-14-002",
      "properties": {
        "ward_number": 2,
        "ward_code": "W-14-002",
        "ward_name": "Zone_14 Municipal Ward 2",
        "population_census": 12700,
        "residential_properties": 2660,
        "commercial_units": 380,
        "sanitation_workers_allocated": 17,
        "nodal_officer": "OFF-ZONE14-WARD2",
        "helpline": "+91-1800-425-1142"
      },
      "geometry": {
        "type": "Polygon",
        "coordinates": [[
          [79.188700, 18.087000],
          [79.198700, 18.089000],
          [79.200700, 18.102000],
          [79.191700, 18.105000],
          [79.188700, 18.087000]
        ]]
      }
    },
    {
      "type": "Feature",
      "id": "W-14-003",
      "properties": {
        "ward_number": 3,
        "ward_code": "W-14-003",
        "ward_name": "Zone_14 Municipal Ward 3",
        "population_census": 13050,
        "residential_properties": 2740,
        "commercial_units": 395,
        "sanitation_workers_allocated": 18,
        "nodal_officer": "OFF-ZONE14-WARD3",
        "helpline": "+91-1800-425-1143"
      },
      "geometry": {
        "type": "Polygon",
        "coordinates": [[
          [79.189700, 18.088000],
          [79.199700, 18.090000],
          [79.201700, 18.103000],
          [79.192700, 18.106000],
          [79.189700, 18.088000]
        ]]
      }
    },
    {
      "type": "Feature",
      "id": "W-14-004",
      "properties": {
        "ward_number": 4,
        "ward_code": "W-14-004",
        "ward_name": "Zone_14 Municipal Ward 4",
        "population_census": 13400,
        "residential_properties": 2820,
        "commercial_units": 410,
        "sanitation_workers_allocated": 19,
        "nodal_officer": "OFF-ZONE14-WARD4",
        "helpline": "+91-1800-425-1144"
      },
      "geometry": {
        "type": "Polygon",
        "coordinates": [[
          [79.190700, 18.089000],
          [79.200700, 18.091000],
          [79.202700, 18.104000],
          [79.193700, 18.107000],
          [79.190700, 18.089000]
        ]]
      }
    },
    {
      "type": "Feature",
      "id": "W-14-005",
      "properties": {
        "ward_number": 5,
        "ward_code": "W-14-005",
        "ward_name": "Zone_14 Municipal Ward 5",
        "population_census": 13750,
        "residential_properties": 2900,
        "commercial_units": 425,
        "sanitation_workers_allocated": 20,
        "nodal_officer": "OFF-ZONE14-WARD5",
        "helpline": "+91-1800-425-1145"
      },
      "geometry": {
        "type": "Polygon",
        "coordinates": [[
          [79.191700, 18.090000],
          [79.201700, 18.092000],
          [79.203700, 18.105000],
          [79.194700, 18.108000],
          [79.191700, 18.090000]
        ]]
      }
    },
    {
      "type": "Feature",
      "id": "W-14-006",
      "properties": {
        "ward_number": 6,
        "ward_code": "W-14-006",
        "ward_name": "Zone_14 Municipal Ward 6",
        "population_census": 14100,
        "residential_properties": 2980,
        "commercial_units": 440,
        "sanitation_workers_allocated": 21,
        "nodal_officer": "OFF-ZONE14-WARD6",
        "helpline": "+91-1800-425-1146"
      },
      "geometry": {
        "type": "Polygon",
        "coordinates": [[
          [79.192700, 18.091000],
          [79.202700, 18.093000],
          [79.204700, 18.106000],
          [79.195700, 18.109000],
          [79.192700, 18.091000]
        ]]
      }
    },
    {
      "type": "Feature",
      "id": "W-14-007",
      "properties": {
        "ward_number": 7,
        "ward_code": "W-14-007",
        "ward_name": "Zone_14 Municipal Ward 7",
        "population_census": 14450,
        "residential_properties": 3060,
        "commercial_units": 455,
        "sanitation_workers_allocated": 22,
        "nodal_officer": "OFF-ZONE14-WARD7",
        "helpline": "+91-1800-425-1147"
      },
      "geometry": {
        "type": "Polygon",
        "coordinates": [[
          [79.193700, 18.092000],
          [79.203700, 18.094000],
          [79.205700, 18.107000],
          [79.196700, 18.110000],
          [79.193700, 18.092000]
        ]]
      }
    },
    {
      "type": "Feature",
      "id": "W-14-008",
      "properties": {
        "ward_number": 8,
        "ward_code": "W-14-008",
        "ward_name": "Zone_14 Municipal Ward 8",
        "population_census": 14800,
        "residential_properties": 3140,
        "commercial_units": 470,
        "sanitation_workers_allocated": 23,
        "nodal_officer": "OFF-ZONE14-WARD8",
        "helpline": "+91-1800-425-1148"
      },
      "geometry": {
        "type": "Polygon",
        "coordinates": [[
          [79.194700, 18.093000],
          [79.204700, 18.095000],
          [79.206700, 18.108000],
          [79.197700, 18.111000],
          [79.194700, 18.093000]
        ]]
      }
    },
    {
      "type": "Feature",
      "id": "W-14-009",
      "properties": {
        "ward_number": 9,
        "ward_code": "W-14-009",
        "ward_name": "Zone_14 Municipal Ward 9",
        "population_census": 15150,
        "residential_properties": 3220,
        "commercial_units": 485,
        "sanitation_workers_allocated": 24,
        "nodal_officer": "OFF-ZONE14-WARD9",
        "helpline": "+91-1800-425-1149"
      },
      "geometry": {
        "type": "Polygon",
        "coordinates": [[
          [79.195700, 18.094000],
          [79.205700, 18.096000],
          [79.207700, 18.109000],
          [79.198700, 18.112000],
          [79.195700, 18.094000]
        ]]
      }
    },
    {
      "type": "Feature",
      "id": "W-14-010",
      "properties": {
        "ward_number": 10,
        "ward_code": "W-14-010",
        "ward_name": "Zone_14 Municipal Ward 10",
        "population_census": 15500,
        "residential_properties": 3300,
        "commercial_units": 500,
        "sanitation_workers_allocated": 25,
        "nodal_officer": "OFF-ZONE14-WARD10",
        "helpline": "+91-1800-425-1150"
      },
      "geometry": {
        "type": "Polygon",
        "coordinates": [[
          [79.196700, 18.095000],
          [79.206700, 18.097000],
          [79.208700, 18.110000],
          [79.199700, 18.113000],
          [79.196700, 18.095000]
        ]]
      }
    },
    {
      "type": "Feature",
      "id": "W-14-011",
      "properties": {
        "ward_number": 11,
        "ward_code": "W-14-011",
        "ward_name": "Zone_14 Municipal Ward 11",
        "population_census": 15850,
        "residential_properties": 3380,
        "commercial_units": 515,
        "sanitation_workers_allocated": 26,
        "nodal_officer": "OFF-ZONE14-WARD11",
        "helpline": "+91-1800-425-1151"
      },
      "geometry": {
        "type": "Polygon",
        "coordinates": [[
          [79.197700, 18.096000],
          [79.207700, 18.098000],
          [79.209700, 18.111000],
          [79.200700, 18.114000],
          [79.197700, 18.096000]
        ]]
      }
    },
    {
      "type": "Feature",
      "id": "W-14-012",
      "properties": {
        "ward_number": 12,
        "ward_code": "W-14-012",
        "ward_name": "Zone_14 Municipal Ward 12",
        "population_census": 16200,
        "residential_properties": 3460,
        "commercial_units": 530,
        "sanitation_workers_allocated": 27,
        "nodal_officer": "OFF-ZONE14-WARD12",
        "helpline": "+91-1800-425-1152"
      },
      "geometry": {
        "type": "Polygon",
        "coordinates": [[
          [79.198700, 18.097000],
          [79.208700, 18.099000],
          [79.210700, 18.112000],
          [79.201700, 18.115000],
          [79.198700, 18.097000]
        ]]
      }
    },
    {
      "type": "Feature",
      "id": "W-14-013",
      "properties": {
        "ward_number": 13,
        "ward_code": "W-14-013",
        "ward_name": "Zone_14 Municipal Ward 13",
        "population_census": 16550,
        "residential_properties": 3540,
        "commercial_units": 545,
        "sanitation_workers_allocated": 28,
        "nodal_officer": "OFF-ZONE14-WARD13",
        "helpline": "+91-1800-425-1153"
      },
      "geometry": {
        "type": "Polygon",
        "coordinates": [[
          [79.199700, 18.098000],
          [79.209700, 18.100000],
          [79.211700, 18.113000],
          [79.202700, 18.116000],
          [79.199700, 18.098000]
        ]]
      }
    },
    {
      "type": "Feature",
      "id": "W-14-014",
      "properties": {
        "ward_number": 14,
        "ward_code": "W-14-014",
        "ward_name": "Zone_14 Municipal Ward 14",
        "population_census": 16900,
        "residential_properties": 3620,
        "commercial_units": 560,
        "sanitation_workers_allocated": 29,
        "nodal_officer": "OFF-ZONE14-WARD14",
        "helpline": "+91-1800-425-1154"
      },
      "geometry": {
        "type": "Polygon",
        "coordinates": [[
          [79.200700, 18.099000],
          [79.210700, 18.101000],
          [79.212700, 18.114000],
          [79.203700, 18.117000],
          [79.200700, 18.099000]
        ]]
      }
    },
    {
      "type": "Feature",
      "id": "W-14-015",
      "properties": {
        "ward_number": 15,
        "ward_code": "W-14-015",
        "ward_name": "Zone_14 Municipal Ward 15",
        "population_census": 17250,
        "residential_properties": 3700,
        "commercial_units": 575,
        "sanitation_workers_allocated": 30,
        "nodal_officer": "OFF-ZONE14-WARD15",
        "helpline": "+91-1800-425-1155"
      },
      "geometry": {
        "type": "Polygon",
        "coordinates": [[
          [79.201700, 18.100000],
          [79.211700, 18.102000],
          [79.213700, 18.115000],
          [79.204700, 18.118000],
          [79.201700, 18.100000]
        ]]
      }
    },
    {
      "type": "Feature",
      "id": "W-14-016",
      "properties": {
        "ward_number": 16,
        "ward_code": "W-14-016",
        "ward_name": "Zone_14 Municipal Ward 16",
        "population_census": 17600,
        "residential_properties": 3780,
        "commercial_units": 590,
        "sanitation_workers_allocated": 31,
        "nodal_officer": "OFF-ZONE14-WARD16",
        "helpline": "+91-1800-425-1156"
      },
      "geometry": {
        "type": "Polygon",
        "coordinates": [[
          [79.202700, 18.101000],
          [79.212700, 18.103000],
          [79.214700, 18.116000],
          [79.205700, 18.119000],
          [79.202700, 18.101000]
        ]]
      }
    },
    {
      "type": "Feature",
      "id": "W-14-017",
      "properties": {
        "ward_number": 17,
        "ward_code": "W-14-017",
        "ward_name": "Zone_14 Municipal Ward 17",
        "population_census": 17950,
        "residential_properties": 3860,
        "commercial_units": 605,
        "sanitation_workers_allocated": 32,
        "nodal_officer": "OFF-ZONE14-WARD17",
        "helpline": "+91-1800-425-1157"
      },
      "geometry": {
        "type": "Polygon",
        "coordinates": [[
          [79.203700, 18.102000],
          [79.213700, 18.104000],
          [79.215700, 18.117000],
          [79.206700, 18.120000],
          [79.203700, 18.102000]
        ]]
      }
    },
    {
      "type": "Feature",
      "id": "W-14-018",
      "properties": {
        "ward_number": 18,
        "ward_code": "W-14-018",
        "ward_name": "Zone_14 Municipal Ward 18",
        "population_census": 18300,
        "residential_properties": 3940,
        "commercial_units": 620,
        "sanitation_workers_allocated": 33,
        "nodal_officer": "OFF-ZONE14-WARD18",
        "helpline": "+91-1800-425-1158"
      },
      "geometry": {
        "type": "Polygon",
        "coordinates": [[
          [79.204700, 18.103000],
          [79.214700, 18.105000],
          [79.216700, 18.118000],
          [79.207700, 18.121000],
          [79.204700, 18.103000]
        ]]
      }
    },
    {
      "type": "Feature",
      "id": "W-14-019",
      "properties": {
        "ward_number": 19,
        "ward_code": "W-14-019",
        "ward_name": "Zone_14 Municipal Ward 19",
        "population_census": 18650,
        "residential_properties": 4020,
        "commercial_units": 635,
        "sanitation_workers_allocated": 34,
        "nodal_officer": "OFF-ZONE14-WARD19",
        "helpline": "+91-1800-425-1159"
      },
      "geometry": {
        "type": "Polygon",
        "coordinates": [[
          [79.205700, 18.104000],
          [79.215700, 18.106000],
          [79.217700, 18.119000],
          [79.208700, 18.122000],
          [79.205700, 18.104000]
        ]]
      }
    },
    {
      "type": "Feature",
      "id": "W-14-020",
      "properties": {
        "ward_number": 20,
        "ward_code": "W-14-020",
        "ward_name": "Zone_14 Municipal Ward 20",
        "population_census": 19000,
        "residential_properties": 4100,
        "commercial_units": 650,
        "sanitation_workers_allocated": 15,
        "nodal_officer": "OFF-ZONE14-WARD20",
        "helpline": "+91-1800-425-1160"
      },
      "geometry": {
        "type": "Polygon",
        "coordinates": [[
          [79.206700, 18.105000],
          [79.216700, 18.107000],
          [79.218700, 18.120000],
          [79.209700, 18.123000],
          [79.206700, 18.105000]
        ]]
      }
    },
    {
      "type": "Feature",
      "id": "W-14-021",
      "properties": {
        "ward_number": 21,
        "ward_code": "W-14-021",
        "ward_name": "Zone_14 Municipal Ward 21",
        "population_census": 19350,
        "residential_properties": 4180,
        "commercial_units": 665,
        "sanitation_workers_allocated": 16,
        "nodal_officer": "OFF-ZONE14-WARD21",
        "helpline": "+91-1800-425-1161"
      },
      "geometry": {
        "type": "Polygon",
        "coordinates": [[
          [79.207700, 18.106000],
          [79.217700, 18.108000],
          [79.219700, 18.121000],
          [79.210700, 18.124000],
          [79.207700, 18.106000]
        ]]
      }
    },
    {
      "type": "Feature",
      "id": "W-14-022",
      "properties": {
        "ward_number": 22,
        "ward_code": "W-14-022",
        "ward_name": "Zone_14 Municipal Ward 22",
        "population_census": 19700,
        "residential_properties": 4260,
        "commercial_units": 680,
        "sanitation_workers_allocated": 17,
        "nodal_officer": "OFF-ZONE14-WARD22",
        "helpline": "+91-1800-425-1162"
      },
      "geometry": {
        "type": "Polygon",
        "coordinates": [[
          [79.208700, 18.107000],
          [79.218700, 18.109000],
          [79.220700, 18.122000],
          [79.211700, 18.125000],
          [79.208700, 18.107000]
        ]]
      }
    },
    {
      "type": "Feature",
      "id": "W-14-023",
      "properties": {
        "ward_number": 23,
        "ward_code": "W-14-023",
        "ward_name": "Zone_14 Municipal Ward 23",
        "population_census": 20050,
        "residential_properties": 4340,
        "commercial_units": 695,
        "sanitation_workers_allocated": 18,
        "nodal_officer": "OFF-ZONE14-WARD23",
        "helpline": "+91-1800-425-1163"
      },
      "geometry": {
        "type": "Polygon",
        "coordinates": [[
          [79.209700, 18.108000],
          [79.219700, 18.110000],
          [79.221700, 18.123000],
          [79.212700, 18.126000],
          [79.209700, 18.108000]
        ]]
      }
    },
    {
      "type": "Feature",
      "id": "W-14-024",
      "properties": {
        "ward_number": 24,
        "ward_code": "W-14-024",
        "ward_name": "Zone_14 Municipal Ward 24",
        "population_census": 20400,
        "residential_properties": 4420,
        "commercial_units": 710,
        "sanitation_workers_allocated": 19,
        "nodal_officer": "OFF-ZONE14-WARD24",
        "helpline": "+91-1800-425-1164"
      },
      "geometry": {
        "type": "Polygon",
        "coordinates": [[
          [79.210700, 18.109000],
          [79.220700, 18.111000],
          [79.222700, 18.124000],
          [79.213700, 18.127000],
          [79.210700, 18.109000]
        ]]
      }
    },
    {
      "type": "Feature",
      "id": "W-14-025",
      "properties": {
        "ward_number": 25,
        "ward_code": "W-14-025",
        "ward_name": "Zone_14 Municipal Ward 25",
        "population_census": 20750,
        "residential_properties": 4500,
        "commercial_units": 725,
        "sanitation_workers_allocated": 20,
        "nodal_officer": "OFF-ZONE14-WARD25",
        "helpline": "+91-1800-425-1165"
      },
      "geometry": {
        "type": "Polygon",
        "coordinates": [[
          [79.211700, 18.110000],
          [79.221700, 18.112000],
          [79.223700, 18.125000],
          [79.214700, 18.128000],
          [79.211700, 18.110000]
        ]]
      }
    },
    {
      "type": "Feature",
      "id": "W-14-026",
      "properties": {
        "ward_number": 26,
        "ward_code": "W-14-026",
        "ward_name": "Zone_14 Municipal Ward 26",
        "population_census": 21100,
        "residential_properties": 4580,
        "commercial_units": 740,
        "sanitation_workers_allocated": 21,
        "nodal_officer": "OFF-ZONE14-WARD26",
        "helpline": "+91-1800-425-1166"
      },
      "geometry": {
        "type": "Polygon",
        "coordinates": [[
          [79.212700, 18.111000],
          [79.222700, 18.113000],
          [79.224700, 18.126000],
          [79.215700, 18.129000],
          [79.212700, 18.111000]
        ]]
      }
    },
    {
      "type": "Feature",
      "id": "W-14-027",
      "properties": {
        "ward_number": 27,
        "ward_code": "W-14-027",
        "ward_name": "Zone_14 Municipal Ward 27",
        "population_census": 21450,
        "residential_properties": 4660,
        "commercial_units": 755,
        "sanitation_workers_allocated": 22,
        "nodal_officer": "OFF-ZONE14-WARD27",
        "helpline": "+91-1800-425-1167"
      },
      "geometry": {
        "type": "Polygon",
        "coordinates": [[
          [79.213700, 18.112000],
          [79.223700, 18.114000],
          [79.225700, 18.127000],
          [79.216700, 18.130000],
          [79.213700, 18.112000]
        ]]
      }
    },
    {
      "type": "Feature",
      "id": "W-14-028",
      "properties": {
        "ward_number": 28,
        "ward_code": "W-14-028",
        "ward_name": "Zone_14 Municipal Ward 28",
        "population_census": 21800,
        "residential_properties": 4740,
        "commercial_units": 770,
        "sanitation_workers_allocated": 23,
        "nodal_officer": "OFF-ZONE14-WARD28",
        "helpline": "+91-1800-425-1168"
      },
      "geometry": {
        "type": "Polygon",
        "coordinates": [[
          [79.214700, 18.113000],
          [79.224700, 18.115000],
          [79.226700, 18.128000],
          [79.217700, 18.131000],
          [79.214700, 18.113000]
        ]]
      }
    },
    {
      "type": "Feature",
      "id": "W-14-029",
      "properties": {
        "ward_number": 29,
        "ward_code": "W-14-029",
        "ward_name": "Zone_14 Municipal Ward 29",
        "population_census": 22150,
        "residential_properties": 4820,
        "commercial_units": 785,
        "sanitation_workers_allocated": 24,
        "nodal_officer": "OFF-ZONE14-WARD29",
        "helpline": "+91-1800-425-1169"
      },
      "geometry": {
        "type": "Polygon",
        "coordinates": [[
          [79.215700, 18.114000],
          [79.225700, 18.116000],
          [79.227700, 18.129000],
          [79.218700, 18.132000],
          [79.215700, 18.114000]
        ]]
      }
    },
    {
      "type": "Feature",
      "id": "W-14-030",
      "properties": {
        "ward_number": 30,
        "ward_code": "W-14-030",
        "ward_name": "Zone_14 Municipal Ward 30",
        "population_census": 22500,
        "residential_properties": 4900,
        "commercial_units": 800,
        "sanitation_workers_allocated": 25,
        "nodal_officer": "OFF-ZONE14-WARD30",
        "helpline": "+91-1800-425-1170"
      },
      "geometry": {
        "type": "Polygon",
        "coordinates": [[
          [79.216700, 18.115000],
          [79.226700, 18.117000],
          [79.228700, 18.130000],
          [79.219700, 18.133000],
          [79.216700, 18.115000]
        ]]
      }
    },
    {
      "type": "Feature",
      "id": "W-14-031",
      "properties": {
        "ward_number": 31,
        "ward_code": "W-14-031",
        "ward_name": "Zone_14 Municipal Ward 31",
        "population_census": 22850,
        "residential_properties": 4980,
        "commercial_units": 815,
        "sanitation_workers_allocated": 26,
        "nodal_officer": "OFF-ZONE14-WARD31",
        "helpline": "+91-1800-425-1171"
      },
      "geometry": {
        "type": "Polygon",
        "coordinates": [[
          [79.217700, 18.116000],
          [79.227700, 18.118000],
          [79.229700, 18.131000],
          [79.220700, 18.134000],
          [79.217700, 18.116000]
        ]]
      }
    },
    {
      "type": "Feature",
      "id": "W-14-032",
      "properties": {
        "ward_number": 32,
        "ward_code": "W-14-032",
        "ward_name": "Zone_14 Municipal Ward 32",
        "population_census": 23200,
        "residential_properties": 5060,
        "commercial_units": 830,
        "sanitation_workers_allocated": 27,
        "nodal_officer": "OFF-ZONE14-WARD32",
        "helpline": "+91-1800-425-1172"
      },
      "geometry": {
        "type": "Polygon",
        "coordinates": [[
          [79.218700, 18.117000],
          [79.228700, 18.119000],
          [79.230700, 18.132000],
          [79.221700, 18.135000],
          [79.218700, 18.117000]
        ]]
      }
    },
    {
      "type": "Feature",
      "id": "W-14-033",
      "properties": {
        "ward_number": 33,
        "ward_code": "W-14-033",
        "ward_name": "Zone_14 Municipal Ward 33",
        "population_census": 23550,
        "residential_properties": 5140,
        "commercial_units": 845,
        "sanitation_workers_allocated": 28,
        "nodal_officer": "OFF-ZONE14-WARD33",
        "helpline": "+91-1800-425-1173"
      },
      "geometry": {
        "type": "Polygon",
        "coordinates": [[
          [79.219700, 18.118000],
          [79.229700, 18.120000],
          [79.231700, 18.133000],
          [79.222700, 18.136000],
          [79.219700, 18.118000]
        ]]
      }
    },
    {
      "type": "Feature",
      "id": "W-14-034",
      "properties": {
        "ward_number": 34,
        "ward_code": "W-14-034",
        "ward_name": "Zone_14 Municipal Ward 34",
        "population_census": 23900,
        "residential_properties": 5220,
        "commercial_units": 860,
        "sanitation_workers_allocated": 29,
        "nodal_officer": "OFF-ZONE14-WARD34",
        "helpline": "+91-1800-425-1174"
      },
      "geometry": {
        "type": "Polygon",
        "coordinates": [[
          [79.220700, 18.119000],
          [79.230700, 18.121000],
          [79.232700, 18.134000],
          [79.223700, 18.137000],
          [79.220700, 18.119000]
        ]]
      }
    },
    {
      "type": "Feature",
      "id": "W-14-035",
      "properties": {
        "ward_number": 35,
        "ward_code": "W-14-035",
        "ward_name": "Zone_14 Municipal Ward 35",
        "population_census": 24250,
        "residential_properties": 5300,
        "commercial_units": 875,
        "sanitation_workers_allocated": 30,
        "nodal_officer": "OFF-ZONE14-WARD35",
        "helpline": "+91-1800-425-1175"
      },
      "geometry": {
        "type": "Polygon",
        "coordinates": [[
          [79.221700, 18.120000],
          [79.231700, 18.122000],
          [79.233700, 18.135000],
          [79.224700, 18.138000],
          [79.221700, 18.120000]
        ]]
      }
    },
    {
      "type": "Feature",
      "id": "W-14-036",
      "properties": {
        "ward_number": 36,
        "ward_code": "W-14-036",
        "ward_name": "Zone_14 Municipal Ward 36",
        "population_census": 24600,
        "residential_properties": 5380,
        "commercial_units": 890,
        "sanitation_workers_allocated": 31,
        "nodal_officer": "OFF-ZONE14-WARD36",
        "helpline": "+91-1800-425-1176"
      },
      "geometry": {
        "type": "Polygon",
        "coordinates": [[
          [79.222700, 18.121000],
          [79.232700, 18.123000],
          [79.234700, 18.136000],
          [79.225700, 18.139000],
          [79.222700, 18.121000]
        ]]
      }
    },
    {
      "type": "Feature",
      "id": "W-14-037",
      "properties": {
        "ward_number": 37,
        "ward_code": "W-14-037",
        "ward_name": "Zone_14 Municipal Ward 37",
        "population_census": 24950,
        "residential_properties": 5460,
        "commercial_units": 905,
        "sanitation_workers_allocated": 32,
        "nodal_officer": "OFF-ZONE14-WARD37",
        "helpline": "+91-1800-425-1177"
      },
      "geometry": {
        "type": "Polygon",
        "coordinates": [[
          [79.223700, 18.122000],
          [79.233700, 18.124000],
          [79.235700, 18.137000],
          [79.226700, 18.140000],
          [79.223700, 18.122000]
        ]]
      }
    },
    {
      "type": "Feature",
      "id": "W-14-038",
      "properties": {
        "ward_number": 38,
        "ward_code": "W-14-038",
        "ward_name": "Zone_14 Municipal Ward 38",
        "population_census": 25300,
        "residential_properties": 5540,
        "commercial_units": 920,
        "sanitation_workers_allocated": 33,
        "nodal_officer": "OFF-ZONE14-WARD38",
        "helpline": "+91-1800-425-1178"
      },
      "geometry": {
        "type": "Polygon",
        "coordinates": [[
          [79.224700, 18.123000],
          [79.234700, 18.125000],
          [79.236700, 18.138000],
          [79.227700, 18.141000],
          [79.224700, 18.123000]
        ]]
      }
    },
    {
      "type": "Feature",
      "id": "W-14-039",
      "properties": {
        "ward_number": 39,
        "ward_code": "W-14-039",
        "ward_name": "Zone_14 Municipal Ward 39",
        "population_census": 25650,
        "residential_properties": 5620,
        "commercial_units": 935,
        "sanitation_workers_allocated": 34,
        "nodal_officer": "OFF-ZONE14-WARD39",
        "helpline": "+91-1800-425-1179"
      },
      "geometry": {
        "type": "Polygon",
        "coordinates": [[
          [79.225700, 18.124000],
          [79.235700, 18.126000],
          [79.237700, 18.139000],
          [79.228700, 18.142000],
          [79.225700, 18.124000]
        ]]
      }
    },
    {
      "type": "Feature",
      "id": "W-14-040",
      "properties": {
        "ward_number": 40,
        "ward_code": "W-14-040",
        "ward_name": "Zone_14 Municipal Ward 40",
        "population_census": 26000,
        "residential_properties": 5700,
        "commercial_units": 950,
        "sanitation_workers_allocated": 15,
        "nodal_officer": "OFF-ZONE14-WARD40",
        "helpline": "+91-1800-425-1180"
      },
      "geometry": {
        "type": "Polygon",
        "coordinates": [[
          [79.226700, 18.125000],
          [79.236700, 18.127000],
          [79.238700, 18.140000],
          [79.229700, 18.143000],
          [79.226700, 18.125000]
        ]]
      }
    },
    {
      "type": "Feature",
      "id": "W-14-041",
      "properties": {
        "ward_number": 41,
        "ward_code": "W-14-041",
        "ward_name": "Zone_14 Municipal Ward 41",
        "population_census": 26350,
        "residential_properties": 5780,
        "commercial_units": 965,
        "sanitation_workers_allocated": 16,
        "nodal_officer": "OFF-ZONE14-WARD41",
        "helpline": "+91-1800-425-1181"
      },
      "geometry": {
        "type": "Polygon",
        "coordinates": [[
          [79.227700, 18.126000],
          [79.237700, 18.128000],
          [79.239700, 18.141000],
          [79.230700, 18.144000],
          [79.227700, 18.126000]
        ]]
      }
    },
    {
      "type": "Feature",
      "id": "W-14-042",
      "properties": {
        "ward_number": 42,
        "ward_code": "W-14-042",
        "ward_name": "Zone_14 Municipal Ward 42",
        "population_census": 26700,
        "residential_properties": 5860,
        "commercial_units": 980,
        "sanitation_workers_allocated": 17,
        "nodal_officer": "OFF-ZONE14-WARD42",
        "helpline": "+91-1800-425-1182"
      },
      "geometry": {
        "type": "Polygon",
        "coordinates": [[
          [79.228700, 18.127000],
          [79.238700, 18.129000],
          [79.240700, 18.142000],
          [79.231700, 18.145000],
          [79.228700, 18.127000]
        ]]
      }
    },
    {
      "type": "Feature",
      "id": "W-14-043",
      "properties": {
        "ward_number": 43,
        "ward_code": "W-14-043",
        "ward_name": "Zone_14 Municipal Ward 43",
        "population_census": 27050,
        "residential_properties": 5940,
        "commercial_units": 995,
        "sanitation_workers_allocated": 18,
        "nodal_officer": "OFF-ZONE14-WARD43",
        "helpline": "+91-1800-425-1183"
      },
      "geometry": {
        "type": "Polygon",
        "coordinates": [[
          [79.229700, 18.128000],
          [79.239700, 18.130000],
          [79.241700, 18.143000],
          [79.232700, 18.146000],
          [79.229700, 18.128000]
        ]]
      }
    },
    {
      "type": "Feature",
      "id": "W-14-044",
      "properties": {
        "ward_number": 44,
        "ward_code": "W-14-044",
        "ward_name": "Zone_14 Municipal Ward 44",
        "population_census": 27400,
        "residential_properties": 6020,
        "commercial_units": 1010,
        "sanitation_workers_allocated": 19,
        "nodal_officer": "OFF-ZONE14-WARD44",
        "helpline": "+91-1800-425-1184"
      },
      "geometry": {
        "type": "Polygon",
        "coordinates": [[
          [79.230700, 18.129000],
          [79.240700, 18.131000],
          [79.242700, 18.144000],
          [79.233700, 18.147000],
          [79.230700, 18.129000]
        ]]
      }
    },
    {
      "type": "Feature",
      "id": "W-14-045",
      "properties": {
        "ward_number": 45,
        "ward_code": "W-14-045",
        "ward_name": "Zone_14 Municipal Ward 45",
        "population_census": 27750,
        "residential_properties": 6100,
        "commercial_units": 1025,
        "sanitation_workers_allocated": 20,
        "nodal_officer": "OFF-ZONE14-WARD45",
        "helpline": "+91-1800-425-1185"
      },
      "geometry": {
        "type": "Polygon",
        "coordinates": [[
          [79.231700, 18.130000],
          [79.241700, 18.132000],
          [79.243700, 18.145000],
          [79.234700, 18.148000],
          [79.231700, 18.130000]
        ]]
      }
    },
    {
      "type": "Feature",
      "id": "W-14-046",
      "properties": {
        "ward_number": 46,
        "ward_code": "W-14-046",
        "ward_name": "Zone_14 Municipal Ward 46",
        "population_census": 28100,
        "residential_properties": 6180,
        "commercial_units": 1040,
        "sanitation_workers_allocated": 21,
        "nodal_officer": "OFF-ZONE14-WARD46",
        "helpline": "+91-1800-425-1186"
      },
      "geometry": {
        "type": "Polygon",
        "coordinates": [[
          [79.232700, 18.131000],
          [79.242700, 18.133000],
          [79.244700, 18.146000],
          [79.235700, 18.149000],
          [79.232700, 18.131000]
        ]]
      }
    },
    {
      "type": "Feature",
      "id": "W-14-047",
      "properties": {
        "ward_number": 47,
        "ward_code": "W-14-047",
        "ward_name": "Zone_14 Municipal Ward 47",
        "population_census": 28450,
        "residential_properties": 6260,
        "commercial_units": 1055,
        "sanitation_workers_allocated": 22,
        "nodal_officer": "OFF-ZONE14-WARD47",
        "helpline": "+91-1800-425-1187"
      },
      "geometry": {
        "type": "Polygon",
        "coordinates": [[
          [79.233700, 18.132000],
          [79.243700, 18.134000],
          [79.245700, 18.147000],
          [79.236700, 18.150000],
          [79.233700, 18.132000]
        ]]
      }
    },
    {
      "type": "Feature",
      "id": "W-14-048",
      "properties": {
        "ward_number": 48,
        "ward_code": "W-14-048",
        "ward_name": "Zone_14 Municipal Ward 48",
        "population_census": 28800,
        "residential_properties": 6340,
        "commercial_units": 1070,
        "sanitation_workers_allocated": 23,
        "nodal_officer": "OFF-ZONE14-WARD48",
        "helpline": "+91-1800-425-1188"
      },
      "geometry": {
        "type": "Polygon",
        "coordinates": [[
          [79.234700, 18.133000],
          [79.244700, 18.135000],
          [79.246700, 18.148000],
          [79.237700, 18.151000],
          [79.234700, 18.133000]
        ]]
      }
    },
    {
      "type": "Feature",
      "id": "W-14-049",
      "properties": {
        "ward_number": 49,
        "ward_code": "W-14-049",
        "ward_name": "Zone_14 Municipal Ward 49",
        "population_census": 29150,
        "residential_properties": 6420,
        "commercial_units": 1085,
        "sanitation_workers_allocated": 24,
        "nodal_officer": "OFF-ZONE14-WARD49",
        "helpline": "+91-1800-425-1189"
      },
      "geometry": {
        "type": "Polygon",
        "coordinates": [[
          [79.235700, 18.134000],
          [79.245700, 18.136000],
          [79.247700, 18.149000],
          [79.238700, 18.152000],
          [79.235700, 18.134000]
        ]]
      }
    },
    {
      "type": "Feature",
      "id": "W-14-050",
      "properties": {
        "ward_number": 50,
        "ward_code": "W-14-050",
        "ward_name": "Zone_14 Municipal Ward 50",
        "population_census": 29500,
        "residential_properties": 6500,
        "commercial_units": 1100,
        "sanitation_workers_allocated": 25,
        "nodal_officer": "OFF-ZONE14-WARD50",
        "helpline": "+91-1800-425-1190"
      },
      "geometry": {
        "type": "Polygon",
        "coordinates": [[
          [79.236700, 18.135000],
          [79.246700, 18.137000],
          [79.248700, 18.150000],
          [79.239700, 18.153000],
          [79.236700, 18.135000]
        ]]
      }
    },
    {
      "type": "Feature",
      "id": "W-14-051",
      "properties": {
        "ward_number": 51,
        "ward_code": "W-14-051",
        "ward_name": "Zone_14 Municipal Ward 51",
        "population_census": 29850,
        "residential_properties": 6580,
        "commercial_units": 1115,
        "sanitation_workers_allocated": 26,
        "nodal_officer": "OFF-ZONE14-WARD51",
        "helpline": "+91-1800-425-1191"
      },
      "geometry": {
        "type": "Polygon",
        "coordinates": [[
          [79.237700, 18.136000],
          [79.247700, 18.138000],
          [79.249700, 18.151000],
          [79.240700, 18.154000],
          [79.237700, 18.136000]
        ]]
      }
    },
    {
      "type": "Feature",
      "id": "W-14-052",
      "properties": {
        "ward_number": 52,
        "ward_code": "W-14-052",
        "ward_name": "Zone_14 Municipal Ward 52",
        "population_census": 30200,
        "residential_properties": 6660,
        "commercial_units": 1130,
        "sanitation_workers_allocated": 27,
        "nodal_officer": "OFF-ZONE14-WARD52",
        "helpline": "+91-1800-425-1192"
      },
      "geometry": {
        "type": "Polygon",
        "coordinates": [[
          [79.238700, 18.137000],
          [79.248700, 18.139000],
          [79.250700, 18.152000],
          [79.241700, 18.155000],
          [79.238700, 18.137000]
        ]]
      }
    },
    {
      "type": "Feature",
      "id": "W-14-053",
      "properties": {
        "ward_number": 53,
        "ward_code": "W-14-053",
        "ward_name": "Zone_14 Municipal Ward 53",
        "population_census": 30550,
        "residential_properties": 6740,
        "commercial_units": 1145,
        "sanitation_workers_allocated": 28,
        "nodal_officer": "OFF-ZONE14-WARD53",
        "helpline": "+91-1800-425-1193"
      },
      "geometry": {
        "type": "Polygon",
        "coordinates": [[
          [79.239700, 18.138000],
          [79.249700, 18.140000],
          [79.251700, 18.153000],
          [79.242700, 18.156000],
          [79.239700, 18.138000]
        ]]
      }
    },
    {
      "type": "Feature",
      "id": "W-14-054",
      "properties": {
        "ward_number": 54,
        "ward_code": "W-14-054",
        "ward_name": "Zone_14 Municipal Ward 54",
        "population_census": 30900,
        "residential_properties": 6820,
        "commercial_units": 1160,
        "sanitation_workers_allocated": 29,
        "nodal_officer": "OFF-ZONE14-WARD54",
        "helpline": "+91-1800-425-1194"
      },
      "geometry": {
        "type": "Polygon",
        "coordinates": [[
          [79.240700, 18.139000],
          [79.250700, 18.141000],
          [79.252700, 18.154000],
          [79.243700, 18.157000],
          [79.240700, 18.139000]
        ]]
      }
    },
    {
      "type": "Feature",
      "id": "W-14-055",
      "properties": {
        "ward_number": 55,
        "ward_code": "W-14-055",
        "ward_name": "Zone_14 Municipal Ward 55",
        "population_census": 31250,
        "residential_properties": 6900,
        "commercial_units": 1175,
        "sanitation_workers_allocated": 30,
        "nodal_officer": "OFF-ZONE14-WARD55",
        "helpline": "+91-1800-425-1195"
      },
      "geometry": {
        "type": "Polygon",
        "coordinates": [[
          [79.241700, 18.140000],
          [79.251700, 18.142000],
          [79.253700, 18.155000],
          [79.244700, 18.158000],
          [79.241700, 18.140000]
        ]]
      }
    },
    {
      "type": "Feature",
      "id": "W-14-056",
      "properties": {
        "ward_number": 56,
        "ward_code": "W-14-056",
        "ward_name": "Zone_14 Municipal Ward 56",
        "population_census": 31600,
        "residential_properties": 6980,
        "commercial_units": 1190,
        "sanitation_workers_allocated": 31,
        "nodal_officer": "OFF-ZONE14-WARD56",
        "helpline": "+91-1800-425-1196"
      },
      "geometry": {
        "type": "Polygon",
        "coordinates": [[
          [79.242700, 18.141000],
          [79.252700, 18.143000],
          [79.254700, 18.156000],
          [79.245700, 18.159000],
          [79.242700, 18.141000]
        ]]
      }
    },
    {
      "type": "Feature",
      "id": "W-14-057",
      "properties": {
        "ward_number": 57,
        "ward_code": "W-14-057",
        "ward_name": "Zone_14 Municipal Ward 57",
        "population_census": 31950,
        "residential_properties": 7060,
        "commercial_units": 1205,
        "sanitation_workers_allocated": 32,
        "nodal_officer": "OFF-ZONE14-WARD57",
        "helpline": "+91-1800-425-1197"
      },
      "geometry": {
        "type": "Polygon",
        "coordinates": [[
          [79.243700, 18.142000],
          [79.253700, 18.144000],
          [79.255700, 18.157000],
          [79.246700, 18.160000],
          [79.243700, 18.142000]
        ]]
      }
    },
    {
      "type": "Feature",
      "id": "W-14-058",
      "properties": {
        "ward_number": 58,
        "ward_code": "W-14-058",
        "ward_name": "Zone_14 Municipal Ward 58",
        "population_census": 32300,
        "residential_properties": 7140,
        "commercial_units": 1220,
        "sanitation_workers_allocated": 33,
        "nodal_officer": "OFF-ZONE14-WARD58",
        "helpline": "+91-1800-425-1198"
      },
      "geometry": {
        "type": "Polygon",
        "coordinates": [[
          [79.244700, 18.143000],
          [79.254700, 18.145000],
          [79.256700, 18.158000],
          [79.247700, 18.161000],
          [79.244700, 18.143000]
        ]]
      }
    },
    {
      "type": "Feature",
      "id": "W-14-059",
      "properties": {
        "ward_number": 59,
        "ward_code": "W-14-059",
        "ward_name": "Zone_14 Municipal Ward 59",
        "population_census": 32650,
        "residential_properties": 7220,
        "commercial_units": 1235,
        "sanitation_workers_allocated": 34,
        "nodal_officer": "OFF-ZONE14-WARD59",
        "helpline": "+91-1800-425-1199"
      },
      "geometry": {
        "type": "Polygon",
        "coordinates": [[
          [79.245700, 18.144000],
          [79.255700, 18.146000],
          [79.257700, 18.159000],
          [79.248700, 18.162000],
          [79.245700, 18.144000]
        ]]
      }
    },
    {
      "type": "Feature",
      "id": "W-14-060",
      "properties": {
        "ward_number": 60,
        "ward_code": "W-14-060",
        "ward_name": "Zone_14 Municipal Ward 60",
        "population_census": 33000,
        "residential_properties": 7300,
        "commercial_units": 1250,
        "sanitation_workers_allocated": 15,
        "nodal_officer": "OFF-ZONE14-WARD60",
        "helpline": "+91-1800-425-1200"
      },
      "geometry": {
        "type": "Polygon",
        "coordinates": [[
          [79.246700, 18.145000],
          [79.256700, 18.147000],
          [79.258700, 18.160000],
          [79.249700, 18.163000],
          [79.246700, 18.145000]
        ]]
      }
    },
    {
      "type": "Feature",
      "id": "W-14-061",
      "properties": {
        "ward_number": 61,
        "ward_code": "W-14-061",
        "ward_name": "Zone_14 Municipal Ward 61",
        "population_census": 33350,
        "residential_properties": 7380,
        "commercial_units": 1265,
        "sanitation_workers_allocated": 16,
        "nodal_officer": "OFF-ZONE14-WARD61",
        "helpline": "+91-1800-425-1201"
      },
      "geometry": {
        "type": "Polygon",
        "coordinates": [[
          [79.247700, 18.146000],
          [79.257700, 18.148000],
          [79.259700, 18.161000],
          [79.250700, 18.164000],
          [79.247700, 18.146000]
        ]]
      }
    },
    {
      "type": "Feature",
      "id": "W-14-062",
      "properties": {
        "ward_number": 62,
        "ward_code": "W-14-062",
        "ward_name": "Zone_14 Municipal Ward 62",
        "population_census": 33700,
        "residential_properties": 7460,
        "commercial_units": 1280,
        "sanitation_workers_allocated": 17,
        "nodal_officer": "OFF-ZONE14-WARD62",
        "helpline": "+91-1800-425-1202"
      },
      "geometry": {
        "type": "Polygon",
        "coordinates": [[
          [79.248700, 18.147000],
          [79.258700, 18.149000],
          [79.260700, 18.162000],
          [79.251700, 18.165000],
          [79.248700, 18.147000]
        ]]
      }
    },
    {
      "type": "Feature",
      "id": "W-14-063",
      "properties": {
        "ward_number": 63,
        "ward_code": "W-14-063",
        "ward_name": "Zone_14 Municipal Ward 63",
        "population_census": 34050,
        "residential_properties": 7540,
        "commercial_units": 1295,
        "sanitation_workers_allocated": 18,
        "nodal_officer": "OFF-ZONE14-WARD63",
        "helpline": "+91-1800-425-1203"
      },
      "geometry": {
        "type": "Polygon",
        "coordinates": [[
          [79.249700, 18.148000],
          [79.259700, 18.150000],
          [79.261700, 18.163000],
          [79.252700, 18.166000],
          [79.249700, 18.148000]
        ]]
      }
    },
    {
      "type": "Feature",
      "id": "W-14-064",
      "properties": {
        "ward_number": 64,
        "ward_code": "W-14-064",
        "ward_name": "Zone_14 Municipal Ward 64",
        "population_census": 34400,
        "residential_properties": 7620,
        "commercial_units": 1310,
        "sanitation_workers_allocated": 19,
        "nodal_officer": "OFF-ZONE14-WARD64",
        "helpline": "+91-1800-425-1204"
      },
      "geometry": {
        "type": "Polygon",
        "coordinates": [[
          [79.250700, 18.149000],
          [79.260700, 18.151000],
          [79.262700, 18.164000],
          [79.253700, 18.167000],
          [79.250700, 18.149000]
        ]]
      }
    },
    {
      "type": "Feature",
      "id": "W-14-065",
      "properties": {
        "ward_number": 65,
        "ward_code": "W-14-065",
        "ward_name": "Zone_14 Municipal Ward 65",
        "population_census": 34750,
        "residential_properties": 7700,
        "commercial_units": 1325,
        "sanitation_workers_allocated": 20,
        "nodal_officer": "OFF-ZONE14-WARD65",
        "helpline": "+91-1800-425-1205"
      },
      "geometry": {
        "type": "Polygon",
        "coordinates": [[
          [79.251700, 18.150000],
          [79.261700, 18.152000],
          [79.263700, 18.165000],
          [79.254700, 18.168000],
          [79.251700, 18.150000]
        ]]
      }
    },
    {
      "type": "Feature",
      "id": "W-14-066",
      "properties": {
        "ward_number": 66,
        "ward_code": "W-14-066",
        "ward_name": "Zone_14 Municipal Ward 66",
        "population_census": 35100,
        "residential_properties": 7780,
        "commercial_units": 1340,
        "sanitation_workers_allocated": 21,
        "nodal_officer": "OFF-ZONE14-WARD66",
        "helpline": "+91-1800-425-1206"
      },
      "geometry": {
        "type": "Polygon",
        "coordinates": [[
          [79.252700, 18.151000],
          [79.262700, 18.153000],
          [79.264700, 18.166000],
          [79.255700, 18.169000],
          [79.252700, 18.151000]
        ]]
      }
    },
    {
      "type": "Feature",
      "id": "W-14-067",
      "properties": {
        "ward_number": 67,
        "ward_code": "W-14-067",
        "ward_name": "Zone_14 Municipal Ward 67",
        "population_census": 35450,
        "residential_properties": 7860,
        "commercial_units": 1355,
        "sanitation_workers_allocated": 22,
        "nodal_officer": "OFF-ZONE14-WARD67",
        "helpline": "+91-1800-425-1207"
      },
      "geometry": {
        "type": "Polygon",
        "coordinates": [[
          [79.253700, 18.152000],
          [79.263700, 18.154000],
          [79.265700, 18.167000],
          [79.256700, 18.170000],
          [79.253700, 18.152000]
        ]]
      }
    },
    {
      "type": "Feature",
      "id": "W-14-068",
      "properties": {
        "ward_number": 68,
        "ward_code": "W-14-068",
        "ward_name": "Zone_14 Municipal Ward 68",
        "population_census": 35800,
        "residential_properties": 7940,
        "commercial_units": 1370,
        "sanitation_workers_allocated": 23,
        "nodal_officer": "OFF-ZONE14-WARD68",
        "helpline": "+91-1800-425-1208"
      },
      "geometry": {
        "type": "Polygon",
        "coordinates": [[
          [79.254700, 18.153000],
          [79.264700, 18.155000],
          [79.266700, 18.168000],
          [79.257700, 18.171000],
          [79.254700, 18.153000]
        ]]
      }
    },
    {
      "type": "Feature",
      "id": "W-14-069",
      "properties": {
        "ward_number": 69,
        "ward_code": "W-14-069",
        "ward_name": "Zone_14 Municipal Ward 69",
        "population_census": 36150,
        "residential_properties": 8020,
        "commercial_units": 1385,
        "sanitation_workers_allocated": 24,
        "nodal_officer": "OFF-ZONE14-WARD69",
        "helpline": "+91-1800-425-1209"
      },
      "geometry": {
        "type": "Polygon",
        "coordinates": [[
          [79.255700, 18.154000],
          [79.265700, 18.156000],
          [79.267700, 18.169000],
          [79.258700, 18.172000],
          [79.255700, 18.154000]
        ]]
      }
    },
    {
      "type": "Feature",
      "id": "W-14-070",
      "properties": {
        "ward_number": 70,
        "ward_code": "W-14-070",
        "ward_name": "Zone_14 Municipal Ward 70",
        "population_census": 36500,
        "residential_properties": 8100,
        "commercial_units": 1400,
        "sanitation_workers_allocated": 25,
        "nodal_officer": "OFF-ZONE14-WARD70",
        "helpline": "+91-1800-425-1210"
      },
      "geometry": {
        "type": "Polygon",
        "coordinates": [[
          [79.256700, 18.155000],
          [79.266700, 18.157000],
          [79.268700, 18.170000],
          [79.259700, 18.173000],
          [79.256700, 18.155000]
        ]]
      }
    },
    {
      "type": "Feature",
      "id": "W-14-071",
      "properties": {
        "ward_number": 71,
        "ward_code": "W-14-071",
        "ward_name": "Zone_14 Municipal Ward 71",
        "population_census": 36850,
        "residential_properties": 8180,
        "commercial_units": 1415,
        "sanitation_workers_allocated": 26,
        "nodal_officer": "OFF-ZONE14-WARD71",
        "helpline": "+91-1800-425-1211"
      },
      "geometry": {
        "type": "Polygon",
        "coordinates": [[
          [79.257700, 18.156000],
          [79.267700, 18.158000],
          [79.269700, 18.171000],
          [79.260700, 18.174000],
          [79.257700, 18.156000]
        ]]
      }
    },
    {
      "type": "Feature",
      "id": "W-14-072",
      "properties": {
        "ward_number": 72,
        "ward_code": "W-14-072",
        "ward_name": "Zone_14 Municipal Ward 72",
        "population_census": 37200,
        "residential_properties": 8260,
        "commercial_units": 1430,
        "sanitation_workers_allocated": 27,
        "nodal_officer": "OFF-ZONE14-WARD72",
        "helpline": "+91-1800-425-1212"
      },
      "geometry": {
        "type": "Polygon",
        "coordinates": [[
          [79.258700, 18.157000],
          [79.268700, 18.159000],
          [79.270700, 18.172000],
          [79.261700, 18.175000],
          [79.258700, 18.157000]
        ]]
      }
    },
    {
      "type": "Feature",
      "id": "W-14-073",
      "properties": {
        "ward_number": 73,
        "ward_code": "W-14-073",
        "ward_name": "Zone_14 Municipal Ward 73",
        "population_census": 37550,
        "residential_properties": 8340,
        "commercial_units": 1445,
        "sanitation_workers_allocated": 28,
        "nodal_officer": "OFF-ZONE14-WARD73",
        "helpline": "+91-1800-425-1213"
      },
      "geometry": {
        "type": "Polygon",
        "coordinates": [[
          [79.259700, 18.158000],
          [79.269700, 18.160000],
          [79.271700, 18.173000],
          [79.262700, 18.176000],
          [79.259700, 18.158000]
        ]]
      }
    },
    {
      "type": "Feature",
      "id": "W-14-074",
      "properties": {
        "ward_number": 74,
        "ward_code": "W-14-074",
        "ward_name": "Zone_14 Municipal Ward 74",
        "population_census": 37900,
        "residential_properties": 8420,
        "commercial_units": 1460,
        "sanitation_workers_allocated": 29,
        "nodal_officer": "OFF-ZONE14-WARD74",
        "helpline": "+91-1800-425-1214"
      },
      "geometry": {
        "type": "Polygon",
        "coordinates": [[
          [79.260700, 18.159000],
          [79.270700, 18.161000],
          [79.272700, 18.174000],
          [79.263700, 18.177000],
          [79.260700, 18.159000]
        ]]
      }
    },
    {
      "type": "Feature",
      "id": "W-14-075",
      "properties": {
        "ward_number": 75,
        "ward_code": "W-14-075",
        "ward_name": "Zone_14 Municipal Ward 75",
        "population_census": 38250,
        "residential_properties": 8500,
        "commercial_units": 1475,
        "sanitation_workers_allocated": 30,
        "nodal_officer": "OFF-ZONE14-WARD75",
        "helpline": "+91-1800-425-1215"
      },
      "geometry": {
        "type": "Polygon",
        "coordinates": [[
          [79.261700, 18.160000],
          [79.271700, 18.162000],
          [79.273700, 18.175000],
          [79.264700, 18.178000],
          [79.261700, 18.160000]
        ]]
      }
    },
    {
      "type": "Feature",
      "id": "W-14-076",
      "properties": {
        "ward_number": 76,
        "ward_code": "W-14-076",
        "ward_name": "Zone_14 Municipal Ward 76",
        "population_census": 38600,
        "residential_properties": 8580,
        "commercial_units": 1490,
        "sanitation_workers_allocated": 31,
        "nodal_officer": "OFF-ZONE14-WARD76",
        "helpline": "+91-1800-425-1216"
      },
      "geometry": {
        "type": "Polygon",
        "coordinates": [[
          [79.262700, 18.161000],
          [79.272700, 18.163000],
          [79.274700, 18.176000],
          [79.265700, 18.179000],
          [79.262700, 18.161000]
        ]]
      }
    },
    {
      "type": "Feature",
      "id": "W-14-077",
      "properties": {
        "ward_number": 77,
        "ward_code": "W-14-077",
        "ward_name": "Zone_14 Municipal Ward 77",
        "population_census": 38950,
        "residential_properties": 8660,
        "commercial_units": 1505,
        "sanitation_workers_allocated": 32,
        "nodal_officer": "OFF-ZONE14-WARD77",
        "helpline": "+91-1800-425-1217"
      },
      "geometry": {
        "type": "Polygon",
        "coordinates": [[
          [79.263700, 18.162000],
          [79.273700, 18.164000],
          [79.275700, 18.177000],
          [79.266700, 18.180000],
          [79.263700, 18.162000]
        ]]
      }
    },
    {
      "type": "Feature",
      "id": "W-14-078",
      "properties": {
        "ward_number": 78,
        "ward_code": "W-14-078",
        "ward_name": "Zone_14 Municipal Ward 78",
        "population_census": 39300,
        "residential_properties": 8740,
        "commercial_units": 1520,
        "sanitation_workers_allocated": 33,
        "nodal_officer": "OFF-ZONE14-WARD78",
        "helpline": "+91-1800-425-1218"
      },
      "geometry": {
        "type": "Polygon",
        "coordinates": [[
          [79.264700, 18.163000],
          [79.274700, 18.165000],
          [79.276700, 18.178000],
          [79.267700, 18.181000],
          [79.264700, 18.163000]
        ]]
      }
    },
    {
      "type": "Feature",
      "id": "W-14-079",
      "properties": {
        "ward_number": 79,
        "ward_code": "W-14-079",
        "ward_name": "Zone_14 Municipal Ward 79",
        "population_census": 39650,
        "residential_properties": 8820,
        "commercial_units": 1535,
        "sanitation_workers_allocated": 34,
        "nodal_officer": "OFF-ZONE14-WARD79",
        "helpline": "+91-1800-425-1219"
      },
      "geometry": {
        "type": "Polygon",
        "coordinates": [[
          [79.265700, 18.164000],
          [79.275700, 18.166000],
          [79.277700, 18.179000],
          [79.268700, 18.182000],
          [79.265700, 18.164000]
        ]]
      }
    },
    {
      "type": "Feature",
      "id": "W-14-080",
      "properties": {
        "ward_number": 80,
        "ward_code": "W-14-080",
        "ward_name": "Zone_14 Municipal Ward 80",
        "population_census": 40000,
        "residential_properties": 8900,
        "commercial_units": 1550,
        "sanitation_workers_allocated": 15,
        "nodal_officer": "OFF-ZONE14-WARD80",
        "helpline": "+91-1800-425-1220"
      },
      "geometry": {
        "type": "Polygon",
        "coordinates": [[
          [79.266700, 18.165000],
          [79.276700, 18.167000],
          [79.278700, 18.180000],
          [79.269700, 18.183000],
          [79.266700, 18.165000]
        ]]
      }
    },
    {
      "type": "Feature",
      "id": "W-14-081",
      "properties": {
        "ward_number": 81,
        "ward_code": "W-14-081",
        "ward_name": "Zone_14 Municipal Ward 81",
        "population_census": 40350,
        "residential_properties": 8980,
        "commercial_units": 1565,
        "sanitation_workers_allocated": 16,
        "nodal_officer": "OFF-ZONE14-WARD81",
        "helpline": "+91-1800-425-1221"
      },
      "geometry": {
        "type": "Polygon",
        "coordinates": [[
          [79.267700, 18.166000],
          [79.277700, 18.168000],
          [79.279700, 18.181000],
          [79.270700, 18.184000],
          [79.267700, 18.166000]
        ]]
      }
    },
    {
      "type": "Feature",
      "id": "W-14-082",
      "properties": {
        "ward_number": 82,
        "ward_code": "W-14-082",
        "ward_name": "Zone_14 Municipal Ward 82",
        "population_census": 40700,
        "residential_properties": 9060,
        "commercial_units": 1580,
        "sanitation_workers_allocated": 17,
        "nodal_officer": "OFF-ZONE14-WARD82",
        "helpline": "+91-1800-425-1222"
      },
      "geometry": {
        "type": "Polygon",
        "coordinates": [[
          [79.268700, 18.167000],
          [79.278700, 18.169000],
          [79.280700, 18.182000],
          [79.271700, 18.185000],
          [79.268700, 18.167000]
        ]]
      }
    },
    {
      "type": "Feature",
      "id": "W-14-083",
      "properties": {
        "ward_number": 83,
        "ward_code": "W-14-083",
        "ward_name": "Zone_14 Municipal Ward 83",
        "population_census": 41050,
        "residential_properties": 9140,
        "commercial_units": 1595,
        "sanitation_workers_allocated": 18,
        "nodal_officer": "OFF-ZONE14-WARD83",
        "helpline": "+91-1800-425-1223"
      },
      "geometry": {
        "type": "Polygon",
        "coordinates": [[
          [79.269700, 18.168000],
          [79.279700, 18.170000],
          [79.281700, 18.183000],
          [79.272700, 18.186000],
          [79.269700, 18.168000]
        ]]
      }
    },
    {
      "type": "Feature",
      "id": "W-14-084",
      "properties": {
        "ward_number": 84,
        "ward_code": "W-14-084",
        "ward_name": "Zone_14 Municipal Ward 84",
        "population_census": 41400,
        "residential_properties": 9220,
        "commercial_units": 1610,
        "sanitation_workers_allocated": 19,
        "nodal_officer": "OFF-ZONE14-WARD84",
        "helpline": "+91-1800-425-1224"
      },
      "geometry": {
        "type": "Polygon",
        "coordinates": [[
          [79.270700, 18.169000],
          [79.280700, 18.171000],
          [79.282700, 18.184000],
          [79.273700, 18.187000],
          [79.270700, 18.169000]
        ]]
      }
    },
    {
      "type": "Feature",
      "id": "W-14-085",
      "properties": {
        "ward_number": 85,
        "ward_code": "W-14-085",
        "ward_name": "Zone_14 Municipal Ward 85",
        "population_census": 41750,
        "residential_properties": 9300,
        "commercial_units": 1625,
        "sanitation_workers_allocated": 20,
        "nodal_officer": "OFF-ZONE14-WARD85",
        "helpline": "+91-1800-425-1225"
      },
      "geometry": {
        "type": "Polygon",
        "coordinates": [[
          [79.271700, 18.170000],
          [79.281700, 18.172000],
          [79.283700, 18.185000],
          [79.274700, 18.188000],
          [79.271700, 18.170000]
        ]]
      }
    },
    {
      "type": "Feature",
      "id": "W-14-086",
      "properties": {
        "ward_number": 86,
        "ward_code": "W-14-086",
        "ward_name": "Zone_14 Municipal Ward 86",
        "population_census": 42100,
        "residential_properties": 9380,
        "commercial_units": 1640,
        "sanitation_workers_allocated": 21,
        "nodal_officer": "OFF-ZONE14-WARD86",
        "helpline": "+91-1800-425-1226"
      },
      "geometry": {
        "type": "Polygon",
        "coordinates": [[
          [79.272700, 18.171000],
          [79.282700, 18.173000],
          [79.284700, 18.186000],
          [79.275700, 18.189000],
          [79.272700, 18.171000]
        ]]
      }
    },
    {
      "type": "Feature",
      "id": "W-14-087",
      "properties": {
        "ward_number": 87,
        "ward_code": "W-14-087",
        "ward_name": "Zone_14 Municipal Ward 87",
        "population_census": 42450,
        "residential_properties": 9460,
        "commercial_units": 1655,
        "sanitation_workers_allocated": 22,
        "nodal_officer": "OFF-ZONE14-WARD87",
        "helpline": "+91-1800-425-1227"
      },
      "geometry": {
        "type": "Polygon",
        "coordinates": [[
          [79.273700, 18.172000],
          [79.283700, 18.174000],
          [79.285700, 18.187000],
          [79.276700, 18.190000],
          [79.273700, 18.172000]
        ]]
      }
    },
    {
      "type": "Feature",
      "id": "W-14-088",
      "properties": {
        "ward_number": 88,
        "ward_code": "W-14-088",
        "ward_name": "Zone_14 Municipal Ward 88",
        "population_census": 42800,
        "residential_properties": 9540,
        "commercial_units": 1670,
        "sanitation_workers_allocated": 23,
        "nodal_officer": "OFF-ZONE14-WARD88",
        "helpline": "+91-1800-425-1228"
      },
      "geometry": {
        "type": "Polygon",
        "coordinates": [[
          [79.274700, 18.173000],
          [79.284700, 18.175000],
          [79.286700, 18.188000],
          [79.277700, 18.191000],
          [79.274700, 18.173000]
        ]]
      }
    },
    {
      "type": "Feature",
      "id": "W-14-089",
      "properties": {
        "ward_number": 89,
        "ward_code": "W-14-089",
        "ward_name": "Zone_14 Municipal Ward 89",
        "population_census": 43150,
        "residential_properties": 9620,
        "commercial_units": 1685,
        "sanitation_workers_allocated": 24,
        "nodal_officer": "OFF-ZONE14-WARD89",
        "helpline": "+91-1800-425-1229"
      },
      "geometry": {
        "type": "Polygon",
        "coordinates": [[
          [79.275700, 18.174000],
          [79.285700, 18.176000],
          [79.287700, 18.189000],
          [79.278700, 18.192000],
          [79.275700, 18.174000]
        ]]
      }
    },
    {
      "type": "Feature",
      "id": "W-14-090",
      "properties": {
        "ward_number": 90,
        "ward_code": "W-14-090",
        "ward_name": "Zone_14 Municipal Ward 90",
        "population_census": 43500,
        "residential_properties": 9700,
        "commercial_units": 1700,
        "sanitation_workers_allocated": 25,
        "nodal_officer": "OFF-ZONE14-WARD90",
        "helpline": "+91-1800-425-1230"
      },
      "geometry": {
        "type": "Polygon",
        "coordinates": [[
          [79.276700, 18.175000],
          [79.286700, 18.177000],
          [79.288700, 18.190000],
          [79.279700, 18.193000],
          [79.276700, 18.175000]
        ]]
      }
    },
    {
      "type": "Feature",
      "id": "W-14-091",
      "properties": {
        "ward_number": 91,
        "ward_code": "W-14-091",
        "ward_name": "Zone_14 Municipal Ward 91",
        "population_census": 43850,
        "residential_properties": 9780,
        "commercial_units": 1715,
        "sanitation_workers_allocated": 26,
        "nodal_officer": "OFF-ZONE14-WARD91",
        "helpline": "+91-1800-425-1231"
      },
      "geometry": {
        "type": "Polygon",
        "coordinates": [[
          [79.277700, 18.176000],
          [79.287700, 18.178000],
          [79.289700, 18.191000],
          [79.280700, 18.194000],
          [79.277700, 18.176000]
        ]]
      }
    },
    {
      "type": "Feature",
      "id": "W-14-092",
      "properties": {
        "ward_number": 92,
        "ward_code": "W-14-092",
        "ward_name": "Zone_14 Municipal Ward 92",
        "population_census": 44200,
        "residential_properties": 9860,
        "commercial_units": 1730,
        "sanitation_workers_allocated": 27,
        "nodal_officer": "OFF-ZONE14-WARD92",
        "helpline": "+91-1800-425-1232"
      },
      "geometry": {
        "type": "Polygon",
        "coordinates": [[
          [79.278700, 18.177000],
          [79.288700, 18.179000],
          [79.290700, 18.192000],
          [79.281700, 18.195000],
          [79.278700, 18.177000]
        ]]
      }
    },
    {
      "type": "Feature",
      "id": "W-14-093",
      "properties": {
        "ward_number": 93,
        "ward_code": "W-14-093",
        "ward_name": "Zone_14 Municipal Ward 93",
        "population_census": 44550,
        "residential_properties": 9940,
        "commercial_units": 1745,
        "sanitation_workers_allocated": 28,
        "nodal_officer": "OFF-ZONE14-WARD93",
        "helpline": "+91-1800-425-1233"
      },
      "geometry": {
        "type": "Polygon",
        "coordinates": [[
          [79.279700, 18.178000],
          [79.289700, 18.180000],
          [79.291700, 18.193000],
          [79.282700, 18.196000],
          [79.279700, 18.178000]
        ]]
      }
    },
    {
      "type": "Feature",
      "id": "W-14-094",
      "properties": {
        "ward_number": 94,
        "ward_code": "W-14-094",
        "ward_name": "Zone_14 Municipal Ward 94",
        "population_census": 44900,
        "residential_properties": 10020,
        "commercial_units": 1760,
        "sanitation_workers_allocated": 29,
        "nodal_officer": "OFF-ZONE14-WARD94",
        "helpline": "+91-1800-425-1234"
      },
      "geometry": {
        "type": "Polygon",
        "coordinates": [[
          [79.280700, 18.179000],
          [79.290700, 18.181000],
          [79.292700, 18.194000],
          [79.283700, 18.197000],
          [79.280700, 18.179000]
        ]]
      }
    },
    {
      "type": "Feature",
      "id": "W-14-095",
      "properties": {
        "ward_number": 95,
        "ward_code": "W-14-095",
        "ward_name": "Zone_14 Municipal Ward 95",
        "population_census": 45250,
        "residential_properties": 10100,
        "commercial_units": 1775,
        "sanitation_workers_allocated": 30,
        "nodal_officer": "OFF-ZONE14-WARD95",
        "helpline": "+91-1800-425-1235"
      },
      "geometry": {
        "type": "Polygon",
        "coordinates": [[
          [79.281700, 18.180000],
          [79.291700, 18.182000],
          [79.293700, 18.195000],
          [79.284700, 18.198000],
          [79.281700, 18.180000]
        ]]
      }
    },
    {
      "type": "Feature",
      "id": "W-14-096",
      "properties": {
        "ward_number": 96,
        "ward_code": "W-14-096",
        "ward_name": "Zone_14 Municipal Ward 96",
        "population_census": 45600,
        "residential_properties": 10180,
        "commercial_units": 1790,
        "sanitation_workers_allocated": 31,
        "nodal_officer": "OFF-ZONE14-WARD96",
        "helpline": "+91-1800-425-1236"
      },
      "geometry": {
        "type": "Polygon",
        "coordinates": [[
          [79.282700, 18.181000],
          [79.292700, 18.183000],
          [79.294700, 18.196000],
          [79.285700, 18.199000],
          [79.282700, 18.181000]
        ]]
      }
    },
    {
      "type": "Feature",
      "id": "W-14-097",
      "properties": {
        "ward_number": 97,
        "ward_code": "W-14-097",
        "ward_name": "Zone_14 Municipal Ward 97",
        "population_census": 45950,
        "residential_properties": 10260,
        "commercial_units": 1805,
        "sanitation_workers_allocated": 32,
        "nodal_officer": "OFF-ZONE14-WARD97",
        "helpline": "+91-1800-425-1237"
      },
      "geometry": {
        "type": "Polygon",
        "coordinates": [[
          [79.283700, 18.182000],
          [79.293700, 18.184000],
          [79.295700, 18.197000],
          [79.286700, 18.200000],
          [79.283700, 18.182000]
        ]]
      }
    },
    {
      "type": "Feature",
      "id": "W-14-098",
      "properties": {
        "ward_number": 98,
        "ward_code": "W-14-098",
        "ward_name": "Zone_14 Municipal Ward 98",
        "population_census": 46300,
        "residential_properties": 10340,
        "commercial_units": 1820,
        "sanitation_workers_allocated": 33,
        "nodal_officer": "OFF-ZONE14-WARD98",
        "helpline": "+91-1800-425-1238"
      },
      "geometry": {
        "type": "Polygon",
        "coordinates": [[
          [79.284700, 18.183000],
          [79.294700, 18.185000],
          [79.296700, 18.198000],
          [79.287700, 18.201000],
          [79.284700, 18.183000]
        ]]
      }
    },
    {
      "type": "Feature",
      "id": "W-14-099",
      "properties": {
        "ward_number": 99,
        "ward_code": "W-14-099",
        "ward_name": "Zone_14 Municipal Ward 99",
        "population_census": 46650,
        "residential_properties": 10420,
        "commercial_units": 1835,
        "sanitation_workers_allocated": 34,
        "nodal_officer": "OFF-ZONE14-WARD99",
        "helpline": "+91-1800-425-1239"
      },
      "geometry": {
        "type": "Polygon",
        "coordinates": [[
          [79.285700, 18.184000],
          [79.295700, 18.186000],
          [79.297700, 18.199000],
          [79.288700, 18.202000],
          [79.285700, 18.184000]
        ]]
      }
    },
    {
      "type": "Feature",
      "id": "W-14-100",
      "properties": {
        "ward_number": 100,
        "ward_code": "W-14-100",
        "ward_name": "Zone_14 Municipal Ward 100",
        "population_census": 47000,
        "residential_properties": 10500,
        "commercial_units": 1850,
        "sanitation_workers_allocated": 15,
        "nodal_officer": "OFF-ZONE14-WARD100",
        "helpline": "+91-1800-425-1240"
      },
      "geometry": {
        "type": "Polygon",
        "coordinates": [[
          [79.286700, 18.185000],
          [79.296700, 18.187000],
          [79.298700, 18.200000],
          [79.289700, 18.203000],
          [79.286700, 18.185000]
        ]]
      }
    }
  }
}