{
  "type": "FeatureCollection",
  "zone": "Zone_09",
  "crs": { "type": "name", "properties": { "name": "urn:ogc:def:crs:OGC:1.3:CRS84" } },
  "features": [
    {
      "type": "Feature",
      "id": "W-09-001",
      "properties": {
        "ward_number": 1,
        "ward_code": "W-09-001",
        "ward_name": "Zone_09 Municipal Ward 1",
        "population_census": 12350,
        "residential_properties": 2580,
        "commercial_units": 365,
        "sanitation_workers_allocated": 16,
        "nodal_officer": "OFF-ZONE9-WARD1",
        "helpline": "+91-1800-425-1091"
      },
      "geometry": {
        "type": "Polygon",
        "coordinates": [[
          [78.937700, 17.836000],
          [78.947700, 17.838000],
          [78.949700, 17.851000],
          [78.940700, 17.854000],
          [78.937700, 17.836000]
        ]]
      }
    },
    {
      "type": "Feature",
      "id": "W-09-002",
      "properties": {
        "ward_number": 2,
        "ward_code": "W-09-002",
        "ward_name": "Zone_09 Municipal Ward 2",
        "population_census": 12700,
        "residential_properties": 2660,
        "commercial_units": 380,
        "sanitation_workers_allocated": 17,
        "nodal_officer": "OFF-ZONE9-WARD2",
        "helpline": "+91-1800-425-1092"
      },
      "geometry": {
        "type": "Polygon",
        "coordinates": [[
          [78.938700, 17.837000],
          [78.948700, 17.839000],
          [78.950700, 17.852000],
          [78.941700, 17.855000],
          [78.938700, 17.837000]
        ]]
      }
    },
    {
      "type": "Feature",
      "id": "W-09-003",
      "properties": {
        "ward_number": 3,
        "ward_code": "W-09-003",
        "ward_name": "Zone_09 Municipal Ward 3",
        "population_census": 13050,
        "residential_properties": 2740,
        "commercial_units": 395,
        "sanitation_workers_allocated": 18,
        "nodal_officer": "OFF-ZONE9-WARD3",
        "helpline": "+91-1800-425-1093"
      },
      "geometry": {
        "type": "Polygon",
        "coordinates": [[
          [78.939700, 17.838000],
          [78.949700, 17.840000],
          [78.951700, 17.853000],
          [78.942700, 17.856000],
          [78.939700, 17.838000]
        ]]
      }
    },
    {
      "type": "Feature",
      "id": "W-09-004",
      "properties": {
        "ward_number": 4,
        "ward_code": "W-09-004",
        "ward_name": "Zone_09 Municipal Ward 4",
        "population_census": 13400,
        "residential_properties": 2820,
        "commercial_units": 410,
        "sanitation_workers_allocated": 19,
        "nodal_officer": "OFF-ZONE9-WARD4",
        "helpline": "+91-1800-425-1094"
      },
      "geometry": {
        "type": "Polygon",
        "coordinates": [[
          [78.940700, 17.839000],
          [78.950700, 17.841000],
          [78.952700, 17.854000],
          [78.943700, 17.857000],
          [78.940700, 17.839000]
        ]]
      }
    },
    {
      "type": "Feature",
      "id": "W-09-005",
      "properties": {
        "ward_number": 5,
        "ward_code": "W-09-005",
        "ward_name": "Zone_09 Municipal Ward 5",
        "population_census": 13750,
        "residential_properties": 2900,
        "commercial_units": 425,
        "sanitation_workers_allocated": 20,
        "nodal_officer": "OFF-ZONE9-WARD5",
        "helpline": "+91-1800-425-1095"
      },
      "geometry": {
        "type": "Polygon",
        "coordinates": [[
          [78.941700, 17.840000],
          [78.951700, 17.842000],
          [78.953700, 17.855000],
          [78.944700, 17.858000],
          [78.941700, 17.840000]
        ]]
      }
    },
    {
      "type": "Feature",
      "id": "W-09-006",
      "properties": {
        "ward_number": 6,
        "ward_code": "W-09-006",
        "ward_name": "Zone_09 Municipal Ward 6",
        "population_census": 14100,
        "residential_properties": 2980,
        "commercial_units": 440,
        "sanitation_workers_allocated": 21,
        "nodal_officer": "OFF-ZONE9-WARD6",
        "helpline": "+91-1800-425-1096"
      },
      "geometry": {
        "type": "Polygon",
        "coordinates": [[
          [78.942700, 17.841000],
          [78.952700, 17.843000],
          [78.954700, 17.856000],
          [78.945700, 17.859000],
          [78.942700, 17.841000]
        ]]
      }
    },
    {
      "type": "Feature",
      "id": "W-09-007",
      "properties": {
        "ward_number": 7,
        "ward_code": "W-09-007",
        "ward_name": "Zone_09 Municipal Ward 7",
        "population_census": 14450,
        "residential_properties": 3060,
        "commercial_units": 455,
        "sanitation_workers_allocated": 22,
        "nodal_officer": "OFF-ZONE9-WARD7",
        "helpline": "+91-1800-425-1097"
      },
      "geometry": {
        "type": "Polygon",
        "coordinates": [[
          [78.943700, 17.842000],
          [78.953700, 17.844000],
          [78.955700, 17.857000],
          [78.946700, 17.860000],
          [78.943700, 17.842000]
        ]]
      }
    },
    {
      "type": "Feature",
      "id": "W-09-008",
      "properties": {
        "ward_number": 8,
        "ward_code": "W-09-008",
        "ward_name": "Zone_09 Municipal Ward 8",
        "population_census": 14800,
        "residential_properties": 3140,
        "commercial_units": 470,
        "sanitation_workers_allocated": 23,
        "nodal_officer": "OFF-ZONE9-WARD8",
        "helpline": "+91-1800-425-1098"
      },
      "geometry": {
        "type": "Polygon",
        "coordinates": [[
          [78.944700, 17.843000],
          [78.954700, 17.845000],
          [78.956700, 17.858000],
          [78.947700, 17.861000],
          [78.944700, 17.843000]
        ]]
      }
    },
    {
      "type": "Feature",
      "id": "W-09-009",
      "properties": {
        "ward_number": 9,
        "ward_code": "W-09-009",
        "ward_name": "Zone_09 Municipal Ward 9",
        "population_census": 15150,
        "residential_properties": 3220,
        "commercial_units": 485,
        "sanitation_workers_allocated": 24,
        "nodal_officer": "OFF-ZONE9-WARD9",
        "helpline": "+91-1800-425-1099"
      },
      "geometry": {
        "type": "Polygon",
        "coordinates": [[
          [78.945700, 17.844000],
          [78.955700, 17.846000],
          [78.957700, 17.859000],
          [78.948700, 17.862000],
          [78.945700, 17.844000]
        ]]
      }
    },
    {
      "type": "Feature",
      "id": "W-09-010",
      "properties": {
        "ward_number": 10,
        "ward_code": "W-09-010",
        "ward_name": "Zone_09 Municipal Ward 10",
        "population_census": 15500,
        "residential_properties": 3300,
        "commercial_units": 500,
        "sanitation_workers_allocated": 25,
        "nodal_officer": "OFF-ZONE9-WARD10",
        "helpline": "+91-1800-425-1100"
      },
      "geometry": {
        "type": "Polygon",
        "coordinates": [[
          [78.946700, 17.845000],
          [78.956700, 17.847000],
          [78.958700, 17.860000],
          [78.949700, 17.863000],
          [78.946700, 17.845000]
        ]]
      }
    },
    {
      "type": "Feature",
      "id": "W-09-011",
      "properties": {
        "ward_number": 11,
        "ward_code": "W-09-011",
        "ward_name": "Zone_09 Municipal Ward 11",
        "population_census": 15850,
        "residential_properties": 3380,
        "commercial_units": 515,
        "sanitation_workers_allocated": 26,
        "nodal_officer": "OFF-ZONE9-WARD11",
        "helpline": "+91-1800-425-1101"
      },
      "geometry": {
        "type": "Polygon",
        "coordinates": [[
          [78.947700, 17.846000],
          [78.957700, 17.848000],
          [78.959700, 17.861000],
          [78.950700, 17.864000],
          [78.947700, 17.846000]
        ]]
      }
    },
    {
      "type": "Feature",
      "id": "W-09-012",
      "properties": {
        "ward_number": 12,
        "ward_code": "W-09-012",
        "ward_name": "Zone_09 Municipal Ward 12",
        "population_census": 16200,
        "residential_properties": 3460,
        "commercial_units": 530,
        "sanitation_workers_allocated": 27,
        "nodal_officer": "OFF-ZONE9-WARD12",
        "helpline": "+91-1800-425-1102"
      },
      "geometry": {
        "type": "Polygon",
        "coordinates": [[
          [78.948700, 17.847000],
          [78.958700, 17.849000],
          [78.960700, 17.862000],
          [78.951700, 17.865000],
          [78.948700, 17.847000]
        ]]
      }
    },
    {
      "type": "Feature",
      "id": "W-09-013",
      "properties": {
        "ward_number": 13,
        "ward_code": "W-09-013",
        "ward_name": "Zone_09 Municipal Ward 13",
        "population_census": 16550,
        "residential_properties": 3540,
        "commercial_units": 545,
        "sanitation_workers_allocated": 28,
        "nodal_officer": "OFF-ZONE9-WARD13",
        "helpline": "+91-1800-425-1103"
      },
      "geometry": {
        "type": "Polygon",
        "coordinates": [[
          [78.949700, 17.848000],
          [78.959700, 17.850000],
          [78.961700, 17.863000],
          [78.952700, 17.866000],
          [78.949700, 17.848000]
        ]]
      }
    },
    {
      "type": "Feature",
      "id": "W-09-014",
      "properties": {
        "ward_number": 14,
        "ward_code": "W-09-014",
        "ward_name": "Zone_09 Municipal Ward 14",
        "population_census": 16900,
        "residential_properties": 3620,
        "commercial_units": 560,
        "sanitation_workers_allocated": 29,
        "nodal_officer": "OFF-ZONE9-WARD14",
        "helpline": "+91-1800-425-1104"
      },
      "geometry": {
        "type": "Polygon",
        "coordinates": [[
          [78.950700, 17.849000],
          [78.960700, 17.851000],
          [78.962700, 17.864000],
          [78.953700, 17.867000],
          [78.950700, 17.849000]
        ]]
      }
    },
    {
      "type": "Feature",
      "id": "W-09-015",
      "properties": {
        "ward_number": 15,
        "ward_code": "W-09-015",
        "ward_name": "Zone_09 Municipal Ward 15",
        "population_census": 17250,
        "residential_properties": 3700,
        "commercial_units": 575,
        "sanitation_workers_allocated": 30,
        "nodal_officer": "OFF-ZONE9-WARD15",
        "helpline": "+91-1800-425-1105"
      },
      "geometry": {
        "type": "Polygon",
        "coordinates": [[
          [78.951700, 17.850000],
          [78.961700, 17.852000],
          [78.963700, 17.865000],
          [78.954700, 17.868000],
          [78.951700, 17.850000]
        ]]
      }
    },
    {
      "type": "Feature",
      "id": "W-09-016",
      "properties": {
        "ward_number": 16,
        "ward_code": "W-09-016",
        "ward_name": "Zone_09 Municipal Ward 16",
        "population_census": 17600,
        "residential_properties": 3780,
        "commercial_units": 590,
        "sanitation_workers_allocated": 31,
        "nodal_officer": "OFF-ZONE9-WARD16",
        "helpline": "+91-1800-425-1106"
      },
      "geometry": {
        "type": "Polygon",
        "coordinates": [[
          [78.952700, 17.851000],
          [78.962700, 17.853000],
          [78.964700, 17.866000],
          [78.955700, 17.869000],
          [78.952700, 17.851000]
        ]]
      }
    },
    {
      "type": "Feature",
      "id": "W-09-017",
      "properties": {
        "ward_number": 17,
        "ward_code": "W-09-017",
        "ward_name": "Zone_09 Municipal Ward 17",
        "population_census": 17950,
        "residential_properties": 3860,
        "commercial_units": 605,
        "sanitation_workers_allocated": 32,
        "nodal_officer": "OFF-ZONE9-WARD17",
        "helpline": "+91-1800-425-1107"
      },
      "geometry": {
        "type": "Polygon",
        "coordinates": [[
          [78.953700, 17.852000],
          [78.963700, 17.854000],
          [78.965700, 17.867000],
          [78.956700, 17.870000],
          [78.953700, 17.852000]
        ]]
      }
    },
    {
      "type": "Feature",
      "id": "W-09-018",
      "properties": {
        "ward_number": 18,
        "ward_code": "W-09-018",
        "ward_name": "Zone_09 Municipal Ward 18",
        "population_census": 18300,
        "residential_properties": 3940,
        "commercial_units": 620,
        "sanitation_workers_allocated": 33,
        "nodal_officer": "OFF-ZONE9-WARD18",
        "helpline": "+91-1800-425-1108"
      },
      "geometry": {
        "type": "Polygon",
        "coordinates": [[
          [78.954700, 17.853000],
          [78.964700, 17.855000],
          [78.966700, 17.868000],
          [78.957700, 17.871000],
          [78.954700, 17.853000]
        ]]
      }
    },
    {
      "type": "Feature",
      "id": "W-09-019",
      "properties": {
        "ward_number": 19,
        "ward_code": "W-09-019",
        "ward_name": "Zone_09 Municipal Ward 19",
        "population_census": 18650,
        "residential_properties": 4020,
        "commercial_units": 635,
        "sanitation_workers_allocated": 34,
        "nodal_officer": "OFF-ZONE9-WARD19",
        "helpline": "+91-1800-425-1109"
      },
      "geometry": {
        "type": "Polygon",
        "coordinates": [[
          [78.955700, 17.854000],
          [78.965700, 17.856000],
          [78.967700, 17.869000],
          [78.958700, 17.872000],
          [78.955700, 17.854000]
        ]]
      }
    },
    {
      "type": "Feature",
      "id": "W-09-020",
      "properties": {
        "ward_number": 20,
        "ward_code": "W-09-020",
        "ward_name": "Zone_09 Municipal Ward 20",
        "population_census": 19000,
        "residential_properties": 4100,
        "commercial_units": 650,
        "sanitation_workers_allocated": 15,
        "nodal_officer": "OFF-ZONE9-WARD20",
        "helpline": "+91-1800-425-1110"
      },
      "geometry": {
        "type": "Polygon",
        "coordinates": [[
          [78.956700, 17.855000],
          [78.966700, 17.857000],
          [78.968700, 17.870000],
          [78.959700, 17.873000],
          [78.956700, 17.855000]
        ]]
      }
    },
    {
      "type": "Feature",
      "id": "W-09-021",
      "properties": {
        "ward_number": 21,
        "ward_code": "W-09-021",
        "ward_name": "Zone_09 Municipal Ward 21",
        "population_census": 19350,
        "residential_properties": 4180,
        "commercial_units": 665,
        "sanitation_workers_allocated": 16,
        "nodal_officer": "OFF-ZONE9-WARD21",
        "helpline": "+91-1800-425-1111"
      },
      "geometry": {
        "type": "Polygon",
        "coordinates": [[
          [78.957700, 17.856000],
          [78.967700, 17.858000],
          [78.969700, 17.871000],
          [78.960700, 17.874000],
          [78.957700, 17.856000]
        ]]
      }
    },
    {
      "type": "Feature",
      "id": "W-09-022",
      "properties": {
        "ward_number": 22,
        "ward_code": "W-09-022",
        "ward_name": "Zone_09 Municipal Ward 22",
        "population_census": 19700,
        "residential_properties": 4260,
        "commercial_units": 680,
        "sanitation_workers_allocated": 17,
        "nodal_officer": "OFF-ZONE9-WARD22",
        "helpline": "+91-1800-425-1112"
      },
      "geometry": {
        "type": "Polygon",
        "coordinates": [[
          [78.958700, 17.857000],
          [78.968700, 17.859000],
          [78.970700, 17.872000],
          [78.961700, 17.875000],
          [78.958700, 17.857000]
        ]]
      }
    },
    {
      "type": "Feature",
      "id": "W-09-023",
      "properties": {
        "ward_number": 23,
        "ward_code": "W-09-023",
        "ward_name": "Zone_09 Municipal Ward 23",
        "population_census": 20050,
        "residential_properties": 4340,
        "commercial_units": 695,
        "sanitation_workers_allocated": 18,
        "nodal_officer": "OFF-ZONE9-WARD23",
        "helpline": "+91-1800-425-1113"
      },
      "geometry": {
        "type": "Polygon",
        "coordinates": [[
          [78.959700, 17.858000],
          [78.969700, 17.860000],
          [78.971700, 17.873000],
          [78.962700, 17.876000],
          [78.959700, 17.858000]
        ]]
      }
    },
    {
      "type": "Feature",
      "id": "W-09-024",
      "properties": {
        "ward_number": 24,
        "ward_code": "W-09-024",
        "ward_name": "Zone_09 Municipal Ward 24",
        "population_census": 20400,
        "residential_properties": 4420,
        "commercial_units": 710,
        "sanitation_workers_allocated": 19,
        "nodal_officer": "OFF-ZONE9-WARD24",
        "helpline": "+91-1800-425-1114"
      },
      "geometry": {
        "type": "Polygon",
        "coordinates": [[
          [78.960700, 17.859000],
          [78.970700, 17.861000],
          [78.972700, 17.874000],
          [78.963700, 17.877000],
          [78.960700, 17.859000]
        ]]
      }
    },
    {
      "type": "Feature",
      "id": "W-09-025",
      "properties": {
        "ward_number": 25,
        "ward_code": "W-09-025",
        "ward_name": "Zone_09 Municipal Ward 25",
        "population_census": 20750,
        "residential_properties": 4500,
        "commercial_units": 725,
        "sanitation_workers_allocated": 20,
        "nodal_officer": "OFF-ZONE9-WARD25",
        "helpline": "+91-1800-425-1115"
      },
      "geometry": {
        "type": "Polygon",
        "coordinates": [[
          [78.961700, 17.860000],
          [78.971700, 17.862000],
          [78.973700, 17.875000],
          [78.964700, 17.878000],
          [78.961700, 17.860000]
        ]]
      }
    },
    {
      "type": "Feature",
      "id": "W-09-026",
      "properties": {
        "ward_number": 26,
        "ward_code": "W-09-026",
        "ward_name": "Zone_09 Municipal Ward 26",
        "population_census": 21100,
        "residential_properties": 4580,
        "commercial_units": 740,
        "sanitation_workers_allocated": 21,
        "nodal_officer": "OFF-ZONE9-WARD26",
        "helpline": "+91-1800-425-1116"
      },
      "geometry": {
        "type": "Polygon",
        "coordinates": [[
          [78.962700, 17.861000],
          [78.972700, 17.863000],
          [78.974700, 17.876000],
          [78.965700, 17.879000],
          [78.962700, 17.861000]
        ]]
      }
    },
    {
      "type": "Feature",
      "id": "W-09-027",
      "properties": {
        "ward_number": 27,
        "ward_code": "W-09-027",
        "ward_name": "Zone_09 Municipal Ward 27",
        "population_census": 21450,
        "residential_properties": 4660,
        "commercial_units": 755,
        "sanitation_workers_allocated": 22,
        "nodal_officer": "OFF-ZONE9-WARD27",
        "helpline": "+91-1800-425-1117"
      },
      "geometry": {
        "type": "Polygon",
        "coordinates": [[
          [78.963700, 17.862000],
          [78.973700, 17.864000],
          [78.975700, 17.877000],
          [78.966700, 17.880000],
          [78.963700, 17.862000]
        ]]
      }
    },
    {
      "type": "Feature",
      "id": "W-09-028",
      "properties": {
        "ward_number": 28,
        "ward_code": "W-09-028",
        "ward_name": "Zone_09 Municipal Ward 28",
        "population_census": 21800,
        "residential_properties": 4740,
        "commercial_units": 770,
        "sanitation_workers_allocated": 23,
        "nodal_officer": "OFF-ZONE9-WARD28",
        "helpline": "+91-1800-425-1118"
      },
      "geometry": {
        "type": "Polygon",
        "coordinates": [[
          [78.964700, 17.863000],
          [78.974700, 17.865000],
          [78.976700, 17.878000],
          [78.967700, 17.881000],
          [78.964700, 17.863000]
        ]]
      }
    },
    {
      "type": "Feature",
      "id": "W-09-029",
      "properties": {
        "ward_number": 29,
        "ward_code": "W-09-029",
        "ward_name": "Zone_09 Municipal Ward 29",
        "population_census": 22150,
        "residential_properties": 4820,
        "commercial_units": 785,
        "sanitation_workers_allocated": 24,
        "nodal_officer": "OFF-ZONE9-WARD29",
        "helpline": "+91-1800-425-1119"
      },
      "geometry": {
        "type": "Polygon",
        "coordinates": [[
          [78.965700, 17.864000],
          [78.975700, 17.866000],
          [78.977700, 17.879000],
          [78.968700, 17.882000],
          [78.965700, 17.864000]
        ]]
      }
    },
    {
      "type": "Feature",
      "id": "W-09-030",
      "properties": {
        "ward_number": 30,
        "ward_code": "W-09-030",
        "ward_name": "Zone_09 Municipal Ward 30",
        "population_census": 22500,
        "residential_properties": 4900,
        "commercial_units": 800,
        "sanitation_workers_allocated": 25,
        "nodal_officer": "OFF-ZONE9-WARD30",
        "helpline": "+91-1800-425-1120"
      },
      "geometry": {
        "type": "Polygon",
        "coordinates": [[
          [78.966700, 17.865000],
          [78.976700, 17.867000],
          [78.978700, 17.880000],
          [78.969700, 17.883000],
          [78.966700, 17.865000]
        ]]
      }
    },
    {
      "type": "Feature",
      "id": "W-09-031",
      "properties": {
        "ward_number": 31,
        "ward_code": "W-09-031",
        "ward_name": "Zone_09 Municipal Ward 31",
        "population_census": 22850,
        "residential_properties": 4980,
        "commercial_units": 815,
        "sanitation_workers_allocated": 26,
        "nodal_officer": "OFF-ZONE9-WARD31",
        "helpline": "+91-1800-425-1121"
      },
      "geometry": {
        "type": "Polygon",
        "coordinates": [[
          [78.967700, 17.866000],
          [78.977700, 17.868000],
          [78.979700, 17.881000],
          [78.970700, 17.884000],
          [78.967700, 17.866000]
        ]]
      }
    },
    {
      "type": "Feature",
      "id": "W-09-032",
      "properties": {
        "ward_number": 32,
        "ward_code": "W-09-032",
        "ward_name": "Zone_09 Municipal Ward 32",
        "population_census": 23200,
        "residential_properties": 5060,
        "commercial_units": 830,
        "sanitation_workers_allocated": 27,
        "nodal_officer": "OFF-ZONE9-WARD32",
        "helpline": "+91-1800-425-1122"
      },
      "geometry": {
        "type": "Polygon",
        "coordinates": [[
          [78.968700, 17.867000],
          [78.978700, 17.869000],
          [78.980700, 17.882000],
          [78.971700, 17.885000],
          [78.968700, 17.867000]
        ]]
      }
    },
    {
      "type": "Feature",
      "id": "W-09-033",
      "properties": {
        "ward_number": 33,
        "ward_code": "W-09-033",
        "ward_name": "Zone_09 Municipal Ward 33",
        "population_census": 23550,
        "residential_properties": 5140,
        "commercial_units": 845,
        "sanitation_workers_allocated": 28,
        "nodal_officer": "OFF-ZONE9-WARD33",
        "helpline": "+91-1800-425-1123"
      },
      "geometry": {
        "type": "Polygon",
        "coordinates": [[
          [78.969700, 17.868000],
          [78.979700, 17.870000],
          [78.981700, 17.883000],
          [78.972700, 17.886000],
          [78.969700, 17.868000]
        ]]
      }
    },
    {
      "type": "Feature",
      "id": "W-09-034",
      "properties": {
        "ward_number": 34,
        "ward_code": "W-09-034",
        "ward_name": "Zone_09 Municipal Ward 34",
        "population_census": 23900,
        "residential_properties": 5220,
        "commercial_units": 860,
        "sanitation_workers_allocated": 29,
        "nodal_officer": "OFF-ZONE9-WARD34",
        "helpline": "+91-1800-425-1124"
      },
      "geometry": {
        "type": "Polygon",
        "coordinates": [[
          [78.970700, 17.869000],
          [78.980700, 17.871000],
          [78.982700, 17.884000],
          [78.973700, 17.887000],
          [78.970700, 17.869000]
        ]]
      }
    },
    {
      "type": "Feature",
      "id": "W-09-035",
      "properties": {
        "ward_number": 35,
        "ward_code": "W-09-035",
        "ward_name": "Zone_09 Municipal Ward 35",
        "population_census": 24250,
        "residential_properties": 5300,
        "commercial_units": 875,
        "sanitation_workers_allocated": 30,
        "nodal_officer": "OFF-ZONE9-WARD35",
        "helpline": "+91-1800-425-1125"
      },
      "geometry": {
        "type": "Polygon",
        "coordinates": [[
          [78.971700, 17.870000],
          [78.981700, 17.872000],
          [78.983700, 17.885000],
          [78.974700, 17.888000],
          [78.971700, 17.870000]
        ]]
      }
    },
    {
      "type": "Feature",
      "id": "W-09-036",
      "properties": {
        "ward_number": 36,
        "ward_code": "W-09-036",
        "ward_name": "Zone_09 Municipal Ward 36",
        "population_census": 24600,
        "residential_properties": 5380,
        "commercial_units": 890,
        "sanitation_workers_allocated": 31,
        "nodal_officer": "OFF-ZONE9-WARD36",
        "helpline": "+91-1800-425-1126"
      },
      "geometry": {
        "type": "Polygon",
        "coordinates": [[
          [78.972700, 17.871000],
          [78.982700, 17.873000],
          [78.984700, 17.886000],
          [78.975700, 17.889000],
          [78.972700, 17.871000]
        ]]
      }
    },
    {
      "type": "Feature",
      "id": "W-09-037",
      "properties": {
        "ward_number": 37,
        "ward_code": "W-09-037",
        "ward_name": "Zone_09 Municipal Ward 37",
        "population_census": 24950,
        "residential_properties": 5460,
        "commercial_units": 905,
        "sanitation_workers_allocated": 32,
        "nodal_officer": "OFF-ZONE9-WARD37",
        "helpline": "+91-1800-425-1127"
      },
      "geometry": {
        "type": "Polygon",
        "coordinates": [[
          [78.973700, 17.872000],
          [78.983700, 17.874000],
          [78.985700, 17.887000],
          [78.976700, 17.890000],
          [78.973700, 17.872000]
        ]]
      }
    },
    {
      "type": "Feature",
      "id": "W-09-038",
      "properties": {
        "ward_number": 38,
        "ward_code": "W-09-038",
        "ward_name": "Zone_09 Municipal Ward 38",
        "population_census": 25300,
        "residential_properties": 5540,
        "commercial_units": 920,
        "sanitation_workers_allocated": 33,
        "nodal_officer": "OFF-ZONE9-WARD38",
        "helpline": "+91-1800-425-1128"
      },
      "geometry": {
        "type": "Polygon",
        "coordinates": [[
          [78.974700, 17.873000],
          [78.984700, 17.875000],
          [78.986700, 17.888000],
          [78.977700, 17.891000],
          [78.974700, 17.873000]
        ]]
      }
    },
    {
      "type": "Feature",
      "id": "W-09-039",
      "properties": {
        "ward_number": 39,
        "ward_code": "W-09-039",
        "ward_name": "Zone_09 Municipal Ward 39",
        "population_census": 25650,
        "residential_properties": 5620,
        "commercial_units": 935,
        "sanitation_workers_allocated": 34,
        "nodal_officer": "OFF-ZONE9-WARD39",
        "helpline": "+91-1800-425-1129"
      },
      "geometry": {
        "type": "Polygon",
        "coordinates": [[
          [78.975700, 17.874000],
          [78.985700, 17.876000],
          [78.987700, 17.889000],
          [78.978700, 17.892000],
          [78.975700, 17.874000]
        ]]
      }
    },
    {
      "type": "Feature",
      "id": "W-09-040",
      "properties": {
        "ward_number": 40,
        "ward_code": "W-09-040",
        "ward_name": "Zone_09 Municipal Ward 40",
        "population_census": 26000,
        "residential_properties": 5700,
        "commercial_units": 950,
        "sanitation_workers_allocated": 15,
        "nodal_officer": "OFF-ZONE9-WARD40",
        "helpline": "+91-1800-425-1130"
      },
      "geometry": {
        "type": "Polygon",
        "coordinates": [[
          [78.976700, 17.875000],
          [78.986700, 17.877000],
          [78.988700, 17.890000],
          [78.979700, 17.893000],
          [78.976700, 17.875000]
        ]]
      }
    },
    {
      "type": "Feature",
      "id": "W-09-041",
      "properties": {
        "ward_number": 41,
        "ward_code": "W-09-041",
        "ward_name": "Zone_09 Municipal Ward 41",
        "population_census": 26350,
        "residential_properties": 5780,
        "commercial_units": 965,
        "sanitation_workers_allocated": 16,
        "nodal_officer": "OFF-ZONE9-WARD41",
        "helpline": "+91-1800-425-1131"
      },
      "geometry": {
        "type": "Polygon",
        "coordinates": [[
          [78.977700, 17.876000],
          [78.987700, 17.878000],
          [78.989700, 17.891000],
          [78.980700, 17.894000],
          [78.977700, 17.876000]
        ]]
      }
    },
    {
      "type": "Feature",
      "id": "W-09-042",
      "properties": {
        "ward_number": 42,
        "ward_code": "W-09-042",
        "ward_name": "Zone_09 Municipal Ward 42",
        "population_census": 26700,
        "residential_properties": 5860,
        "commercial_units": 980,
        "sanitation_workers_allocated": 17,
        "nodal_officer": "OFF-ZONE9-WARD42",
        "helpline": "+91-1800-425-1132"
      },
      "geometry": {
        "type": "Polygon",
        "coordinates": [[
          [78.978700, 17.877000],
          [78.988700, 17.879000],
          [78.990700, 17.892000],
          [78.981700, 17.895000],
          [78.978700, 17.877000]
        ]]
      }
    },
    {
      "type": "Feature",
      "id": "W-09-043",
      "properties": {
        "ward_number": 43,
        "ward_code": "W-09-043",
        "ward_name": "Zone_09 Municipal Ward 43",
        "population_census": 27050,
        "residential_properties": 5940,
        "commercial_units": 995,
        "sanitation_workers_allocated": 18,
        "nodal_officer": "OFF-ZONE9-WARD43",
        "helpline": "+91-1800-425-1133"
      },
      "geometry": {
        "type": "Polygon",
        "coordinates": [[
          [78.979700, 17.878000],
          [78.989700, 17.880000],
          [78.991700, 17.893000],
          [78.982700, 17.896000],
          [78.979700, 17.878000]
        ]]
      }
    },
    {
      "type": "Feature",
      "id": "W-09-044",
      "properties": {
        "ward_number": 44,
        "ward_code": "W-09-044",
        "ward_name": "Zone_09 Municipal Ward 44",
        "population_census": 27400,
        "residential_properties": 6020,
        "commercial_units": 1010,
        "sanitation_workers_allocated": 19,
        "nodal_officer": "OFF-ZONE9-WARD44",
        "helpline": "+91-1800-425-1134"
      },
      "geometry": {
        "type": "Polygon",
        "coordinates": [[
          [78.980700, 17.879000],
          [78.990700, 17.881000],
          [78.992700, 17.894000],
          [78.983700, 17.897000],
          [78.980700, 17.879000]
        ]]
      }
    },
    {
      "type": "Feature",
      "id": "W-09-045",
      "properties": {
        "ward_number": 45,
        "ward_code": "W-09-045",
        "ward_name": "Zone_09 Municipal Ward 45",
        "population_census": 27750,
        "residential_properties": 6100,
        "commercial_units": 1025,
        "sanitation_workers_allocated": 20,
        "nodal_officer": "OFF-ZONE9-WARD45",
        "helpline": "+91-1800-425-1135"
      },
      "geometry": {
        "type": "Polygon",
        "coordinates": [[
          [78.981700, 17.880000],
          [78.991700, 17.882000],
          [78.993700, 17.895000],
          [78.984700, 17.898000],
          [78.981700, 17.880000]
        ]]
      }
    },
    {
      "type": "Feature",
      "id": "W-09-046",
      "properties": {
        "ward_number": 46,
        "ward_code": "W-09-046",
        "ward_name": "Zone_09 Municipal Ward 46",
        "population_census": 28100,
        "residential_properties": 6180,
        "commercial_units": 1040,
        "sanitation_workers_allocated": 21,
        "nodal_officer": "OFF-ZONE9-WARD46",
        "helpline": "+91-1800-425-1136"
      },
      "geometry": {
        "type": "Polygon",
        "coordinates": [[
          [78.982700, 17.881000],
          [78.992700, 17.883000],
          [78.994700, 17.896000],
          [78.985700, 17.899000],
          [78.982700, 17.881000]
        ]]
      }
    },
    {
      "type": "Feature",
      "id": "W-09-047",
      "properties": {
        "ward_number": 47,
        "ward_code": "W-09-047",
        "ward_name": "Zone_09 Municipal Ward 47",
        "population_census": 28450,
        "residential_properties": 6260,
        "commercial_units": 1055,
        "sanitation_workers_allocated": 22,
        "nodal_officer": "OFF-ZONE9-WARD47",
        "helpline": "+91-1800-425-1137"
      },
      "geometry": {
        "type": "Polygon",
        "coordinates": [[
          [78.983700, 17.882000],
          [78.993700, 17.884000],
          [78.995700, 17.897000],
          [78.986700, 17.900000],
          [78.983700, 17.882000]
        ]]
      }
    },
    {
      "type": "Feature",
      "id": "W-09-048",
      "properties": {
        "ward_number": 48,
        "ward_code": "W-09-048",
        "ward_name": "Zone_09 Municipal Ward 48",
        "population_census": 28800,
        "residential_properties": 6340,
        "commercial_units": 1070,
        "sanitation_workers_allocated": 23,
        "nodal_officer": "OFF-ZONE9-WARD48",
        "helpline": "+91-1800-425-1138"
      },
      "geometry": {
        "type": "Polygon",
        "coordinates": [[
          [78.984700, 17.883000],
          [78.994700, 17.885000],
          [78.996700, 17.898000],
          [78.987700, 17.901000],
          [78.984700, 17.883000]
        ]]
      }
    },
    {
      "type": "Feature",
      "id": "W-09-049",
      "properties": {
        "ward_number": 49,
        "ward_code": "W-09-049",
        "ward_name": "Zone_09 Municipal Ward 49",
        "population_census": 29150,
        "residential_properties": 6420,
        "commercial_units": 1085,
        "sanitation_workers_allocated": 24,
        "nodal_officer": "OFF-ZONE9-WARD49",
        "helpline": "+91-1800-425-1139"
      },
      "geometry": {
        "type": "Polygon",
        "coordinates": [[
          [78.985700, 17.884000],
          [78.995700, 17.886000],
          [78.997700, 17.899000],
          [78.988700, 17.902000],
          [78.985700, 17.884000]
        ]]
      }
    },
    {
      "type": "Feature",
      "id": "W-09-050",
      "properties": {
        "ward_number": 50,
        "ward_code": "W-09-050",
        "ward_name": "Zone_09 Municipal Ward 50",
        "population_census": 29500,
        "residential_properties": 6500,
        "commercial_units": 1100,
        "sanitation_workers_allocated": 25,
        "nodal_officer": "OFF-ZONE9-WARD50",
        "helpline": "+91-1800-425-1140"
      },
      "geometry": {
        "type": "Polygon",
        "coordinates": [[
          [78.986700, 17.885000],
          [78.996700, 17.887000],
          [78.998700, 17.900000],
          [78.989700, 17.903000],
          [78.986700, 17.885000]
        ]]
      }
    },
    {
      "type": "Feature",
      "id": "W-09-051",
      "properties": {
        "ward_number": 51,
        "ward_code": "W-09-051",
        "ward_name": "Zone_09 Municipal Ward 51",
        "population_census": 29850,
        "residential_properties": 6580,
        "commercial_units": 1115,
        "sanitation_workers_allocated": 26,
        "nodal_officer": "OFF-ZONE9-WARD51",
        "helpline": "+91-1800-425-1141"
      },
      "geometry": {
        "type": "Polygon",
        "coordinates": [[
          [78.987700, 17.886000],
          [78.997700, 17.888000],
          [78.999700, 17.901000],
          [78.990700, 17.904000],
          [78.987700, 17.886000]
        ]]
      }
    },
    {
      "type": "Feature",
      "id": "W-09-052",
      "properties": {
        "ward_number": 52,
        "ward_code": "W-09-052",
        "ward_name": "Zone_09 Municipal Ward 52",
        "population_census": 30200,
        "residential_properties": 6660,
        "commercial_units": 1130,
        "sanitation_workers_allocated": 27,
        "nodal_officer": "OFF-ZONE9-WARD52",
        "helpline": "+91-1800-425-1142"
      },
      "geometry": {
        "type": "Polygon",
        "coordinates": [[
          [78.988700, 17.887000],
          [78.998700, 17.889000],
          [79.000700, 17.902000],
          [78.991700, 17.905000],
          [78.988700, 17.887000]
        ]]
      }
    },
    {
      "type": "Feature",
      "id": "W-09-053",
      "properties": {
        "ward_number": 53,
        "ward_code": "W-09-053",
        "ward_name": "Zone_09 Municipal Ward 53",
        "population_census": 30550,
        "residential_properties": 6740,
        "commercial_units": 1145,
        "sanitation_workers_allocated": 28,
        "nodal_officer": "OFF-ZONE9-WARD53",
        "helpline": "+91-1800-425-1143"
      },
      "geometry": {
        "type": "Polygon",
        "coordinates": [[
          [78.989700, 17.888000],
          [78.999700, 17.890000],
          [79.001700, 17.903000],
          [78.992700, 17.906000],
          [78.989700, 17.888000]
        ]]
      }
    },
    {
      "type": "Feature",
      "id": "W-09-054",
      "properties": {
        "ward_number": 54,
        "ward_code": "W-09-054",
        "ward_name": "Zone_09 Municipal Ward 54",
        "population_census": 30900,
        "residential_properties": 6820,
        "commercial_units": 1160,
        "sanitation_workers_allocated": 29,
        "nodal_officer": "OFF-ZONE9-WARD54",
        "helpline": "+91-1800-425-1144"
      },
      "geometry": {
        "type": "Polygon",
        "coordinates": [[
          [78.990700, 17.889000],
          [79.000700, 17.891000],
          [79.002700, 17.904000],
          [78.993700, 17.907000],
          [78.990700, 17.889000]
        ]]
      }
    },
    {
      "type": "Feature",
      "id": "W-09-055",
      "properties": {
        "ward_number": 55,
        "ward_code": "W-09-055",
        "ward_name": "Zone_09 Municipal Ward 55",
        "population_census": 31250,
        "residential_properties": 6900,
        "commercial_units": 1175,
        "sanitation_workers_allocated": 30,
        "nodal_officer": "OFF-ZONE9-WARD55",
        "helpline": "+91-1800-425-1145"
      },
      "geometry": {
        "type": "Polygon",
        "coordinates": [[
          [78.991700, 17.890000],
          [79.001700, 17.892000],
          [79.003700, 17.905000],
          [78.994700, 17.908000],
          [78.991700, 17.890000]
        ]]
      }
    },
    {
      "type": "Feature",
      "id": "W-09-056",
      "properties": {
        "ward_number": 56,
        "ward_code": "W-09-056",
        "ward_name": "Zone_09 Municipal Ward 56",
        "population_census": 31600,
        "residential_properties": 6980,
        "commercial_units": 1190,
        "sanitation_workers_allocated": 31,
        "nodal_officer": "OFF-ZONE9-WARD56",
        "helpline": "+91-1800-425-1146"
      },
      "geometry": {
        "type": "Polygon",
        "coordinates": [[
          [78.992700, 17.891000],
          [79.002700, 17.893000],
          [79.004700, 17.906000],
          [78.995700, 17.909000],
          [78.992700, 17.891000]
        ]]
      }
    },
    {
      "type": "Feature",
      "id": "W-09-057",
      "properties": {
        "ward_number": 57,
        "ward_code": "W-09-057",
        "ward_name": "Zone_09 Municipal Ward 57",
        "population_census": 31950,
        "residential_properties": 7060,
        "commercial_units": 1205,
        "sanitation_workers_allocated": 32,
        "nodal_officer": "OFF-ZONE9-WARD57",
        "helpline": "+91-1800-425-1147"
      },
      "geometry": {
        "type": "Polygon",
        "coordinates": [[
          [78.993700, 17.892000],
          [79.003700, 17.894000],
          [79.005700, 17.907000],
          [78.996700, 17.910000],
          [78.993700, 17.892000]
        ]]
      }
    },
    {
      "type": "Feature",
      "id": "W-09-058",
      "properties": {
        "ward_number": 58,
        "ward_code": "W-09-058",
        "ward_name": "Zone_09 Municipal Ward 58",
        "population_census": 32300,
        "residential_properties": 7140,
        "commercial_units": 1220,
        "sanitation_workers_allocated": 33,
        "nodal_officer": "OFF-ZONE9-WARD58",
        "helpline": "+91-1800-425-1148"
      },
      "geometry": {
        "type": "Polygon",
        "coordinates": [[
          [78.994700, 17.893000],
          [79.004700, 17.895000],
          [79.006700, 17.908000],
          [78.997700, 17.911000],
          [78.994700, 17.893000]
        ]]
      }
    },
    {
      "type": "Feature",
      "id": "W-09-059",
      "properties": {
        "ward_number": 59,
        "ward_code": "W-09-059",
        "ward_name": "Zone_09 Municipal Ward 59",
        "population_census": 32650,
        "residential_properties": 7220,
        "commercial_units": 1235,
        "sanitation_workers_allocated": 34,
        "nodal_officer": "OFF-ZONE9-WARD59",
        "helpline": "+91-1800-425-1149"
      },
      "geometry": {
        "type": "Polygon",
        "coordinates": [[
          [78.995700, 17.894000],
          [79.005700, 17.896000],
          [79.007700, 17.909000],
          [78.998700, 17.912000],
          [78.995700, 17.894000]
        ]]
      }
    },
    {
      "type": "Feature",
      "id": "W-09-060",
      "properties": {
        "ward_number": 60,
        "ward_code": "W-09-060",
        "ward_name": "Zone_09 Municipal Ward 60",
        "population_census": 33000,
        "residential_properties": 7300,
        "commercial_units": 1250,
        "sanitation_workers_allocated": 15,
        "nodal_officer": "OFF-ZONE9-WARD60",
        "helpline": "+91-1800-425-1150"
      },
      "geometry": {
        "type": "Polygon",
        "coordinates": [[
          [78.996700, 17.895000],
          [79.006700, 17.897000],
          [79.008700, 17.910000],
          [78.999700, 17.913000],
          [78.996700, 17.895000]
        ]]
      }
    },
    {
      "type": "Feature",
      "id": "W-09-061",
      "properties": {
        "ward_number": 61,
        "ward_code": "W-09-061",
        "ward_name": "Zone_09 Municipal Ward 61",
        "population_census": 33350,
        "residential_properties": 7380,
        "commercial_units": 1265,
        "sanitation_workers_allocated": 16,
        "nodal_officer": "OFF-ZONE9-WARD61",
        "helpline": "+91-1800-425-1151"
      },
      "geometry": {
        "type": "Polygon",
        "coordinates": [[
          [78.997700, 17.896000],
          [79.007700, 17.898000],
          [79.009700, 17.911000],
          [79.000700, 17.914000],
          [78.997700, 17.896000]
        ]]
      }
    },
    {
      "type": "Feature",
      "id": "W-09-062",
      "properties": {
        "ward_number": 62,
        "ward_code": "W-09-062",
        "ward_name": "Zone_09 Municipal Ward 62",
        "population_census": 33700,
        "residential_properties": 7460,
        "commercial_units": 1280,
        "sanitation_workers_allocated": 17,
        "nodal_officer": "OFF-ZONE9-WARD62",
        "helpline": "+91-1800-425-1152"
      },
      "geometry": {
        "type": "Polygon",
        "coordinates": [[
          [78.998700, 17.897000],
          [79.008700, 17.899000],
          [79.010700, 17.912000],
          [79.001700, 17.915000],
          [78.998700, 17.897000]
        ]]
      }
    },
    {
      "type": "Feature",
      "id": "W-09-063",
      "properties": {
        "ward_number": 63,
        "ward_code": "W-09-063",
        "ward_name": "Zone_09 Municipal Ward 63",
        "population_census": 34050,
        "residential_properties": 7540,
        "commercial_units": 1295,
        "sanitation_workers_allocated": 18,
        "nodal_officer": "OFF-ZONE9-WARD63",
        "helpline": "+91-1800-425-1153"
      },
      "geometry": {
        "type": "Polygon",
        "coordinates": [[
          [78.999700, 17.898000],
          [79.009700, 17.900000],
          [79.011700, 17.913000],
          [79.002700, 17.916000],
          [78.999700, 17.898000]
        ]]
      }
    },
    {
      "type": "Feature",
      "id": "W-09-064",
      "properties": {
        "ward_number": 64,
        "ward_code": "W-09-064",
        "ward_name": "Zone_09 Municipal Ward 64",
        "population_census": 34400,
        "residential_properties": 7620,
        "commercial_units": 1310,
        "sanitation_workers_allocated": 19,
        "nodal_officer": "OFF-ZONE9-WARD64",
        "helpline": "+91-1800-425-1154"
      },
      "geometry": {
        "type": "Polygon",
        "coordinates": [[
          [79.000700, 17.899000],
          [79.010700, 17.901000],
          [79.012700, 17.914000],
          [79.003700, 17.917000],
          [79.000700, 17.899000]
        ]]
      }
    },
    {
      "type": "Feature",
      "id": "W-09-065",
      "properties": {
        "ward_number": 65,
        "ward_code": "W-09-065",
        "ward_name": "Zone_09 Municipal Ward 65",
        "population_census": 34750,
        "residential_properties": 7700,
        "commercial_units": 1325,
        "sanitation_workers_allocated": 20,
        "nodal_officer": "OFF-ZONE9-WARD65",
        "helpline": "+91-1800-425-1155"
      },
      "geometry": {
        "type": "Polygon",
        "coordinates": [[
          [79.001700, 17.900000],
          [79.011700, 17.902000],
          [79.013700, 17.915000],
          [79.004700, 17.918000],
          [79.001700, 17.900000]
        ]]
      }
    },
    {
      "type": "Feature",
      "id": "W-09-066",
      "properties": {
        "ward_number": 66,
        "ward_code": "W-09-066",
        "ward_name": "Zone_09 Municipal Ward 66",
        "population_census": 35100,
        "residential_properties": 7780,
        "commercial_units": 1340,
        "sanitation_workers_allocated": 21,
        "nodal_officer": "OFF-ZONE9-WARD66",
        "helpline": "+91-1800-425-1156"
      },
      "geometry": {
        "type": "Polygon",
        "coordinates": [[
          [79.002700, 17.901000],
          [79.012700, 17.903000],
          [79.014700, 17.916000],
          [79.005700, 17.919000],
          [79.002700, 17.901000]
        ]]
      }
    },
    {
      "type": "Feature",
      "id": "W-09-067",
      "properties": {
        "ward_number": 67,
        "ward_code": "W-09-067",
        "ward_name": "Zone_09 Municipal Ward 67",
        "population_census": 35450,
        "residential_properties": 7860,
        "commercial_units": 1355,
        "sanitation_workers_allocated": 22,
        "nodal_officer": "OFF-ZONE9-WARD67",
        "helpline": "+91-1800-425-1157"
      },
      "geometry": {
        "type": "Polygon",
        "coordinates": [[
          [79.003700, 17.902000],
          [79.013700, 17.904000],
          [79.015700, 17.917000],
          [79.006700, 17.920000],
          [79.003700, 17.902000]
        ]]
      }
    },
    {
      "type": "Feature",
      "id": "W-09-068",
      "properties": {
        "ward_number": 68,
        "ward_code": "W-09-068",
        "ward_name": "Zone_09 Municipal Ward 68",
        "population_census": 35800,
        "residential_properties": 7940,
        "commercial_units": 1370,
        "sanitation_workers_allocated": 23,
        "nodal_officer": "OFF-ZONE9-WARD68",
        "helpline": "+91-1800-425-1158"
      },
      "geometry": {
        "type": "Polygon",
        "coordinates": [[
          [79.004700, 17.903000],
          [79.014700, 17.905000],
          [79.016700, 17.918000],
          [79.007700, 17.921000],
          [79.004700, 17.903000]
        ]]
      }
    },
    {
      "type": "Feature",
      "id": "W-09-069",
      "properties": {
        "ward_number": 69,
        "ward_code": "W-09-069",
        "ward_name": "Zone_09 Municipal Ward 69",
        "population_census": 36150,
        "residential_properties": 8020,
        "commercial_units": 1385,
        "sanitation_workers_allocated": 24,
        "nodal_officer": "OFF-ZONE9-WARD69",
        "helpline": "+91-1800-425-1159"
      },
      "geometry": {
        "type": "Polygon",
        "coordinates": [[
          [79.005700, 17.904000],
          [79.015700, 17.906000],
          [79.017700, 17.919000],
          [79.008700, 17.922000],
          [79.005700, 17.904000]
        ]]
      }
    },
    {
      "type": "Feature",
      "id": "W-09-070",
      "properties": {
        "ward_number": 70,
        "ward_code": "W-09-070",
        "ward_name": "Zone_09 Municipal Ward 70",
        "population_census": 36500,
        "residential_properties": 8100,
        "commercial_units": 1400,
        "sanitation_workers_allocated": 25,
        "nodal_officer": "OFF-ZONE9-WARD70",
        "helpline": "+91-1800-425-1160"
      },
      "geometry": {
        "type": "Polygon",
        "coordinates": [[
          [79.006700, 17.905000],
          [79.016700, 17.907000],
          [79.018700, 17.920000],
          [79.009700, 17.923000],
          [79.006700, 17.905000]
        ]]
      }
    },
    {
      "type": "Feature",
      "id": "W-09-071",
      "properties": {
        "ward_number": 71,
        "ward_code": "W-09-071",
        "ward_name": "Zone_09 Municipal Ward 71",
        "population_census": 36850,
        "residential_properties": 8180,
        "commercial_units": 1415,
        "sanitation_workers_allocated": 26,
        "nodal_officer": "OFF-ZONE9-WARD71",
        "helpline": "+91-1800-425-1161"
      },
      "geometry": {
        "type": "Polygon",
        "coordinates": [[
          [79.007700, 17.906000],
          [79.017700, 17.908000],
          [79.019700, 17.921000],
          [79.010700, 17.924000],
          [79.007700, 17.906000]
        ]]
      }
    },
    {
      "type": "Feature",
      "id": "W-09-072",
      "properties": {
        "ward_number": 72,
        "ward_code": "W-09-072",
        "ward_name": "Zone_09 Municipal Ward 72",
        "population_census": 37200,
        "residential_properties": 8260,
        "commercial_units": 1430,
        "sanitation_workers_allocated": 27,
        "nodal_officer": "OFF-ZONE9-WARD72",
        "helpline": "+91-1800-425-1162"
      },
      "geometry": {
        "type": "Polygon",
        "coordinates": [[
          [79.008700, 17.907000],
          [79.018700, 17.909000],
          [79.020700, 17.922000],
          [79.011700, 17.925000],
          [79.008700, 17.907000]
        ]]
      }
    },
    {
      "type": "Feature",
      "id": "W-09-073",
      "properties": {
        "ward_number": 73,
        "ward_code": "W-09-073",
        "ward_name": "Zone_09 Municipal Ward 73",
        "population_census": 37550,
        "residential_properties": 8340,
        "commercial_units": 1445,
        "sanitation_workers_allocated": 28,
        "nodal_officer": "OFF-ZONE9-WARD73",
        "helpline": "+91-1800-425-1163"
      },
      "geometry": {
        "type": "Polygon",
        "coordinates": [[
          [79.009700, 17.908000],
          [79.019700, 17.910000],
          [79.021700, 17.923000],
          [79.012700, 17.926000],
          [79.009700, 17.908000]
        ]]
      }
    },
    {
      "type": "Feature",
      "id": "W-09-074",
      "properties": {
        "ward_number": 74,
        "ward_code": "W-09-074",
        "ward_name": "Zone_09 Municipal Ward 74",
        "population_census": 37900,
        "residential_properties": 8420,
        "commercial_units": 1460,
        "sanitation_workers_allocated": 29,
        "nodal_officer": "OFF-ZONE9-WARD74",
        "helpline": "+91-1800-425-1164"
      },
      "geometry": {
        "type": "Polygon",
        "coordinates": [[
          [79.010700, 17.909000],
          [79.020700, 17.911000],
          [79.022700, 17.924000],
          [79.013700, 17.927000],
          [79.010700, 17.909000]
        ]]
      }
    },
    {
      "type": "Feature",
      "id": "W-09-075",
      "properties": {
        "ward_number": 75,
        "ward_code": "W-09-075",
        "ward_name": "Zone_09 Municipal Ward 75",
        "population_census": 38250,
        "residential_properties": 8500,
        "commercial_units": 1475,
        "sanitation_workers_allocated": 30,
        "nodal_officer": "OFF-ZONE9-WARD75",
        "helpline": "+91-1800-425-1165"
      },
      "geometry": {
        "type": "Polygon",
        "coordinates": [[
          [79.011700, 17.910000],
          [79.021700, 17.912000],
          [79.023700, 17.925000],
          [79.014700, 17.928000],
          [79.011700, 17.910000]
        ]]
      }
    },
    {
      "type": "Feature",
      "id": "W-09-076",
      "properties": {
        "ward_number": 76,
        "ward_code": "W-09-076",
        "ward_name": "Zone_09 Municipal Ward 76",
        "population_census": 38600,
        "residential_properties": 8580,
        "commercial_units": 1490,
        "sanitation_workers_allocated": 31,
        "nodal_officer": "OFF-ZONE9-WARD76",
        "helpline": "+91-1800-425-1166"
      },
      "geometry": {
        "type": "Polygon",
        "coordinates": [[
          [79.012700, 17.911000],
          [79.022700, 17.913000],
          [79.024700, 17.926000],
          [79.015700, 17.929000],
          [79.012700, 17.911000]
        ]]
      }
    },
    {
      "type": "Feature",
      "id": "W-09-077",
      "properties": {
        "ward_number": 77,
        "ward_code": "W-09-077",
        "ward_name": "Zone_09 Municipal Ward 77",
        "population_census": 38950,
        "residential_properties": 8660,
        "commercial_units": 1505,
        "sanitation_workers_allocated": 32,
        "nodal_officer": "OFF-ZONE9-WARD77",
        "helpline": "+91-1800-425-1167"
      },
      "geometry": {
        "type": "Polygon",
        "coordinates": [[
          [79.013700, 17.912000],
          [79.023700, 17.914000],
          [79.025700, 17.927000],
          [79.016700, 17.930000],
          [79.013700, 17.912000]
        ]]
      }
    },
    {
      "type": "Feature",
      "id": "W-09-078",
      "properties": {
        "ward_number": 78,
        "ward_code": "W-09-078",
        "ward_name": "Zone_09 Municipal Ward 78",
        "population_census": 39300,
        "residential_properties": 8740,
        "commercial_units": 1520,
        "sanitation_workers_allocated": 33,
        "nodal_officer": "OFF-ZONE9-WARD78",
        "helpline": "+91-1800-425-1168"
      },
      "geometry": {
        "type": "Polygon",
        "coordinates": [[
          [79.014700, 17.913000],
          [79.024700, 17.915000],
          [79.026700, 17.928000],
          [79.017700, 17.931000],
          [79.014700, 17.913000]
        ]]
      }
    },
    {
      "type": "Feature",
      "id": "W-09-079",
      "properties": {
        "ward_number": 79,
        "ward_code": "W-09-079",
        "ward_name": "Zone_09 Municipal Ward 79",
        "population_census": 39650,
        "residential_properties": 8820,
        "commercial_units": 1535,
        "sanitation_workers_allocated": 34,
        "nodal_officer": "OFF-ZONE9-WARD79",
        "helpline": "+91-1800-425-1169"
      },
      "geometry": {
        "type": "Polygon",
        "coordinates": [[
          [79.015700, 17.914000],
          [79.025700, 17.916000],
          [79.027700, 17.929000],
          [79.018700, 17.932000],
          [79.015700, 17.914000]
        ]]
      }
    },
    {
      "type": "Feature",
      "id": "W-09-080",
      "properties": {
        "ward_number": 80,
        "ward_code": "W-09-080",
        "ward_name": "Zone_09 Municipal Ward 80",
        "population_census": 40000,
        "residential_properties": 8900,
        "commercial_units": 1550,
        "sanitation_workers_allocated": 15,
        "nodal_officer": "OFF-ZONE9-WARD80",
        "helpline": "+91-1800-425-1170"
      },
      "geometry": {
        "type": "Polygon",
        "coordinates": [[
          [79.016700, 17.915000],
          [79.026700, 17.917000],
          [79.028700, 17.930000],
          [79.019700, 17.933000],
          [79.016700, 17.915000]
        ]]
      }
    },
    {
      "type": "Feature",
      "id": "W-09-081",
      "properties": {
        "ward_number": 81,
        "ward_code": "W-09-081",
        "ward_name": "Zone_09 Municipal Ward 81",
        "population_census": 40350,
        "residential_properties": 8980,
        "commercial_units": 1565,
        "sanitation_workers_allocated": 16,
        "nodal_officer": "OFF-ZONE9-WARD81",
        "helpline": "+91-1800-425-1171"
      },
      "geometry": {
        "type": "Polygon",
        "coordinates": [[
          [79.017700, 17.916000],
          [79.027700, 17.918000],
          [79.029700, 17.931000],
          [79.020700, 17.934000],
          [79.017700, 17.916000]
        ]]
      }
    },
    {
      "type": "Feature",
      "id": "W-09-082",
      "properties": {
        "ward_number": 82,
        "ward_code": "W-09-082",
        "ward_name": "Zone_09 Municipal Ward 82",
        "population_census": 40700,
        "residential_properties": 9060,
        "commercial_units": 1580,
        "sanitation_workers_allocated": 17,
        "nodal_officer": "OFF-ZONE9-WARD82",
        "helpline": "+91-1800-425-1172"
      },
      "geometry": {
        "type": "Polygon",
        "coordinates": [[
          [79.018700, 17.917000],
          [79.028700, 17.919000],
          [79.030700, 17.932000],
          [79.021700, 17.935000],
          [79.018700, 17.917000]
        ]]
      }
    },
    {
      "type": "Feature",
      "id": "W-09-083",
      "properties": {
        "ward_number": 83,
        "ward_code": "W-09-083",
        "ward_name": "Zone_09 Municipal Ward 83",
        "population_census": 41050,
        "residential_properties": 9140,
        "commercial_units": 1595,
        "sanitation_workers_allocated": 18,
        "nodal_officer": "OFF-ZONE9-WARD83",
        "helpline": "+91-1800-425-1173"
      },
      "geometry": {
        "type": "Polygon",
        "coordinates": [[
          [79.019700, 17.918000],
          [79.029700, 17.920000],
          [79.031700, 17.933000],
          [79.022700, 17.936000],
          [79.019700, 17.918000]
        ]]
      }
    },
    {
      "type": "Feature",
      "id": "W-09-084",
      "properties": {
        "ward_number": 84,
        "ward_code": "W-09-084",
        "ward_name": "Zone_09 Municipal Ward 84",
        "population_census": 41400,
        "residential_properties": 9220,
        "commercial_units": 1610,
        "sanitation_workers_allocated": 19,
        "nodal_officer": "OFF-ZONE9-WARD84",
        "helpline": "+91-1800-425-1174"
      },
      "geometry": {
        "type": "Polygon",
        "coordinates": [[
          [79.020700, 17.919000],
          [79.030700, 17.921000],
          [79.032700, 17.934000],
          [79.023700, 17.937000],
          [79.020700, 17.919000]
        ]]
      }
    },
    {
      "type": "Feature",
      "id": "W-09-085",
      "properties": {
        "ward_number": 85,
        "ward_code": "W-09-085",
        "ward_name": "Zone_09 Municipal Ward 85",
        "population_census": 41750,
        "residential_properties": 9300,
        "commercial_units": 1625,
        "sanitation_workers_allocated": 20,
        "nodal_officer": "OFF-ZONE9-WARD85",
        "helpline": "+91-1800-425-1175"
      },
      "geometry": {
        "type": "Polygon",
        "coordinates": [[
          [79.021700, 17.920000],
          [79.031700, 17.922000],
          [79.033700, 17.935000],
          [79.024700, 17.938000],
          [79.021700, 17.920000]
        ]]
      }
    },
    {
      "type": "Feature",
      "id": "W-09-086",
      "properties": {
        "ward_number": 86,
        "ward_code": "W-09-086",
        "ward_name": "Zone_09 Municipal Ward 86",
        "population_census": 42100,
        "residential_properties": 9380,
        "commercial_units": 1640,
        "sanitation_workers_allocated": 21,
        "nodal_officer": "OFF-ZONE9-WARD86",
        "helpline": "+91-1800-425-1176"
      },
      "geometry": {
        "type": "Polygon",
        "coordinates": [[
          [79.022700, 17.921000],
          [79.032700, 17.923000],
          [79.034700, 17.936000],
          [79.025700, 17.939000],
          [79.022700, 17.921000]
        ]]
      }
    },
    {
      "type": "Feature",
      "id": "W-09-087",
      "properties": {
        "ward_number": 87,
        "ward_code": "W-09-087",
        "ward_name": "Zone_09 Municipal Ward 87",
        "population_census": 42450,
        "residential_properties": 9460,
        "commercial_units": 1655,
        "sanitation_workers_allocated": 22,
        "nodal_officer": "OFF-ZONE9-WARD87",
        "helpline": "+91-1800-425-1177"
      },
      "geometry": {
        "type": "Polygon",
        "coordinates": [[
          [79.023700, 17.922000],
          [79.033700, 17.924000],
          [79.035700, 17.937000],
          [79.026700, 17.940000],
          [79.023700, 17.922000]
        ]]
      }
    },
    {
      "type": "Feature",
      "id": "W-09-088",
      "properties": {
        "ward_number": 88,
        "ward_code": "W-09-088",
        "ward_name": "Zone_09 Municipal Ward 88",
        "population_census": 42800,
        "residential_properties": 9540,
        "commercial_units": 1670,
        "sanitation_workers_allocated": 23,
        "nodal_officer": "OFF-ZONE9-WARD88",
        "helpline": "+91-1800-425-1178"
      },
      "geometry": {
        "type": "Polygon",
        "coordinates": [[
          [79.024700, 17.923000],
          [79.034700, 17.925000],
          [79.036700, 17.938000],
          [79.027700, 17.941000],
          [79.024700, 17.923000]
        ]]
      }
    },
    {
      "type": "Feature",
      "id": "W-09-089",
      "properties": {
        "ward_number": 89,
        "ward_code": "W-09-089",
        "ward_name": "Zone_09 Municipal Ward 89",
        "population_census": 43150,
        "residential_properties": 9620,
        "commercial_units": 1685,
        "sanitation_workers_allocated": 24,
        "nodal_officer": "OFF-ZONE9-WARD89",
        "helpline": "+91-1800-425-1179"
      },
      "geometry": {
        "type": "Polygon",
        "coordinates": [[
          [79.025700, 17.924000],
          [79.035700, 17.926000],
          [79.037700, 17.939000],
          [79.028700, 17.942000],
          [79.025700, 17.924000]
        ]]
      }
    },
    {
      "type": "Feature",
      "id": "W-09-090",
      "properties": {
        "ward_number": 90,
        "ward_code": "W-09-090",
        "ward_name": "Zone_09 Municipal Ward 90",
        "population_census": 43500,
        "residential_properties": 9700,
        "commercial_units": 1700,
        "sanitation_workers_allocated": 25,
        "nodal_officer": "OFF-ZONE9-WARD90",
        "helpline": "+91-1800-425-1180"
      },
      "geometry": {
        "type": "Polygon",
        "coordinates": [[
          [79.026700, 17.925000],
          [79.036700, 17.927000],
          [79.038700, 17.940000],
          [79.029700, 17.943000],
          [79.026700, 17.925000]
        ]]
      }
    },
    {
      "type": "Feature",
      "id": "W-09-091",
      "properties": {
        "ward_number": 91,
        "ward_code": "W-09-091",
        "ward_name": "Zone_09 Municipal Ward 91",
        "population_census": 43850,
        "residential_properties": 9780,
        "commercial_units": 1715,
        "sanitation_workers_allocated": 26,
        "nodal_officer": "OFF-ZONE9-WARD91",
        "helpline": "+91-1800-425-1181"
      },
      "geometry": {
        "type": "Polygon",
        "coordinates": [[
          [79.027700, 17.926000],
          [79.037700, 17.928000],
          [79.039700, 17.941000],
          [79.030700, 17.944000],
          [79.027700, 17.926000]
        ]]
      }
    },
    {
      "type": "Feature",
      "id": "W-09-092",
      "properties": {
        "ward_number": 92,
        "ward_code": "W-09-092",
        "ward_name": "Zone_09 Municipal Ward 92",
        "population_census": 44200,
        "residential_properties": 9860,
        "commercial_units": 1730,
        "sanitation_workers_allocated": 27,
        "nodal_officer": "OFF-ZONE9-WARD92",
        "helpline": "+91-1800-425-1182"
      },
      "geometry": {
        "type": "Polygon",
        "coordinates": [[
          [79.028700, 17.927000],
          [79.038700, 17.929000],
          [79.040700, 17.942000],
          [79.031700, 17.945000],
          [79.028700, 17.927000]
        ]]
      }
    },
    {
      "type": "Feature",
      "id": "W-09-093",
      "properties": {
        "ward_number": 93,
        "ward_code": "W-09-093",
        "ward_name": "Zone_09 Municipal Ward 93",
        "population_census": 44550,
        "residential_properties": 9940,
        "commercial_units": 1745,
        "sanitation_workers_allocated": 28,
        "nodal_officer": "OFF-ZONE9-WARD93",
        "helpline": "+91-1800-425-1183"
      },
      "geometry": {
        "type": "Polygon",
        "coordinates": [[
          [79.029700, 17.928000],
          [79.039700, 17.930000],
          [79.041700, 17.943000],
          [79.032700, 17.946000],
          [79.029700, 17.928000]
        ]]
      }
    },
    {
      "type": "Feature",
      "id": "W-09-094",
      "properties": {
        "ward_number": 94,
        "ward_code": "W-09-094",
        "ward_name": "Zone_09 Municipal Ward 94",
        "population_census": 44900,
        "residential_properties": 10020,
        "commercial_units": 1760,
        "sanitation_workers_allocated": 29,
        "nodal_officer": "OFF-ZONE9-WARD94",
        "helpline": "+91-1800-425-1184"
      },
      "geometry": {
        "type": "Polygon",
        "coordinates": [[
          [79.030700, 17.929000],
          [79.040700, 17.931000],
          [79.042700, 17.944000],
          [79.033700, 17.947000],
          [79.030700, 17.929000]
        ]]
      }
    },
    {
      "type": "Feature",
      "id": "W-09-095",
      "properties": {
        "ward_number": 95,
        "ward_code": "W-09-095",
        "ward_name": "Zone_09 Municipal Ward 95",
        "population_census": 45250,
        "residential_properties": 10100,
        "commercial_units": 1775,
        "sanitation_workers_allocated": 30,
        "nodal_officer": "OFF-ZONE9-WARD95",
        "helpline": "+91-1800-425-1185"
      },
      "geometry": {
        "type": "Polygon",
        "coordinates": [[
          [79.031700, 17.930000],
          [79.041700, 17.932000],
          [79.043700, 17.945000],
          [79.034700, 17.948000],
          [79.031700, 17.930000]
        ]]
      }
    },
    {
      "type": "Feature",
      "id": "W-09-096",
      "properties": {
        "ward_number": 96,
        "ward_code": "W-09-096",
        "ward_name": "Zone_09 Municipal Ward 96",
        "population_census": 45600,
        "residential_properties": 10180,
        "commercial_units": 1790,
        "sanitation_workers_allocated": 31,
        "nodal_officer": "OFF-ZONE9-WARD96",
        "helpline": "+91-1800-425-1186"
      },
      "geometry": {
        "type": "Polygon",
        "coordinates": [[
          [79.032700, 17.931000],
          [79.042700, 17.933000],
          [79.044700, 17.946000],
          [79.035700, 17.949000],
          [79.032700, 17.931000]
        ]]
      }
    },
    {
      "type": "Feature",
      "id": "W-09-097",
      "properties": {
        "ward_number": 97,
        "ward_code": "W-09-097",
        "ward_name": "Zone_09 Municipal Ward 97",
        "population_census": 45950,
        "residential_properties": 10260,
        "commercial_units": 1805,
        "sanitation_workers_allocated": 32,
        "nodal_officer": "OFF-ZONE9-WARD97",
        "helpline": "+91-1800-425-1187"
      },
      "geometry": {
        "type": "Polygon",
        "coordinates": [[
          [79.033700, 17.932000],
          [79.043700, 17.934000],
          [79.045700, 17.947000],
          [79.036700, 17.950000],
          [79.033700, 17.932000]
        ]]
      }
    },
    {
      "type": "Feature",
      "id": "W-09-098",
      "properties": {
        "ward_number": 98,
        "ward_code": "W-09-098",
        "ward_name": "Zone_09 Municipal Ward 98",
        "population_census": 46300,
        "residential_properties": 10340,
        "commercial_units": 1820,
        "sanitation_workers_allocated": 33,
        "nodal_officer": "OFF-ZONE9-WARD98",
        "helpline": "+91-1800-425-1188"
      },
      "geometry": {
        "type": "Polygon",
        "coordinates": [[
          [79.034700, 17.933000],
          [79.044700, 17.935000],
          [79.046700, 17.948000],
          [79.037700, 17.951000],
          [79.034700, 17.933000]
        ]]
      }
    },
    {
      "type": "Feature",
      "id": "W-09-099",
      "properties": {
        "ward_number": 99,
        "ward_code": "W-09-099",
        "ward_name": "Zone_09 Municipal Ward 99",
        "population_census": 46650,
        "residential_properties": 10420,
        "commercial_units": 1835,
        "sanitation_workers_allocated": 34,
        "nodal_officer": "OFF-ZONE9-WARD99",
        "helpline": "+91-1800-425-1189"
      },
      "geometry": {
        "type": "Polygon",
        "coordinates": [[
          [79.035700, 17.934000],
          [79.045700, 17.936000],
          [79.047700, 17.949000],
          [79.038700, 17.952000],
          [79.035700, 17.934000]
        ]]
      }
    },
    {
      "type": "Feature",
      "id": "W-09-100",
      "properties": {
        "ward_number": 100,
        "ward_code": "W-09-100",
        "ward_name": "Zone_09 Municipal Ward 100",
        "population_census": 47000,
        "residential_properties": 10500,
        "commercial_units": 1850,
        "sanitation_workers_allocated": 15,
        "nodal_officer": "OFF-ZONE9-WARD100",
        "helpline": "+91-1800-425-1190"
      },
      "geometry": {
        "type": "Polygon",
        "coordinates": [[
          [79.036700, 17.935000],
          [79.046700, 17.937000],
          [79.048700, 17.950000],
          [79.039700, 17.953000],
          [79.036700, 17.935000]
        ]]
      }
    }
  }
}